"STATION","DATE","LATITUDE","LONGITUDE","ELEVATION","NAME","REPORT_TYPE","SOURCE","HourlyAltimeterSetting","HourlyDewPointTemperature","HourlyDryBulbTemperature","HourlyPrecipitation","HourlyPresentWeatherType","HourlyPressureChange","HourlyPressureTendency","HourlyRelativeHumidity","HourlySkyConditions","HourlySeaLevelPressure","HourlyStationPressure","HourlyVisibility","HourlyWetBulbTemperature","HourlyWindDirection","HourlyWindGustSpeed","HourlyWindSpeed","Sunrise","Sunset","DailyAverageDewPointTemperature","DailyAverageDryBulbTemperature","DailyAverageRelativeHumidity","DailyAverageSeaLevelPressure","DailyAverageStationPressure","DailyAverageWetBulbTemperature","DailyAverageWindSpeed","DailyCoolingDegreeDays","DailyDepartureFromNormalAverageTemperature","DailyHeatingDegreeDays","DailyMaximumDryBulbTemperature","DailyMinimumDryBulbTemperature","DailyPeakWindDirection","DailyPeakWindSpeed","DailyPrecipitation","DailySnowDepth","DailySnowfall","DailySustainedWindDirection","DailySustainedWindSpeed","DailyWeather","MonthlyAverageRH","MonthlyDaysWithGT001Precip","MonthlyDaysWithGT010Precip","MonthlyDaysWithGT32Temp","MonthlyDaysWithGT90Temp","MonthlyDaysWithLT0Temp","MonthlyDaysWithLT32Temp","MonthlyDepartureFromNormalAverageTemperature","MonthlyDepartureFromNormalCoolingDegreeDays","MonthlyDepartureFromNormalHeatingDegreeDays","MonthlyDepartureFromNormalMaximumTemperature","MonthlyDepartureFromNormalMinimumTemperature","MonthlyDepartureFromNormalPrecipitation","MonthlyDewpointTemperature","MonthlyGreatestPrecip","MonthlyGreatestPrecipDate","MonthlyGreatestSnowDepth","MonthlyGreatestSnowDepthDate","MonthlyGreatestSnowfall","MonthlyGreatestSnowfallDate","MonthlyMaxSeaLevelPressureValue","MonthlyMaxSeaLevelPressureValueDate","MonthlyMaxSeaLevelPressureValueTime","MonthlyMaximumTemperature","MonthlyMeanTemperature","MonthlyMinSeaLevelPressureValue","MonthlyMinSeaLevelPressureValueDate","MonthlyMinSeaLevelPressureValueTime","MonthlyMinimumTemperature","MonthlySeaLevelPressure","MonthlyStationPressure","MonthlyTotalLiquidPrecipitation","MonthlyTotalSnowfall","MonthlyWetBulb","AWND","CDSD","CLDD","DSNW","HDSD","HTDD","DYTS","DYHF","NormalsCoolingDegreeDay","NormalsHeatingDegreeDay","ShortDurationEndDate005","ShortDurationEndDate010","ShortDurationEndDate015","ShortDurationEndDate020","ShortDurationEndDate030","ShortDurationEndDate045","ShortDurationEndDate060","ShortDurationEndDate080","ShortDurationEndDate100","ShortDurationEndDate120","ShortDurationEndDate150","ShortDurationEndDate180","ShortDurationPrecipitationValue005","ShortDurationPrecipitationValue010","ShortDurationPrecipitationValue015","ShortDurationPrecipitationValue020","ShortDurationPrecipitationValue030","ShortDurationPrecipitationValue045","ShortDurationPrecipitationValue060","ShortDurationPrecipitationValue080","ShortDurationPrecipitationValue100","ShortDurationPrecipitationValue120","ShortDurationPrecipitationValue150","ShortDurationPrecipitationValue180","REM","BackupDirection","BackupDistance","BackupDistanceUnit","BackupElements","BackupElevation","BackupEquipment","BackupLatitude","BackupLongitude","BackupName","WindEquipmentChangeDate"
"01002099999","2024-01-01T04:00:00","80.05","16.25","8.0","VERLEGENHUKEN, NO","FM-12","4","","17","24","","","+0.08","7","74","","29.63","29.59","","22","130","","11","","","","","","","","","","","","","","","","","","","","","","","","","","","","","","","","","","","","","","","","","","","","","","","","","","","","","","","","","","","","","","","","","","","","","","","","","","","","","","","","","","","","","","","","","","","SYN07601002 46/// /1305 11043 21083 30021 40033 57027 333 11013 21054 90710 91106=","","","","","","","","","",""
"01002099999","2024-01-01T10:00:00","80.05","16.25","8.0","VERLEGENHUKEN, NO","FM-12","4","","27","28","","","+0.05","7","95","","29.51","29.48","","28","250","","11","","","","","","","","","","","","","","","","","","","","","","","","","","","","","","","","","","","","","","","","","","","","","","","","","","","","","","","","","","","","","","","","","","","","","","","","","","","","","","","","","","","","","","","","","","","SYN07601002 46/// /2505 11021 21028 39982 49994 57017 333 11021 21034 90710 91106=","","","","","","","","","",""
"01002099999","2024-01-01T16:00:00","80.05","16.25","8.0","VERLEGENHUKEN, NO","FM-12","4","","26","28","","","0.01","9","90","","29.45","29.42","","27","360","","31","","","","","","","","","","","","","","","","","","","","","","","","","","","","","","","","","","","","","","","","","","","","","","","","","","","","","","","","","","","","","","","","","","","","","","","","","","","","","","","","","","","","","","","","","","","SYN07601002 46/// /3614 11022 21036 39962 49974 50002 333 11018 21022 90710 91116=","","","","","","","","","",""
"01002099999","2024-01-01T22:00:00","80.05","16.25","8.0","VERLEGENHUKEN, NO","FM-12","4","","18","19","","","-0.06","2","94","","29.59","29.56","","19","310","","25","","","","","","","","","","","","","","","","","","","","","","","","","","","","","","","","","","","","","","","","","","","","","","","","","","","","","","","","","","","","","","","","","","","","","","","","","","","","","","","","","","","","","","","","","","","SYN07601002 46/// /3111 11071 21079 30010 40022 52022 333 11058 21071 90710 91114=","","","","","","","","","",""
"01002099999","2024-01-02T04:00:00","80.05","16.25","8.0","VERLEGENHUKEN, NO","FM-12","4","","11","15","","","-0.03","1","84","","29.68","29.64","","14","300","","29","","","","","","","","","","","","","","","","","","","","","","","","","","","","","","","","","","","","","","","","","","","","","","","","","","","","","","","","","","","","","","","","","","","","","","","","","","","","","","","","","","","","","","","","","","","SYN07601002 46/// /3013 11094 21116 30038 40051 51010 333 11087 21094 90710 91116=","","","","","","","","","",""
"01002099999","2024-01-02T10:00:00","80.05","16.25","8.0","VERLEGENHUKEN, NO","FM-12","4","","9","13","","","-0.04","2","85","","29.74","29.70","","12","290","","27","","","","","","","","","","","","","","","","","","","","","","","","","","","","","","","","","","","","","","","","","","","","","","","","","","","","","","","","","","","","","","","","","","","","","","","","","","","","","","","","","","","","","","","","","","","SYN07601002 46/// /2912 11105 21126 30058 40070 52013 333 11101 21107 90710 91114=","","","","","","","","","",""
"01002099999","2024-01-02T22:00:00","80.05","16.25","8.0","VERLEGENHUKEN, NO","FM-12","4","","3","11","","","+0.01","8","72","","29.76","29.72","","9","280","","16","","","","","","","","","","","","","","","","","","","","","","","","","","","","","","","","","","","","","","","","","","","","","","","","","","","","","","","","","","","","","","","","","","","","","","","","","","","","","","","","","","","","","","","","","","","SYN07601002 46/// /2807 11118 21159 30066 40079 58004 333 11116 21120 90710 91109=","","","","","","","","","",""
"01002099999","2024-01-03T04:00:00","80.05","16.25","8.0","VERLEGENHUKEN, NO","FM-12","4","","7","11","","","+0.01","6","85","","29.73","29.69","","10","040","","20","","","","","","","","","","","","","","","","","","","","","","","","","","","","","","","","","","","","","","","","","","","","","","","","","","","","","","","","","","","","","","","","","","","","","","","","","","","","","","","","","","","","","","","","","","","SYN07601002 46/// /0409 11118 21138 30054 40067 56005 333 11112 21119 90710 91111=","","","","","","","","","",""
"01002099999","2024-01-03T10:00:00","80.05","16.25","8.0","VERLEGENHUKEN, NO","FM-12","4","","-2","5","","","-0.06","2","72","","29.82","29.79","","4","030","","16","","","","","","","","","","","","","","","","","","","","","","","","","","","","","","","","","","","","","","","","","","","","","","","","","","","","","","","","","","","","","","","","","","","","","","","","","","","","","","","","","","","","","","","","","","","SYN07601002 46/// /0307 11151 21191 30087 40099 52019 333 11145 21151 90710 91111=","","","","","","","","","",""
"01002099999","2024-01-03T16:00:00","80.05","16.25","8.0","VERLEGENHUKEN, NO","FM-12","4","","-6","0","","","-0.01","3","75","","29.86","29.83","","-1","010","","16","","","","","","","","","","","","","","","","","","","","","","","","","","","","","","","","","","","","","","","","","","","","","","","","","","","","","","","","","","","","","","","","","","","","","","","","","","","","","","","","","","","","","","","","","","","SYN07601002 46/// /0107 11179 21213 30100 40112 53004 333 11174 21180 90710 91109=","","","","","","","","","",""
"01002099999","2024-01-03T22:00:00","80.05","16.25","8.0","VERLEGENHUKEN, NO","FM-12","4","","-9","-2","","","+0.01","7","72","","29.85","29.81","","-3","330","","13","","","","","","","","","","","","","","","","","","","","","","","","","","","","","","","","","","","","","","","","","","","","","","","","","","","","","","","","","","","","","","","","","","","","","","","","","","","","","","","","","","","","","","","","","","","SYN07601002 46/// /3306 11190 21228 30096 40109 57004 333 11188 21191 90710 91108=","","","","","","","","","",""
"01002099999","2024-01-04T04:00:00","80.05","16.25","8.0","VERLEGENHUKEN, NO","FM-12","4","","-10","-4","","","+0.04","6","76","","29.78","29.74","","-5","310","","18","","","","","","","","","","","","","","","","","","","","","","","","","","","","","","","","","","","","","","","","","","","","","","","","","","","","","","","","","","","","","","","","","","","","","","","","","","","","","","","","","","","","","","","","","","","SYN07601002 46/// /3108 11200 21232 30070 40083 56015 333 11197 21205 90710 91111=","","","","","","","","","",""
"01002099999","2024-01-04T10:00:00","80.05","16.25","8.0","VERLEGENHUKEN, NO","FM-12","4","","-12","-5","","","+0.04","7","74","","29.69","29.65","","-6","290","","18","","","","","","","","","","","","","","","","","","","","","","","","","","","","","","","","","","","","","","","","","","","","","","","","","","","","","","","","","","","","","","","","","","","","","","","","","","","","","","","","","","","","","","","","","","","SYN07601002 46/// /2908 11208 21243 30042 40055 57014 333 11207 21213 90710 91111=","","","","","","","","","",""
"01002099999","2024-01-04T16:00:00","80.05","16.25","8.0","VERLEGENHUKEN, NO","FM-12","4","","-17","-9","","","0.00","4","69","","29.66","29.62","","-10","290","","13","","","","","","","","","","","","","","","","","","","","","","","","","","","","","","","","","","","","","","","","","","","","","","","","","","","","","","","","","","","","","","","","","","","","","","","","","","","","","","","","","","","","","","","","","","","SYN07601002 46/// /2906 11229 21271 30030 40043 54000 333 11225 21231 90710 91109=","","","","","","","","","",""
"01002099999","2024-01-04T22:00:00","80.05","16.25","8.0","VERLEGENHUKEN, NO","FM-12","4","","-14","-6","","","-0.01","3","67","","29.68","29.64","","-7","300","","13","","","","","","","","","","","","","","","","","","","","","","","","","","","","","","","","","","","","","","","","","","","","","","","","","","","","","","","","","","","","","","","","","","","","","","","","","","","","","","","","","","","","","","","","","","","SYN07601002 46/// /3006 11210 21255 30038 40051 53005 333 11209 21217 90710 91108=","","","","","","","","","",""
"01002099999","2024-01-05T04:00:00","80.05","16.25","8.0","VERLEGENHUKEN, NO","FM-12","4","","-7","-3","","","+0.01","5","83","","29.69","29.65","","-4","310","","22","","","","","","","","","","","","","","","","","","","","","","","","","","","","","","","","","","","","","","","","","","","","","","","","","","","","","","","","","","","","","","","","","","","","","","","","","","","","","","","","","","","","","","","","","","","SYN07601002 46/// /3110 11192 21214 30040 40053 55002 333 11190 21200 90710 91112=","","","","","","","","","",""
"01002099999","2024-01-05T10:00:00","80.05","16.25","8.0","VERLEGENHUKEN, NO","FM-12","4","","-4","0","","","-0.04","2","83","","29.75","29.71","","-1","310","","20","","","","","","","","","","","","","","","","","","","","","","","","","","","","","","","","","","","","","","","","","","","","","","","","","","","","","","","","","","","","","","","","","","","","","","","","","","","","","","","","","","","","","","","","","","","SYN07601002 46/// /3109 11176 21198 30062 40074 52015 333 11172 21178 90710 91111=","","","","","","","","","",""
"01002099999","2024-01-05T16:00:00","80.05","16.25","8.0","VERLEGENHUKEN, NO","FM-12","4","","-5","0","","","-0.02","2","78","","29.80","29.76","","-1","300","","20","","","","","","","","","","","","","","","","","","","","","","","","","","","","","","","","","","","","","","","","","","","","","","","","","","","","","","","","","","","","","","","","","","","","","","","","","","","","","","","","","","","","","","","","","","","SYN07601002 46/// /3009 11175 21204 30079 40092 52007 333 11170 21176 90710 91111=","","","","","","","","","",""
"01002099999","2024-01-05T22:00:00","80.05","16.25","8.0","VERLEGENHUKEN, NO","FM-12","4","","-5","1","","","-0.01","1","78","","29.85","29.81","","0","310","","16","","","","","","","","","","","","","","","","","","","","","","","","","","","","","","","","","","","","","","","","","","","","","","","","","","","","","","","","","","","","","","","","","","","","","","","","","","","","","","","","","","","","","","","","","","","SYN07601002 46/// /3107 11174 21204 30095 40107 51005 333 11171 21176 90710 91110=","","","","","","","","","",""
"01002099999","2024-01-06T04:00:00","80.05","16.25","8.0","VERLEGENHUKEN, NO","FM-12","4","","-6","0","","","-0.02","2","77","","29.90","29.86","","-1","320","","18","","","","","","","","","","","","","","","","","","","","","","","","","","","","","","","","","","","","","","","","","","","","","","","","","","","","","","","","","","","","","","","","","","","","","","","","","","","","","","","","","","","","","","","","","","","SYN07601002 46/// /3208 11180 21211 30112 40124 52007 333 11177 21181 90710 91111=","","","","","","","","","",""
"01002099999","2024-01-06T10:00:00","80.05","16.25","8.0","VERLEGENHUKEN, NO","FM-12","4","","-6","0","","","-0.04","2","75","","29.96","29.92","","-1","330","","13","","","","","","","","","","","","","","","","","","","","","","","","","","","","","","","","","","","","","","","","","","","","","","","","","","","","","","","","","","","","","","","","","","","","","","","","","","","","","","","","","","","","","","","","","","","SYN07601002 46/// /3306 11176 21210 30131 40144 52013 333 11175 21179 90710 91109=","","","","","","","","","",""
"01002099999","2024-01-06T16:00:00","80.05","16.25","8.0","VERLEGENHUKEN, NO","FM-12","4","","-5","0","","","-0.03","2","78","","30.01","29.97","","-1","310","","16","","","","","","","","","","","","","","","","","","","","","","","","","","","","","","","","","","","","","","","","","","","","","","","","","","","","","","","","","","","","","","","","","","","","","","","","","","","","","","","","","","","","","","","","","","","SYN07601002 46/// /3107 11176 21205 30148 40161 52010 333 11175 21179 90710 91109=","","","","","","","","","",""
"01002099999","2024-01-06T22:00:00","80.05","16.25","8.0","VERLEGENHUKEN, NO","FM-12","4","","-5","0","","","","","78","","30.03","29.99","","-1","320","","11","","","","","","","","","","","","","","","","","","","","","","","","","","","","","","","","","","","","","","","","","","","","","","","","","","","","","","","","","","","","","","","","","","","","","","","","","","","","","","","","","","","","","","","","","","","SYN07601002 46/// /3205 11176 21205 30157 40170 54002 333 11175 21179 90710 91109=","","","","","","","","","",""
"01002099999","2024-01-07T04:00:00","80.05","16.25","8.0","VERLEGENHUKEN, NO","FM-12","4","","-5","0","","","","","78","","30.04","30.01","","-1","310","","9","","","","","","","","","","","","","","","","","","","","","","","","","","","","","","","","","","","","","","","","","","","","","","","","","","","","","","","","","","","","","","","","","","","","","","","","","","","","","","","","","","","","","","","","","","","SYN07601002 46/// /3104 11176 21205 30161 40174 54001 333 11174 21177 90710 91106=","","","","","","","","","",""
"01002099999","2024-01-07T10:00:00","80.05","16.25","8.0","VERLEGENHUKEN, NO","FM-12","4","","-4","1","","","","","81","","30.03","29.99","","0","180","","9","","","","","","","","","","","","","","","","","","","","","","","","","","","","","","","","","","","","","","","","","","","","","","","","","","","","","","","","","","","","","","","","","","","","","","","","","","","","","","","","","","","","","","","","","","","SYN07601002 46/// /1804 11174 21199 30157 40169 54003 333 11169 21174 90710 91104=","","","","","","","","","",""
"01002099999","2024-01-07T16:00:00","80.05","16.25","8.0","VERLEGENHUKEN, NO","FM-12","4","","-8","-2","","","+0.01","7","77","","30.01","29.97","","-3","150","","16","","","","","","","","","","","","","","","","","","","","","","","","","","","","","","","","","","","","","","","","","","","","","","","","","","","","","","","","","","","","","","","","","","","","","","","","","","","","","","","","","","","","","","","","","","","SYN07601002 46/// /1507 11190 21220 30150 40162 57005 333 11176 21192 90710 91107=","","","","","","","","","",""
"01002099999","2024-01-07T22:00:00","80.05","16.25","8.0","VERLEGENHUKEN, NO","FM-12","4","","0","5","","","+0.02","7","83","","29.98","29.94","","4","120","","25","","","","","","","","","","","","","","","","","","","","","","","","","","","","","","","","","","","","","","","","","","","","","","","","","","","","","","","","","","","","","","","","","","","","","","","","","","","","","","","","","","","","","","","","","","","SYN07601002 46/// /1211 11152 21175 30139 40152 57006 333 11151 21182 90710 91113=","","","","","","","","","",""
"01002099999","2024-01-08T04:00:00","80.05","16.25","8.0","VERLEGENHUKEN, NO","FM-12","4","","-6","0","","","+0.01","7","77","","29.97","29.93","","-1","130","","13","","","","","","","","","","","","","","","","","","","","","","","","","","","","","","","","","","","","","","","","","","","","","","","","","","","","","","","","","","","","","","","","","","","","","","","","","","","","","","","","","","","","","","","","","","","SYN07601002 46/// /1306 11179 21210 30137 40150 57003 333 11162 21179 90710 91107=","","","","","","","","","",""
"01002099999","2024-01-08T22:00:00","80.05","16.25","8.0","VERLEGENHUKEN, NO","FM-12","4","","4","8","","","-0.03","2","86","","29.97","29.93","","7","110","","25","","","","","","","","","","","","","","","","","","","","","","","","","","","","","","","","","","","","","","","","","","","","","","","","","","","","","","","","","","","","","","","","","","","","","","","","","","","","","","","","","","","","","","","","","","","SYN07601002 46/// /1111 11135 21154 30137 40149 52011 333 11130 21135 90710 91113=","","","","","","","","","",""
"01002099999","2024-01-09T04:00:00","80.05","16.25","8.0","VERLEGENHUKEN, NO","FM-12","4","","2","7","","","-0.01","2","80","","30.01","29.98","","6","100","","22","","","","","","","","","","","","","","","","","","","","","","","","","","","","","","","","","","","","","","","","","","","","","","","","","","","","","","","","","","","","","","","","","","","","","","","","","","","","","","","","","","","","","","","","","","","SYN07601002 46/// /1010 11140 21168 30151 40164 52005 333 11138 21143 90710 91112=","","","","","","","","","",""
"01002099999","2024-01-09T10:00:00","80.05","16.25","8.0","VERLEGENHUKEN, NO","FM-12","4","","0","3","","","-0.03","2","84","","30.09","30.05","","2","120","","25","","","","","","","","","","","","","","","","","","","","","","","","","","","","","","","","","","","","","","","","","","","","","","","","","","","","","","","","","","","","","","","","","","","","","","","","","","","","","","","","","","","","","","","","","","","SYN07601002 46/// /1211 11159 21180 30176 40188 52010 333 11155 21159 90710 91113=","","","","","","","","","",""
"01002099999","2024-01-09T16:00:00","80.05","16.25","8.0","VERLEGENHUKEN, NO","FM-12","4","","-1","4","","","-0.02","2","81","","30.13","30.09","","3","120","","29","","","","","","","","","","","","","","","","","","","","","","","","","","","","","","","","","","","","","","","","","","","","","","","","","","","","","","","","","","","","","","","","","","","","","","","","","","","","","","","","","","","","","","","","","","","SYN07601002 46/// /1213 11155 21181 30190 40202 52006 333 11151 21156 90710 91115=","","","","","","","","","",""
"01002099999","2024-01-09T22:00:00","80.05","16.25","8.0","VERLEGENHUKEN, NO","FM-12","4","","-6","-1","","","+0.01","7","80","","30.08","30.04","","-2","130","","25","","","","","","","","","","","","","","","","","","","","","","","","","","","","","","","","","","","","","","","","","","","","","","","","","","","","","","","","","","","","","","","","","","","","","","","","","","","","","","","","","","","","","","","","","","","SYN07601002 46/// /1311 11182 21209 30172 40185 57005 333 11157 21183 90710 91117=","","","","","","","","","",""
"01002099999","2024-01-10T04:00:00","80.05","16.25","8.0","VERLEGENHUKEN, NO","FM-12","4","","0","4","","","+0.01","5","84","","30.05","30.01","","3","120","","34","","","","","","","","","","","","","","","","","","","","","","","","","","","","","","","","","","","","","","","","","","","","","","","","","","","","","","","","","","","","","","","","","","","","","","","","","","","","","","","","","","","","","","","","","","","SYN07601002 46/// /1215 11158 21179 30162 40175 55002 333 11158 21174 90710 91117=","","","","","","","","","",""
"01002099999","2024-01-10T10:00:00","80.05","16.25","8.0","VERLEGENHUKEN, NO","FM-12","4","","0","4","","","-0.06","2","83","","30.13","30.09","","3","130","","29","","","","","","","","","","","","","","","","","","","","","","","","","","","","","","","","","","","","","","","","","","","","","","","","","","","","","","","","","","","","","","","","","","","","","","","","","","","","","","","","","","","","","","","","","","","SYN07601002 46/// /1313 11154 21177 30191 40204 52022 333 11150 21159 90710 91116=","","","","","","","","","",""
"01002099999","2024-01-10T16:00:00","80.05","16.25","8.0","VERLEGENHUKEN, NO","FM-12","4","","1","6","","","","","81","","30.18","30.14","","5","120","","25","","","","","","","","","","","","","","","","","","","","","","","","","","","","","","","","","","","","","","","","","","","","","","","","","","","","","","","","","","","","","","","","","","","","","","","","","","","","","","","","","","","","","","","","","","","SYN07601002 46/// /1211 11146 21171 30207 40219 54001 333 11134 21148 90710 91113=","","","","","","","","","",""
"01002099999","2024-01-10T22:00:00","80.05","16.25","8.0","VERLEGENHUKEN, NO","FM-12","4","","2","7","","","+0.01","8","80","","30.16","30.13","","6","120","","29","","","","","","","","","","","","","","","","","","","","","","","","","","","","","","","","","","","","","","","","","","","","","","","","","","","","","","","","","","","","","","","","","","","","","","","","","","","","","","","","","","","","","","","","","","","SYN07601002 46/// /1213 11138 21166 30202 40215 58003 333 11138 21152 90710 91116=","","","","","","","","","",""
"01002099999","2024-01-11T04:00:00","80.05","16.25","8.0","VERLEGENHUKEN, NO","FM-12","4","","2","6","","","-0.01","2","84","","30.19","30.15","","5","120","","36","","","","","","","","","","","","","","","","","","","","","","","","","","","","","","","","","","","","","","","","","","","","","","","","","","","","","","","","","","","","","","","","","","","","","","","","","","","","","","","","","","","","","","","","","","","SYN07601002 46/// /1216 11144 21165 30210 40223 52005 333 11143 21146 90710 91118=","","","","","","","","","",""
"01002099999","2024-01-11T07:00:00","80.05","16.25","8.0","VERLEGENHUKEN, NO","FM-12","4","","2","6","","","-0.03","2","84","","30.22","30.19","","5","118","38","31","","","","","","","","","","","","","","","","","","","","","","","","","","","","","","","","","","","","","","","","","","","","","","","","","","","","","","","","","","","","","","","","","","","","","","","","","","","","","","","","","","","","","","","","","","","SYN004BUFR","","","","","","","","","",""
"01002099999","2024-01-11T22:00:00","80.05","16.25","8.0","VERLEGENHUKEN, NO","FM-12","4","","1","8","","","+0.02","7","74","","30.26","30.22","","7","060","","9","","","","","","","","","","","","","","","","","","","","","","","","","","","","","","","","","","","","","","","","","","","","","","","","","","","","","","","","","","","","","","","","","","","","","","","","","","","","","","","","","","","","","","","","","","","SYN07601002 46/// /0604 11133 21170 30235 40247 57008 333 11132 21134 90710 91106=","","","","","","","","","",""
"01002099999","2024-01-12T04:00:00","80.05","16.25","8.0","VERLEGENHUKEN, NO","FM-12","4","","3","9","","","+0.03","7","77","","30.20","30.16","","8","040","","7","","","","","","","","","","","","","","","","","","","","","","","","","","","","","","","","","","","","","","","","","","","","","","","","","","","","","","","","","","","","","","","","","","","","","","","","","","","","","","","","","","","","","","","","","","","SYN07601002 46/// /0403 11130 21163 30213 40226 57010 333 11128 21144 90710 91106=","","","","","","","","","",""
"01002099999","2024-01-12T10:00:00","80.05","16.25","8.0","VERLEGENHUKEN, NO","FM-12","4","","3","9","","","+0.03","7","76","","30.13","30.09","","8","030","","9","","","","","","","","","","","","","","","","","","","","","","","","","","","","","","","","","","","","","","","","","","","","","","","","","","","","","","","","","","","","","","","","","","","","","","","","","","","","","","","","","","","","","","","","","","","SYN07601002 46/// /0304 11127 21161 30191 40204 57010 333 11126 21128 90710 91106=","","","","","","","","","",""
"01002099999","2024-01-12T16:00:00","80.05","16.25","8.0","VERLEGENHUKEN, NO","FM-12","4","","2","8","","","+0.03","7","76","","30.08","30.04","","7","340","","22","","","","","","","","","","","","","","","","","","","","","","","","","","","","","","","","","","","","","","","","","","","","","","","","","","","","","","","","","","","","","","","","","","","","","","","","","","","","","","","","","","","","","","","","","","","SYN07601002 46/// /3410 11132 21166 30173 40186 57010 333 11128 21133 90710 91112=","","","","","","","","","",""
"01002099999","2024-01-12T22:00:00","80.05","16.25","8.0","VERLEGENHUKEN, NO","FM-12","4","","0","7","","","+0.01","8","76","","30.03","29.99","","6","360","","25","","","","","","","","","","","","","","","","","","","","","","","","","","","","","","","","","","","","","","","","","","","","","","","","","","","","","","","","","","","","","","","","","","","","","","","","","","","","","","","","","","","","","","","","","","","SYN07601002 46/// /3611 11141 21175 30155 40168 58005 333 11135 21142 90710 91113=","","","","","","","","","",""
"01002099999","2024-01-13T04:00:00","80.05","16.25","8.0","VERLEGENHUKEN, NO","FM-12","4","","-4","3","","","+0.01","7","73","","30.00","29.96","","2","360","","22","","","","","","","","","","","","","","","","","","","","","","","","","","","","","","","","","","","","","","","","","","","","","","","","","","","","","","","","","","","","","","","","","","","","","","","","","","","","","","","","","","","","","","","","","","","SYN07601002 46/// /3610 11162 21200 30147 40160 57005 333 11153 21164 90710 91114=","","","","","","","","","",""
"01002099999","2024-01-13T10:00:00","80.05","16.25","8.0","VERLEGENHUKEN, NO","FM-12","4","","-2","2","","","-0.03","1","82","","30.01","29.97","","1","030","","22","","","","","","","","","","","","","","","","","","","","","","","","","","","","","","","","","","","","","","","","","","","","","","","","","","","","","","","","","","","","","","","","","","","","","","","","","","","","","","","","","","","","","","","","","","","SYN07601002 46/// /0310 11167 21191 30148 40161 51011 333 11160 21170 90710 91113=","","","","","","","","","",""
"01002099999","2024-01-13T16:00:00","80.05","16.25","8.0","VERLEGENHUKEN, NO","FM-12","4","","-6","-1","","","-0.03","2","78","","30.07","30.03","","-2","020","","25","","","","","","","","","","","","","","","","","","","","","","","","","","","","","","","","","","","","","","","","","","","","","","","","","","","","","","","","","","","","","","","","","","","","","","","","","","","","","","","","","","","","","","","","","","","SYN07601002 46/// /0211 11183 21212 30171 40183 52010 333 11170 21183 90710 91115=","","","","","","","","","",""
"01002099999","2024-01-13T22:00:00","80.05","16.25","8.0","VERLEGENHUKEN, NO","FM-12","4","","-10","-5","","","-0.03","2","78","","30.14","30.10","","-6","030","","22","","","","","","","","","","","","","","","","","","","","","","","","","","","","","","","","","","","","","","","","","","","","","","","","","","","","","","","","","","","","","","","","","","","","","","","","","","","","","","","","","","","","","","","","","","","SYN07601002 46/// /0310 11207 21236 30194 40207 52009 333 11201 21208 90710 91113=","","","","","","","","","",""
"01002099999","2024-01-14T04:00:00","80.05","16.25","8.0","VERLEGENHUKEN, NO","FM-12","4","","-12","-7","","","+0.01","6","78","","30.14","30.10","","-8","030","","16","","","","","","","","","","","","","","","","","","","","","","","","","","","","","","","","","","","","","","","","","","","","","","","","","","","","","","","","","","","","","","","","","","","","","","","","","","","","","","","","","","","","","","","","","","","SYN07601002 46/// /0307 11215 21244 30192 40205 56005 333 11212 21217 90710 91110=","","","","","","","","","",""
"01002099999","2024-01-14T07:00:00","80.05","16.25","8.0","VERLEGENHUKEN, NO","FM-12","4","","-13","-7","","","+0.03","7","75","","30.11","30.07","","-8","040","23","17","","","","","","","","","","","","","","","","","","","","","","","","","","","","","","","","","","","","","","","","","","","","","","","","","","","","","","","","","","","","","","","","","","","","","","","","","","","","","","","","","","","","","","","","","","","SYN004BUFR","","","","","","","","","",""
"01002099999","2024-01-14T10:00:00","80.05","16.25","8.0","VERLEGENHUKEN, NO","FM-12","4","","-13","-6","","","+0.02","7","74","","30.09","30.05","","-7","030","","11","","","","","","","","","","","","","","","","","","","","","","","","","","","","","","","","","","","","","","","","","","","","","","","","","","","","","","","","","","","","","","","","","","","","","","","","","","","","","","","","","","","","","","","","","","","SYN07601002 46/// /0305 11213 21248 30176 40189 57007 333 11210 21214 90710 91108=","","","","","","","","","",""
"01002099999","2024-01-14T22:00:00","80.05","16.25","8.0","VERLEGENHUKEN, NO","FM-12","4","","-10","-5","","","+0.01","8","78","","29.92","29.88","","-6","070","","11","","","","","","","","","","","","","","","","","","","","","","","","","","","","","","","","","","","","","","","","","","","","","","","","","","","","","","","","","","","","","","","","","","","","","","","","","","","","","","","","","","","","","","","","","","","SYN07601002 46/// /0705 11204 21232 30120 40133 58004 333 11197 21204 90710 91108=","","","","","","","","","",""
"01002099999","2024-01-15T04:00:00","80.05","16.25","8.0","VERLEGENHUKEN, NO","FM-12","4","","-10","-5","","","-0.02","3","81","","29.95","29.91","","-6","060","","18","","","","","","","","","","","","","","","","","","","","","","","","","","","","","","","","","","","","","","","","","","","","","","","","","","","","","","","","","","","","","","","","","","","","","","","","","","","","","","","","","","","","","","","","","","","SYN07601002 46/// /0608 11208 21232 30130 40143 53008 333 11207 21212 90710 91110=","","","","","","","","","",""
"01002099999","2024-01-15T10:00:00","80.05","16.25","8.0","VERLEGENHUKEN, NO","FM-12","4","","-9","-5","","","-0.08","2","82","","30.10","30.06","","-5","070","","25","","","","","","","","","","","","","","","","","","","","","","","","","","","","","","","","","","","","","","","","","","","","","","","","","","","","","","","","","","","","","","","","","","","","","","","","","","","","","","","","","","","","","","","","","","","SYN07601002 46/// /0711 11204 21227 30179 40192 52028 333 11203 21212 90710 91113=","","","","","","","","","",""
"01002099999","2024-01-15T16:00:00","80.05","16.25","8.0","VERLEGENHUKEN, NO","FM-12","4","","-8","-4","","","-0.07","2","82","","30.27","30.23","","-5","060","","25","","","","","","","","","","","","","","","","","","","","","","","","","","","","","","","","","","","","","","","","","","","","","","","","","","","","","","","","","","","","","","","","","","","","","","","","","","","","","","","","","","","","","","","","","","","SYN07601002 46/// /0611 11199 21222 30236 40249 52025 333 11198 21204 90710 91114=","","","","","","","","","",""
"01002099999","2024-01-15T21:00:00","80.05","16.25","8.0","VERLEGENHUKEN, NO","FM-12","4","","-8","-4","","","-0.04","2","81","","30.36","30.32","","-5","055","28","21","","","","","","","","","","","","","","","","","","","","","","","","","","","","","","","","","","","","","","","","","","","","","","","","","","","","","","","","","","","","","","","","","","","","","","","","","","","","","","","","","","","","","","","","","","","SYN004BUFR","","","","","","","","","",""
"01002099999","2024-01-15T22:00:00","80.05","16.25","8.0","VERLEGENHUKEN, NO","FM-12","4","","-8","-4","","","-0.04","2","82","","30.37","30.33","","-5","050","","20","","","","","","","","","","","","","","","","","","","","","","","","","","","","","","","","","","","","","","","","","","","","","","","","","","","","","","","","","","","","","","","","","","","","","","","","","","","","","","","","","","","","","","","","","","","SYN07601002 46/// /0509 11198 21221 30271 40284 52014 333 11196 21202 90710 91113=","","","","","","","","","",""
"01002099999","2024-01-16T04:00:00","80.05","16.25","8.0","VERLEGENHUKEN, NO","FM-12","4","","-8","-4","","","+0.02","6","82","","30.36","30.32","","-5","060","","18","","","","","","","","","","","","","","","","","","","","","","","","","","","","","","","","","","","","","","","","","","","","","","","","","","","","","","","","","","","","","","","","","","","","","","","","","","","","","","","","","","","","","","","","","","","SYN07601002 46/// /0608 11201 21224 30269 40282 56007 333 11198 21204 90710 91110=","","","","","","","","","",""
"01002099999","2024-01-16T10:00:00","80.05","16.25","8.0","VERLEGENHUKEN, NO","FM-12","4","","-11","-7","","","+0.01","7","80","","30.34","30.30","","-7","050","","22","","","","","","","","","","","","","","","","","","","","","","","","","","","","","","","","","","","","","","","","","","","","","","","","","","","","","","","","","","","","","","","","","","","","","","","","","","","","","","","","","","","","","","","","","","","SYN07601002 46/// /0510 11216 21241 30262 40275 57005 333 11209 21217 90710 91113=","","","","","","","","","",""
"01002099999","2024-01-16T16:00:00","80.05","16.25","8.0","VERLEGENHUKEN, NO","FM-12","4","","-15","-10","","","+0.01","8","79","","30.32","30.29","","-11","080","","22","","","","","","","","","","","","","","","","","","","","","","","","","","","","","","","","","","","","","","","","","","","","","","","","","","","","","","","","","","","","","","","","","","","","","","","","","","","","","","","","","","","","","","","","","","","SYN07601002 46/// /0810 11234 21260 30256 40269 58004 333 11226 21235 90710 91114=","","","","","","","","","",""
"01002099999","2024-01-16T22:00:00","80.05","16.25","8.0","VERLEGENHUKEN, NO","FM-12","4","","-17","-12","","","-0.01","1","78","","30.33","30.29","","-12","130","","18","","","","","","","","","","","","","","","","","","","","","","","","","","","","","","","","","","","","","","","","","","","","","","","","","","","","","","","","","","","","","","","","","","","","","","","","","","","","","","","","","","","","","","","","","","","SYN07601002 46/// /1308 11244 21271 30257 40270 51003 333 11240 21247 90710 91112=","","","","","","","","","",""
"01002099999","2024-01-17T04:00:00","80.05","16.25","8.0","VERLEGENHUKEN, NO","FM-12","4","","-7","-3","","","+0.04","7","82","","30.29","30.25","","-4","090","","25","","","","","","","","","","","","","","","","","","","","","","","","","","","","","","","","","","","","","","","","","","","","","","","","","","","","","","","","","","","","","","","","","","","","","","","","","","","","","","","","","","","","","","","","","","","SYN07601002 46/// /0911 11195 21218 30244 40257 57014 333 11194 21199 90710 91115=","","","","","","","","","",""
"01002099999","2024-01-17T10:00:00","80.05","16.25","8.0","VERLEGENHUKEN, NO","FM-12","4","","-1","3","","","-0.01","1","82","","30.31","30.27","","2","100","","29","","","","","","","","","","","","","","","","","","","","","","","","","","","","","","","","","","","","","","","","","","","","","","","","","","","","","","","","","","","","","","","","","","","","","","","","","","","","","","","","","","","","","","","","","","","SYN07601002 46/// /1013 11160 21184 30252 40265 51003 333 11158 21179 90710 91117=","","","","","","","","","",""
"01002099999","2024-01-17T22:00:00","80.05","16.25","8.0","VERLEGENHUKEN, NO","FM-12","4","","3","8","","","+0.01","5","81","","30.32","30.29","","7","110","","27","","","","","","","","","","","","","","","","","","","","","","","","","","","","","","","","","","","","","","","","","","","","","","","","","","","","","","","","","","","","","","","","","","","","","","","","","","","","","","","","","","","","","","","","","","","SYN07601002 46/// /1112 11133 21159 30256 40269 55003 333 11131 21143 90710 91114=","","","","","","","","","",""
"01002099999","2024-01-18T04:00:00","80.05","16.25","8.0","VERLEGENHUKEN, NO","FM-12","4","","0","6","","","+0.01","7","78","","30.29","30.25","","5","100","","25","","","","","","","","","","","","","","","","","","","","","","","","","","","","","","","","","","","","","","","","","","","","","","","","","","","","","","","","","","","","","","","","","","","","","","","","","","","","","","","","","","","","","","","","","","","SYN07601002 46/// /1011 11145 21176 30243 40256 57005 333 11142 21157 90710 91113=","","","","","","","","","",""
"01002099999","2024-01-18T10:00:00","80.05","16.25","8.0","VERLEGENHUKEN, NO","FM-12","4","","-4","1","","","+0.04","7","79","","30.22","30.18","","0","070","","22","","","","","","","","","","","","","","","","","","","","","","","","","","","","","","","","","","","","","","","","","","","","","","","","","","","","","","","","","","","","","","","","","","","","","","","","","","","","","","","","","","","","","","","","","","","SYN07601002 46/// /0710 11170 21198 30220 40233 57013 333 11160 21171 90710 91114=","","","","","","","","","",""
"01002099999","2024-01-18T16:00:00","80.05","16.25","8.0","VERLEGENHUKEN, NO","FM-12","4","","-4","0","","","+0.06","7","84","","30.11","30.07","","-1","110","","22","","","","","","","","","","","","","","","","","","","","","","","","","","","","","","","","","","","","","","","","","","","","","","","","","","","","","","","","","","","","","","","","","","","","","","","","","","","","","","","","","","","","","","","","","","","SYN07601002 46/// /1110 11177 21198 30183 40196 57022 333 11169 21189 90710 91114=","","","","","","","","","",""
"01002099999","2024-01-18T21:00:00","80.05","16.25","8.0","VERLEGENHUKEN, NO","FM-12","4","","-2","1","","","+0.06","6","85","","30.02","29.98","","1","115","27","24","","","","","","","","","","","","","","","","","","","","","","","","","","","","","","","","","","","","","","","","","","","","","","","","","","","","","","","","","","","","","","","","","","","","","","","","","","","","","","","","","","","","","","","","","","","SYN004BUFR","","","","","","","","","",""
"01002099999","2024-01-18T22:00:00","80.05","16.25","8.0","VERLEGENHUKEN, NO","FM-12","4","","-3","1","","","+0.06","8","84","","30.00","29.96","","0","120","","22","","","","","","","","","","","","","","","","","","","","","","","","","","","","","","","","","","","","","","","","","","","","","","","","","","","","","","","","","","","","","","","","","","","","","","","","","","","","","","","","","","","","","","","","","","","SYN07601002 46/// /1210 11174 21195 30147 40160 58022 333 11170 21177 90710 91113=","","","","","","","","","",""
"01002099999","2024-01-19T04:00:00","80.05","16.25","8.0","VERLEGENHUKEN, NO","FM-12","4","","-2","1","","","+0.06","8","84","","29.87","29.83","","1","120","","25","","","","","","","","","","","","","","","","","","","","","","","","","","","","","","","","","","","","","","","","","","","","","","","","","","","","","","","","","","","","","","","","","","","","","","","","","","","","","","","","","","","","","","","","","","","SYN07601002 46/// /1211 11170 21191 30103 40116 58022 333 11164 21173 90710 91112=","","","","","","","","","",""
"01002099999","2024-01-19T10:00:00","80.05","16.25","8.0","VERLEGENHUKEN, NO","FM-12","4","","-2","2","","","+0.04","8","81","","29.75","29.72","","1","120","","25","","","","","","","","","","","","","","","","","","","","","","","","","","","","","","","","","","","","","","","","","","","","","","","","","","","","","","","","","","","","","","","","","","","","","","","","","","","","","","","","","","","","","","","","","","","SYN07601002 46/// /1211 11164 21189 30064 40076 58014 333 11154 21165 90710 91114=","","","","","","","","","",""
"01002099999","2024-01-19T16:00:00","80.05","16.25","8.0","VERLEGENHUKEN, NO","FM-12","4","","-1","4","","","+0.06","6","81","","29.64","29.60","","3","110","","25","","","","","","","","","","","","","","","","","","","","","","","","","","","","","","","","","","","","","","","","","","","","","","","","","","","","","","","","","","","","","","","","","","","","","","","","","","","","","","","","","","","","","","","","","","","SYN07601002 46/// /1111 11156 21182 30024 40037 56019 333 11156 21164 90710 91112=","","","","","","","","","",""
"01002099999","2024-01-19T22:00:00","80.05","16.25","8.0","VERLEGENHUKEN, NO","FM-12","4","","0","7","","","+0.03","8","72","","29.57","29.53","","6","110","","16","","","","","","","","","","","","","","","","","","","","","","","","","","","","","","","","","","","","","","","","","","","","","","","","","","","","","","","","","","","","","","","","","","","","","","","","","","","","","","","","","","","","","","","","","","","SYN07601002 46/// /1107 11137 21177 30001 40013 58010 333 11136 21138 90710 91112=","","","","","","","","","",""
"01002099999","2024-01-20T04:00:00","80.05","16.25","8.0","VERLEGENHUKEN, NO","FM-12","4","","-7","-1","","","+0.02","7","75","","29.52","29.48","","-2","140","","13","","","","","","","","","","","","","","","","","","","","","","","","","","","","","","","","","","","","","","","","","","","","","","","","","","","","","","","","","","","","","","","","","","","","","","","","","","","","","","","","","","","","","","","","","","","SYN07601002 46/// /1406 11181 21215 39982 49995 57008 333 11173 21184 90710 91107=","","","","","","","","","",""
"01002099999","2024-01-20T07:00:00","80.05","16.25","8.0","VERLEGENHUKEN, NO","FM-12","4","","-4","2","","","+0.02","7","75","","29.49","29.46","","1","135","13","9","","","","","","","","","","","","","","","","","","","","","","","","","","","","","","","","","","","","","","","","","","","","","","","","","","","","","","","","","","","","","","","","","","","","","","","","","","","","","","","","","","","","","","","","","","","SYN004BUFR","","","","","","","","","",""
"01002099999","2024-01-20T10:00:00","80.05","16.25","8.0","VERLEGENHUKEN, NO","FM-12","4","","2","7","","","0.00","4","82","","29.49","29.46","","6","050","","9","","","","","","","","","","","","","","","","","","","","","","","","","","","","","","","","","","","","","","","","","","","","","","","","","","","","","","","","","","","","","","","","","","","","","","","","","","","","","","","","","","","","","","","","","","","SYN07601002 46/// /0504 11141 21166 39976 49988 54000 333 11140 21143 90710 91106=","","","","","","","","","",""
"01002099999","2024-01-20T22:00:00","80.05","16.25","8.0","VERLEGENHUKEN, NO","FM-12","4","","2","6","","","-0.02","2","85","","29.50","29.47","","5","150","","11","","","","","","","","","","","","","","","","","","","","","","","","","","","","","","","","","","","","","","","","","","","","","","","","","","","","","","","","","","","","","","","","","","","","","","","","","","","","","","","","","","","","","","","","","","","SYN07601002 46/// /1505 11144 21164 39979 49991 52006 333 11144 21149 90710 91106=","","","","","","","","","",""
"01002099999","2024-01-21T04:00:00","80.05","16.25","8.0","VERLEGENHUKEN, NO","FM-12","4","","1","4","","","+0.01","5","87","","29.51","29.47","","3","140","","16","","","","","","","","","","","","","","","","","","","","","","","","","","","","","","","","","","","","","","","","","","","","","","","","","","","","","","","","","","","","","","","","","","","","","","","","","","","","","","","","","","","","","","","","","","","SYN07601002 46/// /1407 11154 21171 39981 49993 55002 333 11154 21165 90710 91108=","","","","","","","","","",""
"01002099999","2024-01-21T10:00:00","80.05","16.25","8.0","VERLEGENHUKEN, NO","FM-12","4","","2","6","","","+0.04","7","84","","29.46","29.42","","5","130","","20","","","","","","","","","","","","","","","","","","","","","","","","","","","","","","","","","","","","","","","","","","","","","","","","","","","","","","","","","","","","","","","","","","","","","","","","","","","","","","","","","","","","","","","","","","","SYN07601002 46/// /1309 11143 21164 39964 49977 57012 333 11141 21181 90710 91110=","","","","","","","","","",""
"01002099999","2024-01-21T16:00:00","80.05","16.25","8.0","VERLEGENHUKEN, NO","FM-12","4","","14","21","","","+0.01","7","75","","29.37","29.34","","19","200","","20","","","","","","","","","","","","","","","","","","","","","","","","","","","","","","","","","","","","","","","","","","","","","","","","","","","","","","","","","","","","","","","","","","","","","","","","","","","","","","","","","","","","","","","","","","","SYN07601002 46/// /2009 11060 21098 39935 49947 57004 333 11059 21087 90710 91110=","","","","","","","","","",""
"01002099999","2024-01-21T22:00:00","80.05","16.25","8.0","VERLEGENHUKEN, NO","FM-12","4","","14","22","","","-0.04","1","71","","29.42","29.38","","20","170","","11","","","","","","","","","","","","","","","","","","","","","","","","","","","","","","","","","","","","","","","","","","","","","","","","","","","","","","","","","","","","","","","","","","","","","","","","","","","","","","","","","","","","","","","","","","","SYN07601002 46/// /1705 11054 21098 39950 49962 51012 333 11045 21055 90710 91110=","","","","","","","","","",""
"01002099999","2024-01-22T10:00:00","80.05","16.25","8.0","VERLEGENHUKEN, NO","FM-12","4","","12","17","","","+0.02","8","83","","29.42","29.38","","16","130","","29","","","","","","","","","","","","","","","","","","","","","","","","","","","","","","","","","","","","","","","","","","","","","","","","","","","","","","","","","","","","","","","","","","","","","","","","","","","","","","","","","","","","","","","","","","","SYN07601002 46/// /1313 11086 21110 39950 49962 58007 333 11079 21099 90710 91115=","","","","","","","","","",""
"01002099999","2024-01-22T16:00:00","80.05","16.25","8.0","VERLEGENHUKEN, NO","FM-12","4","","7","11","","","0.00","9","84","","29.43","29.40","","10","130","","27","","","","","","","","","","","","","","","","","","","","","","","","","","","","","","","","","","","","","","","","","","","","","","","","","","","","","","","","","","","","","","","","","","","","","","","","","","","","","","","","","","","","","","","","","","","SYN07601002 46/// /1312 11115 21137 39955 49967 50000 333 11102 21119 90710 91116=","","","","","","","","","",""
"01002099999","2024-01-22T22:00:00","80.05","16.25","8.0","VERLEGENHUKEN, NO","FM-12","4","","9","13","","","+0.01","5","83","","29.37","29.33","","12","120","","31","","","","","","","","","","","","","","","","","","","","","","","","","","","","","","","","","","","","","","","","","","","","","","","","","","","","","","","","","","","","","","","","","","","","","","","","","","","","","","","","","","","","","","","","","","","SYN07601002 46/// /1214 11105 21128 39933 49945 55002 333 11104 21117 90710 91117=","","","","","","","","","",""
"01002099999","2024-01-23T04:00:00","80.05","16.25","8.0","VERLEGENHUKEN, NO","FM-12","4","","15","19","","","+0.09","8","84","","29.21","29.18","","18","140","","29","","","","","","","","","","","","","","","","","","","","","","","","","","","","","","","","","","","","","","","","","","","","","","","","","","","","","","","","","","","","","","","","","","","","","","","","","","","","","","","","","","","","","","","","","","","SYN07601002 46/// /1413 11073 21096 39881 49893 58031 333 11069 21080 90710 91115=","","","","","","","","","",""
"01002099999","2024-01-23T10:00:00","80.05","16.25","8.0","VERLEGENHUKEN, NO","FM-12","4","","20","23","","","+0.03","6","91","","29.11","29.08","","22","130","","45","","","","","","","","","","","","","","","","","","","","","","","","","","","","","","","","","","","","","","","","","","","","","","","","","","","","","","","","","","","","","","","","","","","","","","","","","","","","","","","","","","","","","","","","","","","SYN07601002 46/// /1320 11052 21065 39847 49858 56010 333 11043 21052 90710 91123=","","","","","","","","","",""
"01002099999","2024-01-23T22:00:00","80.05","16.25","8.0","VERLEGENHUKEN, NO","FM-12","4","","20","24","","","+0.02","5","83","","29.07","29.04","","23","140","","43","","","","","","","","","","","","","","","","","","","","","","","","","","","","","","","","","","","","","","","","","","","","","","","","","","","","","","","","","","","","","","","","","","","","","","","","","","","","","","","","","","","","","","","","","","","SYN07601002 46/// /1419 11042 21067 39833 49845 55007 333 11040 21044 90710 91123=","","","","","","","","","",""
"01002099999","2024-01-24T04:00:00","80.05","16.25","8.0","VERLEGENHUKEN, NO","FM-12","4","","20","24","","","+0.04","6","85","","29.01","28.98","","23","140","","38","","","","","","","","","","","","","","","","","","","","","","","","","","","","","","","","","","","","","","","","","","","","","","","","","","","","","","","","","","","","","","","","","","","","","","","","","","","","","","","","","","","","","","","","","","","SYN07601002 46/// /1417 11042 21064 39814 49825 56012 333 11040 21043 90710 91120=","","","","","","","","","",""
"01002099999","2024-01-24T10:00:00","80.05","16.25","8.0","VERLEGENHUKEN, NO","FM-12","4","","21","25","","","","","85","","28.99","28.96","","24","140","","36","","","","","","","","","","","","","","","","","","","","","","","","","","","","","","","","","","","","","","","","","","","","","","","","","","","","","","","","","","","","","","","","","","","","","","","","","","","","","","","","","","","","","","","","","","","SYN07601002 46/// /1416 11037 21059 39807 49818 54001 333 11034 21040 90710 91118=","","","","","","","","","",""
"01002099999","2024-01-24T16:00:00","80.05","16.25","8.0","VERLEGENHUKEN, NO","FM-12","4","","26","28","","","-0.06","2","91","","29.11","29.08","","27","220","","13","","","","","","","","","","","","","","","","","","","","","","","","","","","","","","","","","","","","","","","","","","","","","","","","","","","","","","","","","","","","","","","","","","","","","","","","","","","","","","","","","","","","","","","","","","","SYN07601002 46/// /2206 11020 21033 39846 49858 52019 333 11017 21031 90710 91106=","","","","","","","","","",""
"01002099999","2024-01-24T22:00:00","80.05","16.25","8.0","VERLEGENHUKEN, NO","FM-12","4","","24","27","","","-0.08","2","90","","29.25","29.22","","26","190","","4","","","","","","","","","","","","","","","","","","","","","","","","","","","","","","","","","","","","","","","","","","","","","","","","","","","","","","","","","","","","","","","","","","","","","","","","","","","","","","","","","","","","","","","","","","","SYN07601002 46/// /1902 11030 21044 39895 49906 52026 333 11024 21030 90710 91102=","","","","","","","","","",""
"01002099999","2024-01-25T04:00:00","80.05","16.25","8.0","VERLEGENHUKEN, NO","FM-12","4","","23","27","","","-0.05","2","87","","29.35","29.31","","26","280","","16","","","","","","","","","","","","","","","","","","","","","","","","","","","","","","","","","","","","","","","","","","","","","","","","","","","","","","","","","","","","","","","","","","","","","","","","","","","","","","","","","","","","","","","","","","","SYN07601002 46/// /2807 11029 21048 39927 49939 52018 333 11019 21029 90710 91109=","","","","","","","","","",""
"01002099999","2024-01-25T10:00:00","80.05","16.25","8.0","VERLEGENHUKEN, NO","FM-12","4","","15","20","","","-0.02","3","83","","29.39","29.36","","19","140","","16","","","","","","","","","","","","","","","","","","","","","","","","","","","","","","","","","","","","","","","","","","","","","","","","","","","","","","","","","","","","","","","","","","","","","","","","","","","","","","","","","","","","","","","","","","","SYN07601002 46/// /1407 11068 21093 39941 49953 53008 333 11056 21076 90710 91108=","","","","","","","","","",""
"01002099999","2024-01-25T16:00:00","80.05","16.25","8.0","VERLEGENHUKEN, NO","FM-12","4","","19","24","","","+0.04","7","82","","29.33","29.30","","22","140","","25","","","","","","","","","","","","","","","","","","","","","","","","","","","","","","","","","","","","","","","","","","","","","","","","","","","","","","","","","","","","","","","","","","","","","","","","","","","","","","","","","","","","","","","","","","","SYN07601002 46/// /1411 11045 21071 39921 49933 57013 333 11038 21052 90710 91116=","","","","","","","","","",""
"01002099999","2024-01-25T22:00:00","80.05","16.25","8.0","VERLEGENHUKEN, NO","FM-12","4","","24","31","","","-0.03","3","75","","29.40","29.37","","29","140","","13","","","","","","","","","","","","","","","","","","","","","","","","","","","","","","","","","","","","","","","","","","","","","","","","","","","","","","","","","","","","","","","","","","","","","","","","","","","","","","","","","","","","","","","","","","","SYN07601002 46/// /1406 11007 21046 39945 49957 53011 333 11007 21025 90710 91109=","","","","","","","","","",""
"01002099999","2024-01-26T04:00:00","80.05","16.25","8.0","VERLEGENHUKEN, NO","FM-12","4","","27","30","","","+0.01","5","88","","29.38","29.34","","29","130","","27","","","","","","","","","","","","","","","","","","","","","","","","","","","","","","","","","","","","","","","","","","","","","","","","","","","","","","","","","","","","","","","","","","","","","","","","","","","","","","","","","","","","","","","","","","","SYN07601002 46/// /1312 11009 21027 39937 49949 55002 333 10003 21011 90710 91113=","","","","","","","","","",""
"01002099999","2024-01-26T22:00:00","80.05","16.25","8.0","VERLEGENHUKEN, NO","FM-12","4","","25","30","","","+0.02","6","83","","29.48","29.45","","28","150","","27","","","","","","","","","","","","","","","","","","","","","","","","","","","","","","","","","","","","","","","","","","","","","","","","","","","","","","","","","","","","","","","","","","","","","","","","","","","","","","","","","","","","","","","","","","","SYN07601002 46/// /1512 11013 21038 39972 49983 56008 333 11013 21022 90710 91116=","","","","","","","","","",""
"01002099999","2024-01-27T04:00:00","80.05","16.25","8.0","VERLEGENHUKEN, NO","FM-12","4","","21","27","","","","","79","","29.50","29.47","","25","130","","25","","","","","","","","","","","","","","","","","","","","","","","","","","","","","","","","","","","","","","","","","","","","","","","","","","","","","","","","","","","","","","","","","","","","","","","","","","","","","","","","","","","","","","","","","","","SYN07601002 46/// /1311 11029 21060 39978 49990 54003 333 11027 21030 90710 91112=","","","","","","","","","",""
"01002099999","2024-01-27T10:00:00","80.05","16.25","8.0","VERLEGENHUKEN, NO","FM-12","4","","20","27","","","+0.03","8","75","","29.44","29.41","","25","120","","4","","","","","","","","","","","","","","","","","","","","","","","","","","","","","","","","","","","","","","","","","","","","","","","","","","","","","","","","","","","","","","","","","","","","","","","","","","","","","","","","","","","","","","","","","","","SYN07601002 46/// /1202 11028 21066 39960 49971 58011 333 11026 21037 90710 91109=","","","","","","","","","",""
"01002099999","2024-01-27T16:00:00","80.05","16.25","8.0","VERLEGENHUKEN, NO","FM-12","4","","20","27","","","+0.10","8","76","","29.26","29.23","","25","140","","20","","","","","","","","","","","","","","","","","","","","","","","","","","","","","","","","","","","","","","","","","","","","","","","","","","","","","","","","","","","","","","","","","","","","","","","","","","","","","","","","","","","","","","","","","","","SYN07601002 46/// /1409 11027 21064 39897 49909 58033 333 11021 21029 90710 91115=","","","","","","","","","",""
"01002099999","2024-01-27T23:00:00","80.05","16.25","8.0","VERLEGENHUKEN, NO","FM-12","4","","14","22","","","+0.04","7","72","","29.13","29.10","","20","127","39","32","","","","","","","","","","","","","","","","","","","","","","","","","","","","","","","","","","","","","","","","","","","","","","","","","","","","","","","","","","","","","","","","","","","","","","","","","","","","","","","","","","","","","","","","","","","SYN004BUFR","","","","","","","","","",""
"01002099999","2024-01-28T04:00:00","80.05","16.25","8.0","VERLEGENHUKEN, NO","FM-12","4","","17","21","","","+0.04","8","85","","29.07","29.03","","20","110","","29","","","","","","","","","","","","","","","","","","","","","","","","","","","","","","","","","","","","","","","","","","","","","","","","","","","","","","","","","","","","","","","","","","","","","","","","","","","","","","","","","","","","","","","","","","","SYN07601002 46/// /1113 11062 21083 39832 49843 58013 333 11054 21063 90710 91115=","","","","","","","","","",""
"01002099999","2024-01-28T10:00:00","80.05","16.25","8.0","VERLEGENHUKEN, NO","FM-12","4","","10","16","","","-0.02","2","76","","29.04","29.00","","14","130","","18","","","","","","","","","","","","","","","","","","","","","","","","","","","","","","","","","","","","","","","","","","","","","","","","","","","","","","","","","","","","","","","","","","","","","","","","","","","","","","","","","","","","","","","","","","","SYN07601002 46/// /1308 11088 21123 39822 49834 52006 333 11067 21088 90710 91111=","","","","","","","","","",""
"01002099999","2024-01-28T16:00:00","80.05","16.25","8.0","VERLEGENHUKEN, NO","FM-12","4","","17","23","","","+0.05","7","79","","28.97","28.94","","21","050","","4","","","","","","","","","","","","","","","","","","","","","","","","","","","","","","","","","","","","","","","","","","","","","","","","","","","","","","","","","","","","","","","","","","","","","","","","","","","","","","","","","","","","","","","","","","","SYN07601002 46/// /0502 11051 21083 39800 49811 57018 333 11050 21052 90710 91104=","","","","","","","","","",""
"01002099999","2024-01-28T22:00:00","80.05","16.25","8.0","VERLEGENHUKEN, NO","FM-12","4","","16","21","","","+0.03","7","80","","28.89","28.85","","20","210","","22","","","","","","","","","","","","","","","","","","","","","","","","","","","","","","","","","","","","","","","","","","","","","","","","","","","","","","","","","","","","","","","","","","","","","","","","","","","","","","","","","","","","","","","","","","","SYN07601002 46/// /2110 11059 21089 39770 49782 57010 333 11043 21059 90710 91112=","","","","","","","","","",""
"01002099999","2024-01-29T04:00:00","80.05","16.25","8.0","VERLEGENHUKEN, NO","FM-12","4","","3","12","","","+0.04","7","69","","28.85","28.81","","10","130","","16","","","","","","","","","","","","","","","","","","","","","","","","","","","","","","","","","","","","","","","","","","","","","","","","","","","","","","","","","","","","","","","","","","","","","","","","","","","","","","","","","","","","","","","","","","","SYN07601002 46/// /1307 11112 21159 39757 49769 57015 333 11095 21116 90710 91108=","","","","","","","","","",""
"01002099999","2024-01-29T22:00:00","80.05","16.25","8.0","VERLEGENHUKEN, NO","FM-12","4","","23","26","","","","","90","","28.47","28.44","","25","030","","40","","","","","","","","","","","","","","","","","","","","","","","","","","","","","","","","","","","","","","","","","","","","","","","","","","","","","","","","","","","","","","","","","","","","","","","","","","","","","","","","","","","","","","","","","","","SYN07601002 46/// /0318 11036 21050 39630 49642 54002 333 11033 21037 90710 91123=","","","","","","","","","",""
"01002099999","2024-01-30T04:00:00","80.05","16.25","8.0","VERLEGENHUKEN, NO","FM-12","4","","24","27","","","-0.03","2","90","","28.53","28.50","","26","020","","36","","","","","","","","","","","","","","","","","","","","","","","","","","","","","","","","","","","","","","","","","","","","","","","","","","","","","","","","","","","","","","","","","","","","","","","","","","","","","","","","","","","","","","","","","","","SYN07601002 46/// /0216 11029 21044 39651 49663 52011 333 11028 21032 90710 91119=","","","","","","","","","",""
"01002099999","2024-01-30T10:00:00","80.05","16.25","8.0","VERLEGENHUKEN, NO","FM-12","4","","25","27","","","-0.02","3","92","","28.57","28.53","","26","360","","29","","","","","","","","","","","","","","","","","","","","","","","","","","","","","","","","","","","","","","","","","","","","","","","","","","","","","","","","","","","","","","","","","","","","","","","","","","","","","","","","","","","","","","","","","","","SYN07601002 46/// /3613 11026 21037 39662 49674 53007 333 11023 21028 90710 91116=","","","","","","","","","",""
"01002099999","2024-01-30T16:00:00","80.05","16.25","8.0","VERLEGENHUKEN, NO","FM-12","4","","24","27","","","+0.01","5","88","","28.56","28.53","","26","350","","29","","","","","","","","","","","","","","","","","","","","","","","","","","","","","","","","","","","","","","","","","","","","","","","","","","","","","","","","","","","","","","","","","","","","","","","","","","","","","","","","","","","","","","","","","","","SYN07601002 46/// /3513 11028 21046 39660 49672 55002 333 11027 21029 90710 91115=","","","","","","","","","",""
"01002099999","2024-01-30T22:00:00","80.05","16.25","8.0","VERLEGENHUKEN, NO","FM-12","4","","23","25","","","+0.03","7","90","","28.51","28.47","","24","340","","29","","","","","","","","","","","","","","","","","","","","","","","","","","","","","","","","","","","","","","","","","","","","","","","","","","","","","","","","","","","","","","","","","","","","","","","","","","","","","","","","","","","","","","","","","","","SYN07601002 46/// /3413 11037 21051 39641 49653 57011 333 11033 21038 90710 91115=","","","","","","","","","",""
"01002099999","2024-01-31T04:00:00","80.05","16.25","8.0","VERLEGENHUKEN, NO","FM-12","4","","19","23","","","+0.05","7","86","","28.41","28.38","","22","310","","25","","","","","","","","","","","","","","","","","","","","","","","","","","","","","","","","","","","","","","","","","","","","","","","","","","","","","","","","","","","","","","","","","","","","","","","","","","","","","","","","","","","","","","","","","","","SYN07601002 46/// /3111 11052 21072 39610 49622 57016 333 11047 21052 90710 91113=","","","","","","","","","",""
"01002099999","2024-01-31T10:00:00","80.05","16.25","8.0","VERLEGENHUKEN, NO","FM-12","4","","11","15","","","0.00","4","83","","28.40","28.37","","14","260","","27","","","","","","","","","","","","","","","","","","","","","","","","","","","","","","","","","","","","","","","","","","","","","","","","","","","","","","","","","","","","","","","","","","","","","","","","","","","","","","","","","","","","","","","","","","","SYN07601002 46/// /2612 11094 21118 39606 49618 54000 333 11085 21094 90710 91115=","","","","","","","","","",""
"01002099999","2024-01-31T22:00:00","80.05","16.25","8.0","VERLEGENHUKEN, NO","FM-12","4","","5","13","","","-0.02","2","68","","28.40","28.37","","11","200","","20","","","","","","","","","","","","","","","","","","","","","","","","","","","","","","","","","","","","","","","","","","","","","","","","","","","","","","","","","","","","","","","","","","","","","","","","","","","","","","","","","","","","","","","","","","","SYN07601002 46/// /2009 11103 21152 39607 49619 52007 333 11100 21104 90710 91111=","","","","","","","","","",""
"01002099999","2024-02-01T04:00:00","80.05","16.25","8.0","VERLEGENHUKEN, NO","FM-12","4","","9","14","","","-0.02","2","80","","28.43","28.40","","13","210","","25","","","","","","","","","","","","","","","","","","","","","","","","","","","","","","","","","","","","","","","","","","","","","","","","","","","","","","","","","","","","","","","","","","","","","","","","","","","","","","","","","","","","","","","","","","","SYN07601002 46/// /2111 11100 21129 39616 49628 52007 333 11100 21105 90710 91113=","","","","","","","","","",""
"01002099999","2024-02-01T10:00:00","80.05","16.25","8.0","VERLEGENHUKEN, NO","FM-12","4","","11","16","","","-0.05","3","80","","28.54","28.50","","15","270","","16","","","","","","","","","","","","","","","","","","","","","","","","","","","","","","","","","","","","","","","","","","","","","","","","","","","","","","","","","","","","","","","","","","","","","","","","","","","","","","","","","","","","","","","","","","","SYN07601002 46/// /2707 11089 21117 39652 49664 53017 333 11088 21091 90710 91108=","","","","","","","","","",""
"01002099999","2024-02-01T22:00:00","80.05","16.25","8.0","VERLEGENHUKEN, NO","FM-12","4","","6","16","","","-0.02","2","65","","28.67","28.63","","14","150","","7","","","","","","","","","","","","","","","","","","","","","","","","","","","","","","","","","","","","","","","","","","","","","","","","","","","","","","","","","","","","","","","","","","","","","","","","","","","","","","","","","","","","","","","","","","","SYN07601002 46/// /1503 11088 21143 39696 49708 52007 333 11087 21100 90710 91105=","","","","","","","","","",""
"01002099999","2024-02-02T04:00:00","80.05","16.25","8.0","VERLEGENHUKEN, NO","FM-12","4","","10","15","","","","","82","","28.68","28.65","","14","150","","7","","","","","","","","","","","","","","","","","","","","","","","","","","","","","","","","","","","","","","","","","","","","","","","","","","","","","","","","","","","","","","","","","","","","","","","","","","","","","","","","","","","","","","","","","","","SYN07601002 46/// /1503 11097 21122 39701 49712 54002 333 11097 21107 90710 91105=","","","","","","","","","",""
"01002099999","2024-02-02T10:00:00","80.05","16.25","8.0","VERLEGENHUKEN, NO","FM-12","4","","18","23","","","+0.03","7","82","","28.63","28.60","","21","340","","16","","","","","","","","","","","","","","","","","","","","","","","","","","","","","","","","","","","","","","","","","","","","","","","","","","","","","","","","","","","","","","","","","","","","","","","","","","","","","","","","","","","","","","","","","","","SYN07601002 46/// /3407 11052 21078 39685 49696 57010 333 11052 21067 90710 91109=","","","","","","","","","",""
"01002099999","2024-02-02T16:00:00","80.05","16.25","8.0","VERLEGENHUKEN, NO","FM-12","4","","20","23","","","+0.02","7","87","","28.57","28.54","","22","320","","25","","","","","","","","","","","","","","","","","","","","","","","","","","","","","","","","","","","","","","","","","","","","","","","","","","","","","","","","","","","","","","","","","","","","","","","","","","","","","","","","","","","","","","","","","","","SYN07601002 46/// /3211 11048 21067 39664 49675 57006 333 11044 21048 90710 91114=","","","","","","","","","",""
"01002099999","2024-02-02T22:00:00","80.05","16.25","8.0","VERLEGENHUKEN, NO","FM-12","4","","18","22","","","-0.01","2","82","","28.58","28.54","","21","280","","22","","","","","","","","","","","","","","","","","","","","","","","","","","","","","","","","","","","","","","","","","","","","","","","","","","","","","","","","","","","","","","","","","","","","","","","","","","","","","","","","","","","","","","","","","","","SYN07601002 46/// /2810 11053 21080 39666 49678 52004 333 11048 21053 90710 91112=","","","","","","","","","",""
"01002099999","2024-02-03T10:00:00","80.05","16.25","8.0","VERLEGENHUKEN, NO","FM-12","4","","15","19","","","-0.07","2","84","","28.75","28.71","","18","160","","4","","","","","","","","","","","","","","","","","","","","","","","","","","","","","","","","","","","","","","","","","","","","","","","","","","","","","","","","","","","","","","","","","","","","","","","","","","","","","","","","","","","","","","","","","","","SYN07601002 46/// /1602 11070 21093 39723 49735 52023 333 11069 21074 90710 91103=","","","","","","","","","",""
"01002099999","2024-02-03T16:00:00","80.05","16.25","8.0","VERLEGENHUKEN, NO","FM-12","4","","6","15","","","-0.08","2","67","","28.90","28.86","","13","140","","18","","","","","","","","","","","","","","","","","","","","","","","","","","","","","","","","","","","","","","","","","","","","","","","","","","","","","","","","","","","","","","","","","","","","","","","","","","","","","","","","","","","","","","","","","","","SYN07601002 46/// /1408 11093 21144 39773 49785 52028 333 11083 21105 90710 91109=","","","","","","","","","",""
"01002099999","2024-02-03T22:00:00","80.05","16.25","8.0","VERLEGENHUKEN, NO","FM-12","4","","5","17","","","-0.06","2","59","","29.04","29.00","","14","110","","7","","","","","","","","","","","","","","","","","","","","","","","","","","","","","","","","","","","","","","","","","","","","","","","","","","","","","","","","","","","","","","","","","","","","","","","","","","","","","","","","","","","","","","","","","","","SYN07601002 46/// /1103 11086 21152 39821 49833 52021 333 11076 21089 90710 91104=","","","","","","","","","",""
"01002099999","2024-02-04T04:00:00","80.05","16.25","8.0","VERLEGENHUKEN, NO","FM-12","4","","17","21","","","-0.07","2","85","","29.16","29.13","","20","220","","4","","","","","","","","","","","","","","","","","","","","","","","","","","","","","","","","","","","","","","","","","","","","","","","","","","","","","","","","","","","","","","","","","","","","","","","","","","","","","","","","","","","","","","","","","","","SYN07601002 46/// /2202 11061 21082 39864 49875 52023 333 11060 21066 90710 91103=","","","","","","","","","",""
"01002099999","2024-02-04T10:00:00","80.05","16.25","8.0","VERLEGENHUKEN, NO","FM-12","4","","22","25","","","-0.09","2","89","","29.34","29.31","","24","100","","13","","","","","","","","","","","","","","","","","","","","","","","","","","","","","","","","","","","","","","","","","","","","","","","","","","","","","","","","","","","","","","","","","","","","","","","","","","","","","","","","","","","","","","","","","","","SYN07601002 46/// /1006 11041 21057 39924 49936 52032 333 11039 21053 90710 91107=","","","","","","","","","",""
"01002099999","2024-02-04T22:00:00","80.05","16.25","8.0","VERLEGENHUKEN, NO","FM-12","4","","26","28","","","-0.05","2","92","","29.63","29.59","","27","120","","29","","","","","","","","","","","","","","","","","","","","","","","","","","","","","","","","","","","","","","","","","","","","","","","","","","","","","","","","","","","","","","","","","","","","","","","","","","","","","","","","","","","","","","","","","","","SYN07601002 46/// /1213 11023 21035 30022 40034 52018 333 11023 21029 90710 91115=","","","","","","","","","",""
"01002099999","2024-02-05T04:00:00","80.05","16.25","8.0","VERLEGENHUKEN, NO","FM-12","4","","24","27","","","-0.09","2","88","","29.80","29.77","","26","110","","27","","","","","","","","","","","","","","","","","","","","","","","","","","","","","","","","","","","","","","","","","","","","","","","","","","","","","","","","","","","","","","","","","","","","","","","","","","","","","","","","","","","","","","","","","","","SYN07601002 46/// /1112 11026 21043 30081 40093 52031 333 11025 21026 90710 91113=","","","","","","","","","",""
"01002099999","2024-02-05T10:00:00","80.05","16.25","8.0","VERLEGENHUKEN, NO","FM-12","4","","24","27","","","-0.04","3","85","","29.91","29.87","","26","120","","29","","","","","","","","","","","","","","","","","","","","","","","","","","","","","","","","","","","","","","","","","","","","","","","","","","","","","","","","","","","","","","","","","","","","","","","","","","","","","","","","","","","","","","","","","","","SYN07601002 46/// /1213 11025 21047 30116 40127 53014 333 11023 21027 90710 91115=","","","","","","","","","",""
"01002099999","2024-02-05T16:00:00","80.05","16.25","8.0","VERLEGENHUKEN, NO","FM-12","4","","22","27","","","-0.04","1","83","","30.01","29.98","","25","120","","22","","","","","","","","","","","","","","","","","","","","","","","","","","","","","","","","","","","","","","","","","","","","","","","","","","","","","","","","","","","","","","","","","","","","","","","","","","","","","","","","","","","","","","","","","","","SYN07601002 46/// /1210 11028 21053 30152 40164 51012 333 11028 21029 90710 91112=","","","","","","","","","",""
"01002099999","2024-02-05T22:00:00","80.05","16.25","8.0","VERLEGENHUKEN, NO","FM-12","4","","19","27","","","-0.02","2","71","","30.06","30.03","","24","090","","18","","","","","","","","","","","","","","","","","","","","","","","","","","","","","","","","","","","","","","","","","","","","","","","","","","","","","","","","","","","","","","","","","","","","","","","","","","","","","","","","","","","","","","","","","","","SYN07601002 46/// /0908 11029 21074 30168 40180 52007 333 11028 21038 90710 91109=","","","","","","","","","",""
"01002099999","2024-02-06T10:00:00","80.05","16.25","8.0","VERLEGENHUKEN, NO","FM-12","4","","6","13","","","-0.03","2","76","","30.12","30.09","","11","135","16","13","","","","","","","","","","","","","","","","","","","","","","","","","","","","","","","","","","","","","","","","","","","","","","","","","","","","","","","","","","","","","","","","","","","","","","","","","","","","","","","","","","","","","","","","","","","SYN004BUFR","","","","","","","","","",""
"01002099999","2024-02-06T11:00:00","80.05","16.25","8.0","VERLEGENHUKEN, NO","FM-12","4","","13","20","","","-0.02","3","74","","30.12","30.08","","18","090","22","19","","","","","","","","","","","","","","","","","","","","","","","","","","","","","","","","","","","","","","","","","","","","","","","","","","","","","","","","","","","","","","","","","","","","","","","","","","","","","","","","","","","","","","","","","","","SYN004BUFR","","","","","","","","","",""
"01002099999","2024-02-06T22:00:00","80.05","16.25","8.0","VERLEGENHUKEN, NO","FM-12","4","","10","18","","","+0.01","8","73","","30.12","30.09","","16","090","","20","","","","","","","","","","","","","","","","","","","","","","","","","","","","","","","","","","","","","","","","","","","","","","","","","","","","","","","","","","","","","","","","","","","","","","","","","","","","","","","","","","","","","","","","","","","SYN07601002 46/// /0909 11080 21120 30189 40201 58003 333 11079 21084 90710 91111=","","","","","","","","","",""
"01002099999","2024-02-07T04:00:00","80.05","16.25","8.0","VERLEGENHUKEN, NO","FM-12","4","","12","19","","","+0.01","8","75","","30.11","30.08","","17","090","","25","","","","","","","","","","","","","","","","","","","","","","","","","","","","","","","","","","","","","","","","","","","","","","","","","","","","","","","","","","","","","","","","","","","","","","","","","","","","","","","","","","","","","","","","","","","SYN07601002 46/// /0911 11074 21111 30185 40197 58005 333 11073 21076 90710 91113=","","","","","","","","","",""
"01002099999","2024-02-07T10:00:00","80.05","16.25","8.0","VERLEGENHUKEN, NO","FM-12","4","","14","20","","","-0.02","2","76","","30.12","30.09","","18","080","","20","","","","","","","","","","","","","","","","","","","","","","","","","","","","","","","","","","","","","","","","","","","","","","","","","","","","","","","","","","","","","","","","","","","","","","","","","","","","","","","","","","","","","","","","","","","SYN07601002 46/// /0809 11066 21102 30189 40201 52006 333 11063 21066 90710 91112=","","","","","","","","","",""
"01002099999","2024-02-07T16:00:00","80.05","16.25","8.0","VERLEGENHUKEN, NO","FM-12","4","","12","21","","","0.00","4","70","","30.13","30.10","","19","110","","18","","","","","","","","","","","","","","","","","","","","","","","","","","","","","","","","","","","","","","","","","","","","","","","","","","","","","","","","","","","","","","","","","","","","","","","","","","","","","","","","","","","","","","","","","","","SYN07601002 46/// /1108 11062 21109 30192 40204 54000 333 11061 21068 90710 91111=","","","","","","","","","",""
"01002099999","2024-02-07T22:00:00","80.05","16.25","8.0","VERLEGENHUKEN, NO","FM-12","4","","11","17","","","","","76","","30.10","30.06","","15","160","","9","","","","","","","","","","","","","","","","","","","","","","","","","","","","","","","","","","","","","","","","","","","","","","","","","","","","","","","","","","","","","","","","","","","","","","","","","","","","","","","","","","","","","","","","","","","SYN07601002 46/// /1604 11084 21119 30181 40194 54002 333 11064 21086 90710 91110=","","","","","","","","","",""
"01002099999","2024-02-08T01:00:00","80.05","16.25","8.0","VERLEGENHUKEN, NO","FM-12","4","","9","16","","","+0.03","7","76","","30.07","30.04","","14","135","20","10","","","","","","","","","","","","","","","","","","","","","","","","","","","","","","","","","","","","","","","","","","","","","","","","","","","","","","","","","","","","","","","","","","","","","","","","","","","","","","","","","","","","","","","","","","","SYN004BUFR","","","","","","","","","",""
"01002099999","2024-02-08T04:00:00","80.05","16.25","8.0","VERLEGENHUKEN, NO","FM-12","4","","11","17","","","+0.02","7","77","","30.05","30.02","","15","080","","18","","","","","","","","","","","","","","","","","","","","","","","","","","","","","","","","","","","","","","","","","","","","","","","","","","","","","","","","","","","","","","","","","","","","","","","","","","","","","","","","","","","","","","","","","","","SYN07601002 46/// /0808 11082 21116 30165 40177 57006 333 11077 21083 90710 91110=","","","","","","","","","",""
"01002099999","2024-02-08T10:00:00","80.05","16.25","8.0","VERLEGENHUKEN, NO","FM-12","4","","9","13","","","+0.03","7","83","","30.01","29.97","","12","110","","9","","","","","","","","","","","","","","","","","","","","","","","","","","","","","","","","","","","","","","","","","","","","","","","","","","","","","","","","","","","","","","","","","","","","","","","","","","","","","","","","","","","","","","","","","","","SYN07601002 46/// /1104 11107 21130 30150 40163 57009 333 11099 21118 90710 91105=","","","","","","","","","",""
"01002099999","2024-02-08T16:00:00","80.05","16.25","8.0","VERLEGENHUKEN, NO","FM-12","4","","10","15","","","+0.04","7","80","","29.93","29.90","","14","160","","4","","","","","","","","","","","","","","","","","","","","","","","","","","","","","","","","","","","","","","","","","","","","","","","","","","","","","","","","","","","","","","","","","","","","","","","","","","","","","","","","","","","","","","","","","","","SYN07601002 46/// /1602 11093 21122 30124 40137 57015 333 11092 21102 90710 91104=","","","","","","","","","",""
"01002099999","2024-02-08T22:00:00","80.05","16.25","8.0","VERLEGENHUKEN, NO","FM-12","4","","10","13","","","+0.02","7","85","","29.87","29.83","","12","150","","11","","","","","","","","","","","","","","","","","","","","","","","","","","","","","","","","","","","","","","","","","","","","","","","","","","","","","","","","","","","","","","","","","","","","","","","","","","","","","","","","","","","","","","","","","","","SYN07601002 46/// /1505 11103 21124 30103 40115 57008 333 11087 21104 90710 91105=","","","","","","","","","",""
"01002099999","2024-02-09T10:00:00","80.05","16.25","8.0","VERLEGENHUKEN, NO","FM-12","4","","4","12","","","-0.02","1","69","","29.89","29.85","","10","130","","11","","","","","","","","","","","","","","","","","","","","","","","","","","","","","","","","","","","","","","","","","","","","","","","","","","","","","","","","","","","","","","","","","","","","","","","","","","","","","","","","","","","","","","","","","","","SYN07601002 46/// /1305 11111 21157 30109 40121 51008 333 11101 21119 90710 91107=","","","","","","","","","",""
"01002099999","2024-02-09T16:00:00","80.05","16.25","8.0","VERLEGENHUKEN, NO","FM-12","4","","3","11","","","0.00","4","71","","29.90","29.87","","9","140","","18","","","","","","","","","","","","","","","","","","","","","","","","","","","","","","","","","","","","","","","","","","","","","","","","","","","","","","","","","","","","","","","","","","","","","","","","","","","","","","","","","","","","","","","","","","","SYN07601002 46/// /1408 11119 21161 30114 40126 54000 333 11102 21127 90710 91110=","","","","","","","","","",""
"01002099999","2024-02-09T22:00:00","80.05","16.25","8.0","VERLEGENHUKEN, NO","FM-12","4","","13","18","","","+0.02","7","79","","29.88","29.85","","17","140","","25","","","","","","","","","","","","","","","","","","","","","","","","","","","","","","","","","","","","","","","","","","","","","","","","","","","","","","","","","","","","","","","","","","","","","","","","","","","","","","","","","","","","","","","","","","","SYN07601002 46/// /1411 11076 21106 30107 40119 57007 333 11072 21081 90710 91113=","","","","","","","","","",""
"01002099999","2024-02-10T04:00:00","80.05","16.25","8.0","VERLEGENHUKEN, NO","FM-12","4","","10","17","","","+0.02","6","74","","29.88","29.85","","15","140","","20","","","","","","","","","","","","","","","","","","","","","","","","","","","","","","","","","","","","","","","","","","","","","","","","","","","","","","","","","","","","","","","","","","","","","","","","","","","","","","","","","","","","","","","","","","","SYN07601002 46/// /1409 11082 21120 30107 40119 56008 333 11073 21092 90710 91113=","","","","","","","","","",""
"01002099999","2024-02-10T10:00:00","80.05","16.25","8.0","VERLEGENHUKEN, NO","FM-12","4","","13","20","","","+0.02","7","76","","29.84","29.80","","18","120","","25","","","","","","","","","","","","","","","","","","","","","","","","","","","","","","","","","","","","","","","","","","","","","","","","","","","","","","","","","","","","","","","","","","","","","","","","","","","","","","","","","","","","","","","","","","","SYN07601002 46/// /1211 11068 21104 30092 40105 57007 333 11068 21096 90710 91112=","","","","","","","","","",""
"01002099999","2024-02-10T16:00:00","80.05","16.25","8.0","VERLEGENHUKEN, NO","FM-12","4","","11","18","","","+0.03","6","74","","29.79","29.75","","16","150","","25","","","","","","","","","","","","","","","","","","","","","","","","","","","","","","","","","","","","","","","","","","","","","","","","","","","","","","","","","","","","","","","","","","","","","","","","","","","","","","","","","","","","","","","","","","","SYN07601002 46/// /1511 11076 21115 30076 40088 56010 333 11069 21081 90710 91112=","","","","","","","","","",""
"01002099999","2024-02-10T22:00:00","80.05","16.25","8.0","VERLEGENHUKEN, NO","FM-12","4","","16","20","","","0.00","4","85","","29.77","29.73","","19","130","","22","","","","","","","","","","","","","","","","","","","","","","","","","","","","","","","","","","","","","","","","","","","","","","","","","","","","","","","","","","","","","","","","","","","","","","","","","","","","","","","","","","","","","","","","","","","SYN07601002 46/// /1310 11066 21087 30068 40080 54000 333 11065 21082 90710 91111=","","","","","","","","","",""
"01002099999","2024-02-11T04:00:00","80.05","16.25","8.0","VERLEGENHUKEN, NO","FM-12","4","","9","21","","","","","61","","29.76","29.72","","18","220","","9","","","","","","","","","","","","","","","","","","","","","","","","","","","","","","","","","","","","","","","","","","","","","","","","","","","","","","","","","","","","","","","","","","","","","","","","","","","","","","","","","","","","","","","","","","","SYN07601002 46/// /2204 11062 21126 30066 40078 54001 333 11060 21068 90710 91104=","","","","","","","","","",""
"01002099999","2024-02-11T10:00:00","80.05","16.25","8.0","VERLEGENHUKEN, NO","FM-12","4","","8","16","","","-0.01","2","71","","29.77","29.74","","14","200","","13","","","","","","","","","","","","","","","","","","","","","","","","","","","","","","","","","","","","","","","","","","","","","","","","","","","","","","","","","","","","","","","","","","","","","","","","","","","","","","","","","","","","","","","","","","","SYN07601002 46/// /2006 11088 21131 30070 40082 52005 333 11059 21088 90710 91106=","","","","","","","","","",""
"01002099999","2024-02-11T16:00:00","80.05","16.25","8.0","VERLEGENHUKEN, NO","FM-12","4","","18","22","","","-0.03","2","84","","29.82","29.79","","21","280","","13","","","","","","","","","","","","","","","","","","","","","","","","","","","","","","","","","","","","","","","","","","","","","","","","","","","","","","","","","","","","","","","","","","","","","","","","","","","","","","","","","","","","","","","","","","","SYN07601002 46/// /2806 11054 21077 30087 40099 52009 333 11051 21054 90710 91108=","","","","","","","","","",""
"01002099999","2024-02-11T22:00:00","80.05","16.25","8.0","VERLEGENHUKEN, NO","FM-12","4","","16","19","","","-0.03","2","86","","29.90","29.86","","18","310","","16","","","","","","","","","","","","","","","","","","","","","","","","","","","","","","","","","","","","","","","","","","","","","","","","","","","","","","","","","","","","","","","","","","","","","","","","","","","","","","","","","","","","","","","","","","","SYN07601002 46/// /3107 11072 21091 30112 40124 52010 333 11066 21072 90710 91108=","","","","","","","","","",""
"01002099999","2024-02-12T04:00:00","80.05","16.25","8.0","VERLEGENHUKEN, NO","FM-12","4","","12","18","","","-0.02","2","76","","29.96","29.93","","16","280","","11","","","","","","","","","","","","","","","","","","","","","","","","","","","","","","","","","","","","","","","","","","","","","","","","","","","","","","","","","","","","","","","","","","","","","","","","","","","","","","","","","","","","","","","","","","","SYN07601002 46/// /2805 11076 21112 30135 40147 52008 333 11074 21078 90710 91109=","","","","","","","","","",""
"01002099999","2024-02-12T10:00:00","80.05","16.25","8.0","VERLEGENHUKEN, NO","FM-12","4","","11","17","","","-0.03","1","76","","30.00","29.97","","15","210","","16","","","","","","","","","","","","","","","","","","","","","","","","","","","","","","","","","","","","","","","","","","","","","","","","","","","","","","","","","","","","","","","","","","","","","","","","","","","","","","","","","","","","","","","","","","","SYN07601002 46/// /2107 11084 21119 30148 40160 51009 333 11082 21087 90710 91109=","","","","","","","","","",""
"01002099999","2024-02-12T16:00:00","80.05","16.25","8.0","VERLEGENHUKEN, NO","FM-12","4","","10","18","","","-0.02","2","72","","30.01","29.98","","16","200","","25","","","","","","","","","","","","","","","","","","","","","","","","","","","","","","","","","","","","","","","","","","","","","","","","","","","","","","","","","","","","","","","","","","","","","","","","","","","","","","","","","","","","","","","","","","","SYN07601002 46/// /2011 11079 21122 30151 40163 52006 333 11078 21085 90710 91113=","","","","","","","","","",""
"01002099999","2024-02-12T22:00:00","80.05","16.25","8.0","VERLEGENHUKEN, NO","FM-12","4","","11","20","","","-0.03","2","67","","30.09","30.06","","18","180","","20","","","","","","","","","","","","","","","","","","","","","","","","","","","","","","","","","","","","","","","","","","","","","","","","","","","","","","","","","","","","","","","","","","","","","","","","","","","","","","","","","","","","","","","","","","","SYN07601002 46/// /1809 11064 21115 30178 40190 52010 333 11063 21070 90710 91109=","","","","","","","","","",""
"01002099999","2024-02-13T04:00:00","80.05","16.25","8.0","VERLEGENHUKEN, NO","FM-12","4","","12","15","","","+0.01","7","88","","30.09","30.06","","14","120","","27","","","","","","","","","","","","","","","","","","","","","","","","","","","","","","","","","","","","","","","","","","","","","","","","","","","","","","","","","","","","","","","","","","","","","","","","","","","","","","","","","","","","","","","","","","","SYN07601002 46/// /1212 11094 21111 30178 40190 57005 333 11094 21101 90710 91115=","","","","","","","","","",""
"01002099999","2024-02-13T22:00:00","80.05","16.25","8.0","VERLEGENHUKEN, NO","FM-12","4","","16","21","","","+0.05","6","81","","29.93","29.89","","20","130","","25","","","","","","","","","","","","","","","","","","","","","","","","","","","","","","","","","","","","","","","","","","","","","","","","","","","","","","","","","","","","","","","","","","","","","","","","","","","","","","","","","","","","","","","","","","","SYN07601002 46/// /1311 11062 21089 30122 40134 56016 333 11062 21073 90710 91115=","","","","","","","","","",""
"01002099999","2024-02-14T04:00:00","80.05","16.25","8.0","VERLEGENHUKEN, NO","FM-12","4","","18","23","","","+0.09","6","80","","29.78","29.74","","21","120","","31","","","","","","","","","","","","","","","","","","","","","","","","","","","","","","","","","","","","","","","","","","","","","","","","","","","","","","","","","","","","","","","","","","","","","","","","","","","","","","","","","","","","","","","","","","","SYN07601002 46/// /1214 11049 21078 30071 40083 56029 333 11048 21057 90710 91116=","","","","","","","","","",""
"01002099999","2024-02-14T10:00:00","80.05","16.25","8.0","VERLEGENHUKEN, NO","FM-12","4","","22","27","","","+0.07","7","81","","29.62","29.58","","25","150","","29","","","","","","","","","","","","","","","","","","","","","","","","","","","","","","","","","","","","","","","","","","","","","","","","","","","","","","","","","","","","","","","","","","","","","","","","","","","","","","","","","","","","","","","","","","","SYN07601002 46/// /1513 11025 21054 30018 40030 57025 333 11025 21032 90710 91116=","","","","","","","","","",""
"01002099999","2024-02-14T16:00:00","80.05","16.25","8.0","VERLEGENHUKEN, NO","FM-12","4","","25","27","","","+0.06","7","93","","29.51","29.48","","26","130","","29","","","","","","","","","","","","","","","","","","","","","","","","","","","","","","","","","","","","","","","","","","","","","","","","","","","","","","","","","","","","","","","","","","","","","","","","","","","","","","","","","","","","","","","","","","","SYN07601002 46/// /1313 11030 21040 39983 49994 57020 333 11028 21031 90710 91115=","","","","","","","","","",""
"01002099999","2024-02-14T23:00:00","80.05","16.25","8.0","VERLEGENHUKEN, NO","FM-12","4","","21","29","","","+0.05","7","74","","29.35","29.31","","26","152","34","27","","","","","","","","","","","","","","","","","","","","","","","","","","","","","","","","","","","","","","","","","","","","","","","","","","","","","","","","","","","","","","","","","","","","","","","","","","","","","","","","","","","","","","","","","","","SYN004BUFR","","","","","","","","","",""
"01002099999","2024-02-15T04:00:00","80.05","16.25","8.0","VERLEGENHUKEN, NO","FM-12","4","","27","29","","","+0.02","7","90","","29.33","29.30","","28","140","","27","","","","","","","","","","","","","","","","","","","","","","","","","","","","","","","","","","","","","","","","","","","","","","","","","","","","","","","","","","","","","","","","","","","","","","","","","","","","","","","","","","","","","","","","","","","SYN07601002 46/// /1412 11016 21030 39921 49933 57007 333 11010 21017 90710 91114=","","","","","","","","","",""
"01002099999","2024-02-15T10:00:00","80.05","16.25","8.0","VERLEGENHUKEN, NO","FM-12","4","","26","30","","","+0.03","8","86","","29.27","29.23","","29","150","","25","","","","","","","","","","","","","","","","","","","","","","","","","","","","","","","","","","","","","","","","","","","","","","","","","","","","","","","","","","","","","","","","","","","","","","","","","","","","","","","","","","","","","","","","","","","SYN07601002 46/// /1511 11012 21033 39899 49911 58010 333 11003 21018 90710 91114=","","","","","","","","","",""
"01002099999","2024-02-15T22:00:00","80.05","16.25","8.0","VERLEGENHUKEN, NO","FM-12","4","","26","27","","","","","96","","29.25","29.22","","27","040","","7","","","","","","","","","","","","","","","","","","","","","","","","","","","","","","","","","","","","","","","","","","","","","","","","","","","","","","","","","","","","","","","","","","","","","","","","","","","","","","","","","","","","","","","","","","","SYN07601002 46/// /0403 11029 21035 39894 49906 54003 333 11028 21030 90710 91104=","","","","","","","","","",""
"01002099999","2024-02-16T04:00:00","80.05","16.25","8.0","VERLEGENHUKEN, NO","FM-12","4","","22","26","","","+0.02","8","85","","29.21","29.18","","25","170","","9","","","","","","","","","","","","","","","","","","","","","","","","","","","","","","","","","","","","","","","","","","","","","","","","","","","","","","","","","","","","","","","","","","","","","","","","","","","","","","","","","","","","","","","","","","","SYN07601002 46/// /1704 11031 21053 39881 49893 58006 333 11031 21063 90710 91108=","","","","","","","","","",""
"01002099999","2024-02-16T10:00:00","80.05","16.25","8.0","VERLEGENHUKEN, NO","FM-12","4","","20","22","","","+0.01","7","89","","29.19","29.15","","21","270","","13","","","","","","","","","","","","","","","","","","","","","","","","","","","","","","","","","","","","","","","","","","","","","","","","","","","","","","","","","","","","","","","","","","","","","","","","","","","","","","","","","","","","","","","","","","","SYN07601002 46/// /2706 11053 21069 39873 49885 57004 333 11051 21054 90710 91108=","","","","","","","","","",""
"01002099999","2024-02-16T16:00:00","80.05","16.25","8.0","VERLEGENHUKEN, NO","FM-12","4","","4","13","","","-0.05","2","67","","29.24","29.21","","11","150","","11","","","","","","","","","","","","","","","","","","","","","","","","","","","","","","","","","","","","","","","","","","","","","","","","","","","","","","","","","","","","","","","","","","","","","","","","","","","","","","","","","","","","","","","","","","","SYN07601002 46/// /1505 11103 21154 39891 49903 52016 333 11091 21108 90710 91111=","","","","","","","","","",""
"01002099999","2024-02-16T19:00:00","80.05","16.25","8.0","VERLEGENHUKEN, NO","FM-12","4","","1","12","","","+0.01","5","61","","29.24","29.20","","10","166","18","15","","","","","","","","","","","","","","","","","","","","","","","","","","","","","","","","","","","","","","","","","","","","","","","","","","","","","","","","","","","","","","","","","","","","","","","","","","","","","","","","","","","","","","","","","","","SYN004BUFR","","","","","","","","","",""
"01002099999","2024-02-16T22:00:00","80.05","16.25","8.0","VERLEGENHUKEN, NO","FM-12","4","","-1","9","","","+0.01","6","63","","29.22","29.19","","7","190","","20","","","","","","","","","","","","","","","","","","","","","","","","","","","","","","","","","","","","","","","","","","","","","","","","","","","","","","","","","","","","","","","","","","","","","","","","","","","","","","","","","","","","","","","","","","","SYN07601002 46/// /1909 11126 21183 39884 49896 56005 333 11109 21126 90710 91109=","","","","","","","","","",""
"01002099999","2024-02-17T04:00:00","80.05","16.25","8.0","VERLEGENHUKEN, NO","FM-12","4","","2","15","","","","","57","","29.21","29.18","","12","160","","11","","","","","","","","","","","","","","","","","","","","","","","","","","","","","","","","","","","","","","","","","","","","","","","","","","","","","","","","","","","","","","","","","","","","","","","","","","","","","","","","","","","","","","","","","","","SYN07601002 46/// /1605 11097 21167 39880 49893 54001 333 11095 21118 90710 91107=","","","","","","","","","",""
"01002099999","2024-02-17T10:00:00","80.05","16.25","8.0","VERLEGENHUKEN, NO","FM-12","4","","10","13","","","-0.10","3","90","","29.32","29.29","","12","270","","25","","","","","","","","","","","","","","","","","","","","","","","","","","","","","","","","","","","","","","","","","","","","","","","","","","","","","","","","","","","","","","","","","","","","","","","","","","","","","","","","","","","","","","","","","","","SYN07601002 46/// /2711 11108 21122 39918 49930 53033 333 11106 21111 90710 91113=","","","","","","","","","",""
"01002099999","2024-02-17T16:00:00","80.05","16.25","8.0","VERLEGENHUKEN, NO","FM-12","4","","5","9","","","-0.07","2","85","","29.44","29.41","","8","280","","34","","","","","","","","","","","","","","","","","","","","","","","","","","","","","","","","","","","","","","","","","","","","","","","","","","","","","","","","","","","","","","","","","","","","","","","","","","","","","","","","","","","","","","","","","","","SYN07601002 46/// /2815 11130 21150 39959 49971 52024 333 11119 21131 90710 91117=","","","","","","","","","",""
"01002099999","2024-02-17T22:00:00","80.05","16.25","8.0","VERLEGENHUKEN, NO","FM-12","4","","1","5","","","-0.06","2","85","","29.57","29.54","","4","270","","34","","","","","","","","","","","","","","","","","","","","","","","","","","","","","","","","","","","","","","","","","","","","","","","","","","","","","","","","","","","","","","","","","","","","","","","","","","","","","","","","","","","","","","","","","","","SYN07601002 46/// /2715 11152 21172 30003 40015 52020 333 11146 21156 90710 91119=","","","","","","","","","",""
"01002099999","2024-02-18T04:00:00","80.05","16.25","8.0","VERLEGENHUKEN, NO","FM-12","4","","-1","3","","","","","83","","29.63","29.59","","2","270","","31","","","","","","","","","","","","","","","","","","","","","","","","","","","","","","","","","","","","","","","","","","","","","","","","","","","","","","","","","","","","","","","","","","","","","","","","","","","","","","","","","","","","","","","","","","","SYN07601002 46/// /2714 11159 21181 30020 40033 54003 333 11153 21161 90710 91116=","","","","","","","","","",""
"01002099999","2024-02-18T10:00:00","80.05","16.25","8.0","VERLEGENHUKEN, NO","FM-12","4","","-4","1","","","","","81","","29.64","29.61","","0","280","","25","","","","","","","","","","","","","","","","","","","","","","","","","","","","","","","","","","","","","","","","","","","","","","","","","","","","","","","","","","","","","","","","","","","","","","","","","","","","","","","","","","","","","","","","","","","SYN07601002 46/// /2811 11173 21198 30026 40038 54001 333 11169 21178 90710 91114=","","","","","","","","","",""
"01002099999","2024-02-18T16:00:00","80.05","16.25","8.0","VERLEGENHUKEN, NO","FM-12","4","","2","6","","","+0.04","8","86","","29.59","29.55","","5","280","","31","","","","","","","","","","","","","","","","","","","","","","","","","","","","","","","","","","","","","","","","","","","","","","","","","","","","","","","","","","","","","","","","","","","","","","","","","","","","","","","","","","","","","","","","","","","SYN07601002 46/// /2814 11146 21164 30007 40020 58012 333 11141 21150 90710 91117=","","","","","","","","","",""
"01002099999","2024-02-18T22:00:00","80.05","16.25","8.0","VERLEGENHUKEN, NO","FM-12","4","","-1","2","","","","","85","","29.55","29.52","","1","280","","34","","","","","","","","","","","","","","","","","","","","","","","","","","","","","","","","","","","","","","","","","","","","","","","","","","","","","","","","","","","","","","","","","","","","","","","","","","","","","","","","","","","","","","","","","","","SYN07601002 46/// /2815 11164 21184 39995 40008 54001 333 11163 21171 90710 91117=","","","","","","","","","",""
"01002099999","2024-02-19T04:00:00","80.05","16.25","8.0","VERLEGENHUKEN, NO","FM-12","4","","-1","2","","","","","84","","29.55","29.51","","1","280","","29","","","","","","","","","","","","","","","","","","","","","","","","","","","","","","","","","","","","","","","","","","","","","","","","","","","","","","","","","","","","","","","","","","","","","","","","","","","","","","","","","","","","","","","","","","","SYN07601002 46/// /2813 11165 21186 39994 40007 54002 333 11164 21172 90710 91116=","","","","","","","","","",""
"01002099999","2024-02-19T16:00:00","80.05","16.25","8.0","VERLEGENHUKEN, NO","FM-12","4","","5","9","","","0.01","9","86","","29.63","29.59","","8","280","","29","","","","","","","","","","","","","","","","","","","","","","","","","","","","","","","","","","","","","","","","","","","","","","","","","","","","","","","","","","","","","","","","","","","","","","","","","","","","","","","","","","","","","","","","","","","SYN07601002 46/// /2813 11130 21149 30022 40034 50004 333 11130 21136 90710 91115=","","","","","","","","","",""
"01002099999","2024-02-19T22:00:00","80.05","16.25","8.0","VERLEGENHUKEN, NO","FM-12","4","","11","14","","","-0.03","1","87","","29.67","29.64","","13","320","","22","","","","","","","","","","","","","","","","","","","","","","","","","","","","","","","","","","","","","","","","","","","","","","","","","","","","","","","","","","","","","","","","","","","","","","","","","","","","","","","","","","","","","","","","","","","SYN07601002 46/// /3210 11098 21116 30037 40049 51011 333 11098 21112 90710 91114=","","","","","","","","","",""
"01002099999","2024-02-20T04:00:00","80.05","16.25","8.0","VERLEGENHUKEN, NO","FM-12","4","","12","16","","","-0.03","2","82","","29.74","29.70","","15","350","","13","","","","","","","","","","","","","","","","","","","","","","","","","","","","","","","","","","","","","","","","","","","","","","","","","","","","","","","","","","","","","","","","","","","","","","","","","","","","","","","","","","","","","","","","","","","SYN07601002 46/// /3506 11087 21113 30059 40071 52009 333 11086 21091 90710 91110=","","","","","","","","","",""
"01002099999","2024-02-20T10:00:00","80.05","16.25","8.0","VERLEGENHUKEN, NO","FM-12","4","","9","14","","","-0.03","2","78","","29.78","29.75","","13","330","","11","","","","","","","","","","","","","","","","","","","","","","","","","","","","","","","","","","","","","","","","","","","","","","","","","","","","","","","","","","","","","","","","","","","","","","","","","","","","","","","","","","","","","","","","","","","SYN07601002 46/// /3305 11099 21130 30074 40086 52009 333 11098 21100 90710 91109=","","","","","","","","","",""
"01002099999","2024-02-20T16:00:00","80.05","16.25","8.0","VERLEGENHUKEN, NO","FM-12","4","","8","14","","","","","78","","29.80","29.76","","13","210","","11","","","","","","","","","","","","","","","","","","","","","","","","","","","","","","","","","","","","","","","","","","","","","","","","","","","","","","","","","","","","","","","","","","","","","","","","","","","","","","","","","","","","","","","","","","","SYN07601002 46/// /2105 11100 21131 30078 40090 54001 333 11100 21106 90710 91105=","","","","","","","","","",""
"01002099999","2024-02-20T23:00:00","80.05","16.25","8.0","VERLEGENHUKEN, NO","FM-12","4","","8","14","","","","","77","","29.78","29.74","","13","192","15","11","","","","","","","","","","","","","","","","","","","","","","","","","","","","","","","","","","","","","","","","","","","","","","","","","","","","","","","","","","","","","","","","","","","","","","","","","","","","","","","","","","","","","","","","","","","SYN004BUFR","","","","","","","","","",""
"01002099999","2024-02-21T04:00:00","80.05","16.25","8.0","VERLEGENHUKEN, NO","FM-12","4","","7","14","","","+0.01","7","73","","29.76","29.72","","12","190","","7","","","","","","","","","","","","","","","","","","","","","","","","","","","","","","","","","","","","","","","","","","","","","","","","","","","","","","","","","","","","","","","","","","","","","","","","","","","","","","","","","","","","","","","","","","","SYN07601002 46/// /1903 11101 21140 30064 40077 57004 333 11097 21107 90710 91106=","","","","","","","","","",""
"01002099999","2024-02-21T05:00:00","80.05","16.25","8.0","VERLEGENHUKEN, NO","FM-12","4","","6","14","","","+0.02","7","70","","29.75","29.71","","12","210","11","10","","","","","","","","","","","","","","","","","","","","","","","","","","","","","","","","","","","","","","","","","","","","","","","","","","","","","","","","","","","","","","","","","","","","","","","","","","","","","","","","","","","","","","","","","","","SYN004BUFR","","","","","","","","","",""
"01002099999","2024-02-21T10:00:00","80.05","16.25","8.0","VERLEGENHUKEN, NO","FM-12","4","","3","12","","","","","66","","29.74","29.70","","10","140","","7","","","","","","","","","","","","","","","","","","","","","","","","","","","","","","","","","","","","","","","","","","","","","","","","","","","","","","","","","","","","","","","","","","","","","","","","","","","","","","","","","","","","","","","","","","","SYN07601002 46/// /1403 11109 21161 30057 40070 54001 333 11101 21114 90710 91105=","","","","","","","","","",""
"01002099999","2024-02-21T16:00:00","80.05","16.25","8.0","VERLEGENHUKEN, NO","FM-12","4","","6","14","","","+0.03","7","68","","29.69","29.66","","12","170","","9","","","","","","","","","","","","","","","","","","","","","","","","","","","","","","","","","","","","","","","","","","","","","","","","","","","","","","","","","","","","","","","","","","","","","","","","","","","","","","","","","","","","","","","","","","","SYN07601002 46/// /1704 11099 21147 30043 40055 57011 333 11097 21108 90710 91105=","","","","","","","","","",""
"01002099999","2024-02-21T22:00:00","80.05","16.25","8.0","VERLEGENHUKEN, NO","FM-12","4","","5","14","","","+0.01","7","67","","29.65","29.62","","12","150","","9","","","","","","","","","","","","","","","","","","","","","","","","","","","","","","","","","","","","","","","","","","","","","","","","","","","","","","","","","","","","","","","","","","","","","","","","","","","","","","","","","","","","","","","","","","","SYN07601002 46/// /1504 11098 21149 30029 40041 57004 333 11098 21104 90710 91104=","","","","","","","","","",""
"01002099999","2024-02-22T04:00:00","80.05","16.25","8.0","VERLEGENHUKEN, NO","FM-12","4","","1","11","","","+0.04","7","66","","29.59","29.55","","9","140","","13","","","","","","","","","","","","","","","","","","","","","","","","","","","","","","","","","","","","","","","","","","","","","","","","","","","","","","","","","","","","","","","","","","","","","","","","","","","","","","","","","","","","","","","","","","","SYN07601002 46/// /1406 11118 21170 30008 40021 57012 333 11112 21124 90710 91106=","","","","","","","","","",""
"01002099999","2024-02-22T10:00:00","80.05","16.25","8.0","VERLEGENHUKEN, NO","FM-12","4","","3","12","","","+0.01","7","67","","29.56","29.52","","10","140","","13","","","","","","","","","","","","","","","","","","","","","","","","","","","","","","","","","","","","","","","","","","","","","","","","","","","","","","","","","","","","","","","","","","","","","","","","","","","","","","","","","","","","","","","","","","","SYN07601002 46/// /1406 11111 21160 39997 40009 57004 333 11100 21113 90710 91106=","","","","","","","","","",""
"01002099999","2024-02-22T16:00:00","80.05","16.25","8.0","VERLEGENHUKEN, NO","FM-12","4","","12","16","","","+0.04","7","84","","29.49","29.46","","15","120","","25","","","","","","","","","","","","","","","","","","","","","","","","","","","","","","","","","","","","","","","","","","","","","","","","","","","","","","","","","","","","","","","","","","","","","","","","","","","","","","","","","","","","","","","","","","","SYN07601002 46/// /1211 11087 21109 39976 49988 57012 333 11085 21091 90710 91113=","","","","","","","","","",""
"01002099999","2024-02-22T22:00:00","80.05","16.25","8.0","VERLEGENHUKEN, NO","FM-12","4","","11","15","","","","","84","","29.47","29.44","","14","120","","25","","","","","","","","","","","","","","","","","","","","","","","","","","","","","","","","","","","","","","","","","","","","","","","","","","","","","","","","","","","","","","","","","","","","","","","","","","","","","","","","","","","","","","","","","","","SYN07601002 46/// /1211 11096 21118 39968 49980 54003 333 11093 21097 90710 91113=","","","","","","","","","",""
"01002099999","2024-02-23T04:00:00","80.05","16.25","8.0","VERLEGENHUKEN, NO","FM-12","4","","13","16","","","+0.01","7","87","","29.45","29.41","","15","120","","22","","","","","","","","","","","","","","","","","","","","","","","","","","","","","","","","","","","","","","","","","","","","","","","","","","","","","","","","","","","","","","","","","","","","","","","","","","","","","","","","","","","","","","","","","","","SYN07601002 46/// /1210 11090 21108 39961 49973 57005 333 11088 21091 90710 91112=","","","","","","","","","",""
"01002099999","2024-02-23T10:00:00","80.05","16.25","8.0","VERLEGENHUKEN, NO","FM-12","4","","11","15","","","0.01","9","82","","29.46","29.42","","14","120","","16","","","","","","","","","","","","","","","","","","","","","","","","","","","","","","","","","","","","","","","","","","","","","","","","","","","","","","","","","","","","","","","","","","","","","","","","","","","","","","","","","","","","","","","","","","","SYN07601002 46/// /1207 11092 21117 39964 49976 50003 333 11086 21094 90710 91111=","","","","","","","","","",""
"01002099999","2024-02-23T16:00:00","80.05","16.25","8.0","VERLEGENHUKEN, NO","FM-12","4","","3","12","","","+0.01","7","69","","29.44","29.41","","10","130","","13","","","","","","","","","","","","","","","","","","","","","","","","","","","","","","","","","","","","","","","","","","","","","","","","","","","","","","","","","","","","","","","","","","","","","","","","","","","","","","","","","","","","","","","","","","","SYN07601002 46/// /1306 11113 21160 39958 49970 57004 333 11099 21115 90710 91106=","","","","","","","","","",""
"01002099999","2024-02-23T22:00:00","80.05","16.25","8.0","VERLEGENHUKEN, NO","FM-12","4","","17","21","","","+0.04","8","84","","29.39","29.35","","20","120","","22","","","","","","","","","","","","","","","","","","","","","","","","","","","","","","","","","","","","","","","","","","","","","","","","","","","","","","","","","","","","","","","","","","","","","","","","","","","","","","","","","","","","","","","","","","","SYN07601002 46/// /1210 11060 21083 39939 49951 58013 333 11060 21073 90710 91112=","","","","","","","","","",""
"01002099999","2024-02-24T04:00:00","80.05","16.25","8.0","VERLEGENHUKEN, NO","FM-12","4","","17","23","","","+0.05","7","78","","29.31","29.27","","21","140","","22","","","","","","","","","","","","","","","","","","","","","","","","","","","","","","","","","","","","","","","","","","","","","","","","","","","","","","","","","","","","","","","","","","","","","","","","","","","","","","","","","","","","","","","","","","","SYN07601002 46/// /1410 11051 21084 39912 49924 57017 333 11046 21052 90710 91111=","","","","","","","","","",""
"01002099999","2024-02-24T10:00:00","80.05","16.25","8.0","VERLEGENHUKEN, NO","FM-12","4","","23","25","","","+0.04","7","94","","29.21","29.18","","24","210","","13","","","","","","","","","","","","","","","","","","","","","","","","","","","","","","","","","","","","","","","","","","","","","","","","","","","","","","","","","","","","","","","","","","","","","","","","","","","","","","","","","","","","","","","","","","","SYN07601002 46/// /2106 11041 21049 39881 49893 57012 333 11036 21055 90710 91107=","","","","","","","","","",""
"01002099999","2024-02-24T16:00:00","80.05","16.25","8.0","VERLEGENHUKEN, NO","FM-12","4","","23","26","","","-0.01","2","90","","29.19","29.15","","25","320","","18","","","","","","","","","","","","","","","","","","","","","","","","","","","","","","","","","","","","","","","","","","","","","","","","","","","","","","","","","","","","","","","","","","","","","","","","","","","","","","","","","","","","","","","","","","","SYN07601002 46/// /3208 11034 21048 39873 49884 52003 333 11033 21037 90710 91109=","","","","","","","","","",""
"01002099999","2024-02-24T22:00:00","80.05","16.25","8.0","VERLEGENHUKEN, NO","FM-12","4","","15","18","","","","","91","","29.21","29.17","","17","290","","18","","","","","","","","","","","","","","","","","","","","","","","","","","","","","","","","","","","","","","","","","","","","","","","","","","","","","","","","","","","","","","","","","","","","","","","","","","","","","","","","","","","","","","","","","","","SYN07601002 46/// /2908 11080 21092 39879 49891 54002 333 11075 21080 90710 91111=","","","","","","","","","",""
"01002099999","2024-02-25T04:00:00","80.05","16.25","8.0","VERLEGENHUKEN, NO","FM-12","4","","9","11","","","","","90","","29.22","29.19","","11","280","","22","","","","","","","","","","","","","","","","","","","","","","","","","","","","","","","","","","","","","","","","","","","","","","","","","","","","","","","","","","","","","","","","","","","","","","","","","","","","","","","","","","","","","","","","","","","SYN07601002 46/// /2810 11114 21128 39884 49896 54003 333 11109 21118 90710 91113=","","","","","","","","","",""
"01002099999","2024-02-25T10:00:00","80.05","16.25","8.0","VERLEGENHUKEN, NO","FM-12","4","","6","9","","","-0.04","2","88","","29.28","29.24","","8","270","","20","","","","","","","","","","","","","","","","","","","","","","","","","","","","","","","","","","","","","","","","","","","","","","","","","","","","","","","","","","","","","","","","","","","","","","","","","","","","","","","","","","","","","","","","","","","SYN07601002 46/// /2709 11127 21143 39901 49914 52012 333 11123 21127 90710 91112=","","","","","","","","","",""
"01002099999","2024-02-25T16:00:00","80.05","16.25","8.0","VERLEGENHUKEN, NO","FM-12","4","","6","9","","","-0.03","1","89","","29.35","29.31","","8","260","","18","","","","","","","","","","","","","","","","","","","","","","","","","","","","","","","","","","","","","","","","","","","","","","","","","","","","","","","","","","","","","","","","","","","","","","","","","","","","","","","","","","","","","","","","","","","SYN07601002 46/// /2608 11129 21144 39926 49938 51010 333 11126 21130 90710 91110=","","","","","","","","","",""
"01002099999","2024-02-25T22:00:00","80.05","16.25","8.0","VERLEGENHUKEN, NO","FM-12","4","","6","9","","","0.00","9","88","","29.36","29.33","","8","270","","11","","","","","","","","","","","","","","","","","","","","","","","","","","","","","","","","","","","","","","","","","","","","","","","","","","","","","","","","","","","","","","","","","","","","","","","","","","","","","","","","","","","","","","","","","","","SYN07601002 46/// /2705 11128 21144 39931 49943 50001 333 11125 21129 90710 91107=","","","","","","","","","",""
"01002099999","2024-02-26T04:00:00","80.05","16.25","8.0","VERLEGENHUKEN, NO","FM-12","4","","4","7","","","","","88","","29.37","29.33","","6","330","","9","","","","","","","","","","","","","","","","","","","","","","","","","","","","","","","","","","","","","","","","","","","","","","","","","","","","","","","","","","","","","","","","","","","","","","","","","","","","","","","","","","","","","","","","","","","SYN07601002 46/// /3304 11139 21155 39933 49945 54002 333 11137 21140 90710 91105=","","","","","","","","","",""
"01002099999","2024-02-26T10:00:00","80.05","16.25","8.0","VERLEGENHUKEN, NO","FM-12","4","","6","9","","","+0.01","8","88","","29.34","29.31","","8","000","","0","","","","","","","","","","","","","","","","","","","","","","","","","","","","","","","","","","","","","","","","","","","","","","","","","","","","","","","","","","","","","","","","","","","","","","","","","","","","","","","","","","","","","","","","","","","SYN07601002 46/// /3600 11129 21145 39924 49936 58004 333 11129 21131 90710 91103=","","","","","","","","","",""
"01002099999","2024-02-26T13:00:00","80.05","16.25","8.0","VERLEGENHUKEN, NO","FM-12","4","","6","9","","","+0.01","7","86","","29.34","29.30","","8","146","","9","","","","","","","","","","","","","","","","","","","","","","","","","","","","","","","","","","","","","","","","","","","","","","","","","","","","","","","","","","","","","","","","","","","","","","","","","","","","","","","","","","","","","","","","","","","SYN004BUFR","","","","","","","","","",""
"01002099999","2024-02-26T16:00:00","80.05","16.25","8.0","VERLEGENHUKEN, NO","FM-12","4","","5","9","","","+0.01","7","86","","29.32","29.28","","8","160","","11","","","","","","","","","","","","","","","","","","","","","","","","","","","","","","","","","","","","","","","","","","","","","","","","","","","","","","","","","","","","","","","","","","","","","","","","","","","","","","","","","","","","","","","","","","","SYN07601002 46/// /1605 11130 21149 39917 49929 57005 333 11122 21131 90710 91106=","","","","","","","","","",""
"01002099999","2024-02-26T22:00:00","80.05","16.25","8.0","VERLEGENHUKEN, NO","FM-12","4","","4","13","","","","","66","","29.28","29.25","","11","190","","7","","","","","","","","","","","","","","","","","","","","","","","","","","","","","","","","","","","","","","","","","","","","","","","","","","","","","","","","","","","","","","","","","","","","","","","","","","","","","","","","","","","","","","","","","","","SYN07601002 46/// /1903 11106 21158 39905 49917 54001 333 11106 21117 90710 91104=","","","","","","","","","",""
"01002099999","2024-02-27T04:00:00","80.05","16.25","8.0","VERLEGENHUKEN, NO","FM-12","4","","8","17","","","+0.01","7","70","","29.26","29.23","","15","130","","13","","","","","","","","","","","","","","","","","","","","","","","","","","","","","","","","","","","","","","","","","","","","","","","","","","","","","","","","","","","","","","","","","","","","","","","","","","","","","","","","","","","","","","","","","","","SYN07601002 46/// /1306 11085 21131 39897 49909 57005 333 11082 21094 90710 91108=","","","","","","","","","",""
"01002099999","2024-02-27T10:00:00","80.05","16.25","8.0","VERLEGENHUKEN, NO","FM-12","4","","12","18","","","-0.01","2","77","","29.29","29.26","","16","130","","18","","","","","","","","","","","","","","","","","","","","","","","","","","","","","","","","","","","","","","","","","","","","","","","","","","","","","","","","","","","","","","","","","","","","","","","","","","","","","","","","","","","","","","","","","","","SYN07601002 46/// /1308 11079 21113 39907 49919 52005 333 11068 21079 90710 91109=","","","","","","","","","",""
"01002099999","2024-02-27T16:00:00","80.05","16.25","8.0","VERLEGENHUKEN, NO","FM-12","4","","7","14","","","+0.00","5","73","","29.31","29.27","","12","130","","22","","","","","","","","","","","","","","","","","","","","","","","","","","","","","","","","","","","","","","","","","","","","","","","","","","","","","","","","","","","","","","","","","","","","","","","","","","","","","","","","","","","","","","","","","","","SYN07601002 46/// /1310 11101 21140 39912 49924 55001 333 11097 21106 90710 91111=","","","","","","","","","",""
"01002099999","2024-02-27T22:00:00","80.05","16.25","8.0","VERLEGENHUKEN, NO","FM-12","4","","15","20","","","+0.03","7","81","","29.25","29.21","","19","140","","29","","","","","","","","","","","","","","","","","","","","","","","","","","","","","","","","","","","","","","","","","","","","","","","","","","","","","","","","","","","","","","","","","","","","","","","","","","","","","","","","","","","","","","","","","","","SYN07601002 46/// /1413 11069 21097 39892 49904 57009 333 11067 21073 90710 91116=","","","","","","","","","",""
"01002099999","2024-02-28T04:00:00","80.05","16.25","8.0","VERLEGENHUKEN, NO","FM-12","4","","17","23","","","+0.06","7","80","","29.16","29.12","","21","110","","36","","","","","","","","","","","","","","","","","","","","","","","","","","","","","","","","","","","","","","","","","","","","","","","","","","","","","","","","","","","","","","","","","","","","","","","","","","","","","","","","","","","","","","","","","","","SYN07601002 46/// /1116 11051 21081 39862 49874 57021 333 11051 21064 90710 91120=","","","","","","","","","",""
"01002099999","2024-02-28T10:00:00","80.05","16.25","8.0","VERLEGENHUKEN, NO","FM-12","4","","22","26","","","+0.03","8","86","","29.10","29.07","","25","100","","34","","","","","","","","","","","","","","","","","","","","","","","","","","","","","","","","","","","","","","","","","","","","","","","","","","","","","","","","","","","","","","","","","","","","","","","","","","","","","","","","","","","","","","","","","","","SYN07601002 46/// /1015 11035 21055 39843 49854 58010 333 11035 21041 90710 91118=","","","","","","","","","",""
"01002099999","2024-02-28T16:00:00","80.05","16.25","8.0","VERLEGENHUKEN, NO","FM-12","4","","24","27","","","+0.04","6","89","","29.05","29.01","","26","100","","27","","","","","","","","","","","","","","","","","","","","","","","","","","","","","","","","","","","","","","","","","","","","","","","","","","","","","","","","","","","","","","","","","","","","","","","","","","","","","","","","","","","","","","","","","","","SYN07601002 46/// /1012 11027 21043 39825 49837 56013 333 11027 21028 90710 91114=","","","","","","","","","",""
"01002099999","2024-02-29T04:00:00","80.05","16.25","8.0","VERLEGENHUKEN, NO","FM-12","4","","28","29","","","0.00","4","94","","29.00","28.96","","29","110","","29","","","","","","","","","","","","","","","","","","","","","","","","","","","","","","","","","","","","","","","","","","","","","","","","","","","","","","","","","","","","","","","","","","","","","","","","","","","","","","","","","","","","","","","","","","","SYN07601002 46/// /1113 11014 21023 39807 49819 54000 333 11012 21014 90710 91117=","","","","","","","","","",""
"01002099999","2024-02-29T10:00:00","80.05","16.25","8.0","VERLEGENHUKEN, NO","FM-12","4","","25","28","","","-0.06","2","87","","29.05","29.02","","27","120","","18","","","","","","","","","","","","","","","","","","","","","","","","","","","","","","","","","","","","","","","","","","","","","","","","","","","","","","","","","","","","","","","","","","","","","","","","","","","","","","","","","","","","","","","","","","","SYN07601002 46/// /1208 11022 21041 39826 49837 52019 333 11018 21026 90710 91111=","","","","","","","","","",""
"01002099999","2024-02-29T16:00:00","80.05","16.25","8.0","VERLEGENHUKEN, NO","FM-12","4","","30","31","","","-0.03","2","97","","29.13","29.10","","31","070","","9","","","","","","","","","","","","","","","","","","","","","","","","","","","","","","","","","","","","","","","","","","","","","","","","","","","","","","","","","","","","","","","","","","","","","","","","","","","","","","","","","","","","","","","","","","","SYN07601002 46/// /0704 11008 21012 39853 49864 52010 333 11008 21014 90710 91105=","","","","","","","","","",""
"01002099999","2024-02-29T22:00:00","80.05","16.25","8.0","VERLEGENHUKEN, NO","FM-12","4","","26","27","","","-0.08","2","94","","29.24","29.21","","27","060","","27","","","","","","","","","","","","","","","","","","","","","","","","","","","","","","","","","","","","","","","","","","","","","","","","","","","","","","","","","","","","","","","","","","","","","","","","","","","","","","","","","","","","","","","","","","","SYN07601002 46/// /0612 11025 21034 39892 49903 52027 333 11020 21025 90710 91113=","","","","","","","","","",""
"01002099999","2024-03-01T04:00:00","80.05","16.25","8.0","VERLEGENHUKEN, NO","FM-12","4","","21","24","","","-0.09","2","90","","29.44","29.41","","23","060","","27","","","","","","","","","","","","","","","","","","","","","","","","","","","","","","","","","","","","","","","","","","","","","","","","","","","","","","","","","","","","","","","","","","","","","","","","","","","","","","","","","","","","","","","","","","","SYN07601002 46/// /0612 11046 21060 39959 49971 52032 333 11040 21046 90710 91113=","","","","","","","","","",""
"01002099999","2024-03-01T10:00:00","80.05","16.25","8.0","VERLEGENHUKEN, NO","FM-12","4","","18","21","","","-0.10","2","88","","29.62","29.58","","20","060","","34","","","","","","","","","","","","","","","","","","","","","","","","","","","","","","","","","","","","","","","","","","","","","","","","","","","","","","","","","","","","","","","","","","","","","","","","","","","","","","","","","","","","","","","","","","","SYN07601002 46/// /0615 11061 21078 30018 40030 52033 333 11058 21063 90710 91117=","","","","","","","","","",""
"01002099999","2024-03-01T16:00:00","80.05","16.25","8.0","VERLEGENHUKEN, NO","FM-12","4","","13","17","","","-0.07","2","85","","29.79","29.76","","16","070","","31","","","","","","","","","","","","","","","","","","","","","","","","","","","","","","","","","","","","","","","","","","","","","","","","","","","","","","","","","","","","","","","","","","","","","","","","","","","","","","","","","","","","","","","","","","","SYN07601002 46/// /0714 11084 21105 30077 40089 52024 333 11078 21084 90710 91116=","","","","","","","","","",""
"01002099999","2024-03-02T04:00:00","80.05","16.25","8.0","VERLEGENHUKEN, NO","FM-12","4","","11","16","","","+0.01","8","80","","29.89","29.85","","15","110","","25","","","","","","","","","","","","","","","","","","","","","","","","","","","","","","","","","","","","","","","","","","","","","","","","","","","","","","","","","","","","","","","","","","","","","","","","","","","","","","","","","","","","","","","","","","","SYN07601002 46/// /1111 11088 21117 30110 40122 58003 333 11086 21095 90710 91112=","","","","","","","","","",""
"01002099999","2024-03-02T10:00:00","80.05","16.25","8.0","VERLEGENHUKEN, NO","FM-12","4","","8","14","","","-0.03","2","79","","29.89","29.85","","13","140","","20","","","","","","","","","","","","","","","","","","","","","","","","","","","","","","","","","","","","","","","","","","","","","","","","","","","","","","","","","","","","","","","","","","","","","","","","","","","","","","","","","","","","","","","","","","","SYN07601002 46/// /1409 11101 21131 30109 40121 52010 333 11095 21101 90710 91114=","","","","","","","","","",""
"01002099999","2024-03-02T16:00:00","80.05","16.25","8.0","VERLEGENHUKEN, NO","FM-12","4","","11","16","","","","","82","","29.90","29.87","","15","130","","22","","","","","","","","","","","","","","","","","","","","","","","","","","","","","","","","","","","","","","","","","","","","","","","","","","","","","","","","","","","","","","","","","","","","","","","","","","","","","","","","","","","","","","","","","","","SYN07601002 46/// /1310 11089 21114 30114 40126 54003 333 11086 21091 90710 91112=","","","","","","","","","",""
"01002099999","2024-03-02T22:00:00","80.05","16.25","8.0","VERLEGENHUKEN, NO","FM-12","4","","13","17","","","+0.01","7","84","","29.90","29.87","","16","130","","20","","","","","","","","","","","","","","","","","","","","","","","","","","","","","","","","","","","","","","","","","","","","","","","","","","","","","","","","","","","","","","","","","","","","","","","","","","","","","","","","","","","","","","","","","","","SYN07601002 46/// /1309 11086 21108 30114 40126 57005 333 11083 21087 90710 91110=","","","","","","","","","",""
"01002099999","2024-03-03T04:00:00","80.05","16.25","8.0","VERLEGENHUKEN, NO","FM-12","4","","23","25","","","0.01","9","93","","29.90","29.86","","24","340","","13","","","","","","","","","","","","","","","","","","","","","","","","","","","","","","","","","","","","","","","","","","","","","","","","","","","","","","","","","","","","","","","","","","","","","","","","","","","","","","","","","","","","","","","","","","","SYN07601002 46/// /3406 11041 21051 30113 40125 50002 333 11033 21041 90710 91107=","","","","","","","","","",""
"01002099999","2024-03-03T10:00:00","80.05","16.25","8.0","VERLEGENHUKEN, NO","FM-12","4","","16","20","","","-0.04","2","82","","30.00","29.97","","19","290","","22","","","","","","","","","","","","","","","","","","","","","","","","","","","","","","","","","","","","","","","","","","","","","","","","","","","","","","","","","","","","","","","","","","","","","","","","","","","","","","","","","","","","","","","","","","","SYN07601002 46/// /2910 11064 21090 30148 40160 52014 333 11060 21065 90710 91111=","","","","","","","","","",""
"01002099999","2024-03-03T16:00:00","80.05","16.25","8.0","VERLEGENHUKEN, NO","FM-12","4","","17","20","","","","","87","","30.05","30.01","","19","140","","9","","","","","","","","","","","","","","","","","","","","","","","","","","","","","","","","","","","","","","","","","","","","","","","","","","","","","","","","","","","","","","","","","","","","","","","","","","","","","","","","","","","","","","","","","","","SYN07601002 46/// /1404 11065 21084 30163 40176 54002 333 11062 21069 90710 91105=","","","","","","","","","",""
"01002099999","2024-03-03T22:00:00","80.05","16.25","8.0","VERLEGENHUKEN, NO","FM-12","4","","23","28","","","0.00","9","83","","30.01","29.97","","26","200","","11","","","","","","","","","","","","","","","","","","","","","","","","","","","","","","","","","","","","","","","","","","","","","","","","","","","","","","","","","","","","","","","","","","","","","","","","","","","","","","","","","","","","","","","","","","","SYN07601002 46/// /2005 11024 21050 30150 40162 50001 333 11013 21024 90710 91107=","","","","","","","","","",""
"01002099999","2024-03-04T04:00:00","80.05","16.25","8.0","VERLEGENHUKEN, NO","FM-12","4","","26","31","","","-0.02","2","82","","30.01","29.98","","29","240","","18","","","","","","","","","","","","","","","","","","","","","","","","","","","","","","","","","","","","","","","","","","","","","","","","","","","","","","","","","","","","","","","","","","","","","","","","","","","","","","","","","","","","","","","","","","","SYN07601002 46/// /2408 11007 21035 30152 40164 52006 333 11005 21009 90710 91111=","","","","","","","","","",""
"01002099999","2024-03-04T10:00:00","80.05","16.25","8.0","VERLEGENHUKEN, NO","FM-12","4","","27","31","","","-0.04","1","85","","30.09","30.05","","30","260","","16","","","","","","","","","","","","","","","","","","","","","","","","","","","","","","","","","","","","","","","","","","","","","","","","","","","","","","","","","","","","","","","","","","","","","","","","","","","","","","","","","","","","","","","","","","","SYN07601002 46/// /2607 11005 21027 30176 40188 51012 333 11005 21006 90710 91108=","","","","","","","","","",""
"01002099999","2024-03-04T16:00:00","80.05","16.25","8.0","VERLEGENHUKEN, NO","FM-12","4","","27","31","","","-0.03","1","84","","30.13","30.10","","30","270","","25","","","","","","","","","","","","","","","","","","","","","","","","","","","","","","","","","","","","","","","","","","","","","","","","","","","","","","","","","","","","","","","","","","","","","","","","","","","","","","","","","","","","","","","","","","","SYN07601002 46/// /2711 11006 21030 30192 40204 51009 333 11006 21009 90710 91113=","","","","","","","","","",""
"01002099999","2024-03-04T22:00:00","80.05","16.25","8.0","VERLEGENHUKEN, NO","FM-12","4","","23","28","","","+0.01","6","81","","30.15","30.12","","26","220","","20","","","","","","","","","","","","","","","","","","","","","","","","","","","","","","","","","","","","","","","","","","","","","","","","","","","","","","","","","","","","","","","","","","","","","","","","","","","","","","","","","","","","","","","","","","","SYN07601002 46/// /2209 11022 21051 30199 40211 56003 333 11015 21024 90710 91111=","","","","","","","","","",""
"01002099999","2024-03-05T04:00:00","80.05","16.25","8.0","VERLEGENHUKEN, NO","FM-12","4","","24","30","","","+0.04","6","77","","30.12","30.09","","28","220","","25","","","","","","","","","","","","","","","","","","","","","","","","","","","","","","","","","","","","","","","","","","","","","","","","","","","","","","","","","","","","","","","","","","","","","","","","","","","","","","","","","","","","","","","","","","","SYN07601002 46/// /2211 11010 21046 30189 40201 56014 333 11010 21050 90710 91113=","","","","","","","","","",""
"01002099999","2024-03-05T10:00:00","80.05","16.25","8.0","VERLEGENHUKEN, NO","FM-12","4","","23","29","","","","","79","","30.12","30.08","","27","220","","22","","","","","","","","","","","","","","","","","","","","","","","","","","","","","","","","","","","","","","","","","","","","","","","","","","","","","","","","","","","","","","","","","","","","","","","","","","","","","","","","","","","","","","","","","","","SYN07601002 46/// /2210 11017 21049 30187 40199 54002 333 11013 21019 90710 91112=","","","","","","","","","",""
"01002099999","2024-03-05T16:00:00","80.05","16.25","8.0","VERLEGENHUKEN, NO","FM-12","4","","24","29","","","+0.02","7","80","","30.09","30.06","","27","220","","22","","","","","","","","","","","","","","","","","","","","","","","","","","","","","","","","","","","","","","","","","","","","","","","","","","","","","","","","","","","","","","","","","","","","","","","","","","","","","","","","","","","","","","","","","","","SYN07601002 46/// /2210 11015 21046 30179 40191 57008 333 11015 21019 90710 91111=","","","","","","","","","",""
"01002099999","2024-03-05T22:00:00","80.05","16.25","8.0","VERLEGENHUKEN, NO","FM-12","4","","24","29","","","+0.03","7","81","","30.03","29.99","","27","200","","7","","","","","","","","","","","","","","","","","","","","","","","","","","","","","","","","","","","","","","","","","","","","","","","","","","","","","","","","","","","","","","","","","","","","","","","","","","","","","","","","","","","","","","","","","","","SYN07601002 46/// /2003 11015 21044 30157 40169 57011 333 11011 21015 90710 91106=","","","","","","","","","",""
"01002099999","2024-03-06T04:00:00","80.05","16.25","8.0","VERLEGENHUKEN, NO","FM-12","4","","26","28","","","+0.03","8","93","","29.96","29.92","","27","130","","7","","","","","","","","","","","","","","","","","","","","","","","","","","","","","","","","","","","","","","","","","","","","","","","","","","","","","","","","","","","","","","","","","","","","","","","","","","","","","","","","","","","","","","","","","","","SYN07601002 46/// /1303 11022 21032 30133 40145 58010 333 11022 21026 90710 91105=","","","","","","","","","",""
"01002099999","2024-03-06T10:00:00","80.05","16.25","8.0","VERLEGENHUKEN, NO","FM-12","4","","28","33","","","+0.01","7","82","","29.93","29.90","","31","260","","13","","","","","","","","","","","","","","","","","","","","","","","","","","","","","","","","","","","","","","","","","","","","","","","","","","","","","","","","","","","","","","","","","","","","","","","","","","","","","","","","","","","","","","","","","","","SYN07601002 46/// /2606 10007 21020 30124 40136 57004 333 10007 21020 90710 91107=","","","","","","","","","",""
"01002099999","2024-03-06T16:00:00","80.05","16.25","8.0","VERLEGENHUKEN, NO","FM-12","4","","20","22","","","-0.08","1","90","","30.00","29.96","","21","270","","34","","","","","","","","","","","","","","","","","","","","","","","","","","","","","","","","","","","","","","","","","","","","","","","","","","","","","","","","","","","","","","","","","","","","","","","","","","","","","","","","","","","","","","","","","","","SYN07601002 46/// /2715 11054 21068 30147 40159 51027 333 11046 21054 90710 91120=","","","","","","","","","",""
"01002099999","2024-03-06T22:00:00","80.05","16.25","8.0","VERLEGENHUKEN, NO","FM-12","4","","20","22","","","-0.12","1","94","","30.22","30.18","","21","290","","9","","","","","","","","","","","","","","","","","","","","","","","","","","","","","","","","","","","","","","","","","","","","","","","","","","","","","","","","","","","","","","","","","","","","","","","","","","","","","","","","","","","","","","","","","","","SYN07601002 46/// /2904 11058 21066 30220 40233 51042 333 11043 21059 90710 91105=","","","","","","","","","",""
"01002099999","2024-03-07T04:00:00","80.05","16.25","8.0","VERLEGENHUKEN, NO","FM-12","4","","20","21","","","+0.02","7","94","","30.26","30.22","","21","190","","2","","","","","","","","","","","","","","","","","","","","","","","","","","","","","","","","","","","","","","","","","","","","","","","","","","","","","","","","","","","","","","","","","","","","","","","","","","","","","","","","","","","","","","","","","","","SYN07601002 46/// /1901 11061 21069 30235 40248 57006 333 11061 21067 90710 91101=","","","","","","","","","",""
"01002099999","2024-03-07T10:00:00","80.05","16.25","8.0","VERLEGENHUKEN, NO","FM-12","4","","16","18","","","+0.03","7","91","","30.20","30.17","","17","140","","2","","","","","","","","","","","","","","","","","","","","","","","","","","","","","","","","","","","","","","","","","","","","","","","","","","","","","","","","","","","","","","","","","","","","","","","","","","","","","","","","","","","","","","","","","","","SYN07601002 46/// /1401 11078 21090 30216 40228 57009 333 11068 21084 90710 91101=","","","","","","","","","",""
"01002099999","2024-03-07T16:00:00","80.05","16.25","8.0","VERLEGENHUKEN, NO","FM-12","4","","19","23","","","+0.04","7","86","","30.11","30.07","","22","150","","4","","","","","","","","","","","","","","","","","","","","","","","","","","","","","","","","","","","","","","","","","","","","","","","","","","","","","","","","","","","","","","","","","","","","","","","","","","","","","","","","","","","","","","","","","","","SYN07601002 46/// /1502 11051 21071 30184 40196 57014 333 11050 21052 90710 91103=","","","","","","","","","",""
"01002099999","2024-03-08T04:00:00","80.05","16.25","8.0","VERLEGENHUKEN, NO","FM-12","4","","27","30","","","","","87","","30.09","30.05","","29","290","","25","","","","","","","","","","","","","","","","","","","","","","","","","","","","","","","","","","","","","","","","","","","","","","","","","","","","","","","","","","","","","","","","","","","","","","","","","","","","","","","","","","","","","","","","","","","SYN07601002 46/// /2911 11011 21030 30176 40188 54003 333 11007 21011 90710 91113=","","","","","","","","","",""
"01002099999","2024-03-08T16:00:00","80.05","16.25","8.0","VERLEGENHUKEN, NO","FM-12","4","","25","27","","","+0.01","7","94","","30.14","30.11","","26","150","","4","","","","","","","","","","","","","","","","","","","","","","","","","","","","","","","","","","","","","","","","","","","","","","","","","","","","","","","","","","","","","","","","","","","","","","","","","","","","","","","","","","","","","","","","","","","SYN07601002 46/// /1502 11028 21037 30196 40208 57005 333 11024 21029 90710 91103=","","","","","","","","","",""
"01002099999","2024-03-08T22:00:00","80.05","16.25","8.0","VERLEGENHUKEN, NO","FM-12","4","","20","24","","","+0.03","7","85","","30.09","30.06","","23","140","","9","","","","","","","","","","","","","","","","","","","","","","","","","","","","","","","","","","","","","","","","","","","","","","","","","","","","","","","","","","","","","","","","","","","","","","","","","","","","","","","","","","","","","","","","","","","SYN07601002 46/// /1404 11045 21067 30179 40191 57009 333 11041 21057 90710 91105=","","","","","","","","","",""
"01002099999","2024-03-09T04:00:00","80.05","16.25","8.0","VERLEGENHUKEN, NO","FM-12","4","","22","30","","","+0.09","7","73","","29.95","29.91","","27","200","","13","","","","","","","","","","","","","","","","","","","","","","","","","","","","","","","","","","","","","","","","","","","","","","","","","","","","","","","","","","","","","","","","","","","","","","","","","","","","","","","","","","","","","","","","","","","SYN07601002 46/// /2006 11013 21055 30130 40142 57031 333 11007 21029 90710 91109=","","","","","","","","","",""
"01002099999","2024-03-09T16:00:00","80.05","16.25","8.0","VERLEGENHUKEN, NO","FM-12","4","","23","27","","","0.01","9","83","","29.78","29.75","","26","280","","31","","","","","","","","","","","","","","","","","","","","","","","","","","","","","","","","","","","","","","","","","","","","","","","","","","","","","","","","","","","","","","","","","","","","","","","","","","","","","","","","","","","","","","","","","","","SYN07601002 46/// /2814 11025 21051 30073 40085 50002 333 11019 21025 90710 91116=","","","","","","","","","",""
"01002099999","2024-03-09T22:00:00","80.05","16.25","8.0","VERLEGENHUKEN, NO","FM-12","4","","11","13","","","-0.08","1","91","","29.87","29.83","","12","300","","29","","","","","","","","","","","","","","","","","","","","","","","","","","","","","","","","","","","","","","","","","","","","","","","","","","","","","","","","","","","","","","","","","","","","","","","","","","","","","","","","","","","","","","","","","","","SYN07601002 46/// /3013 11105 21117 30101 40114 51027 333 11092 21106 90710 91116=","","","","","","","","","",""
"01002099999","2024-03-10T00:00:00","80.05","16.25","8.0","VERLEGENHUKEN, NO","FM-12","4","","7","9","","","-0.12","3","89","","29.93","29.89","","9","308","33","23","","","","","","","","","","","","","","","","","","","","","","","","","","","","","","","","","","","","","","","","","","","","","","","","","","","","","","","","","","","","","","","","","","","","","","","","","","","","","","","","","","","","","","","","","","","SYN004BUFR","","","","","","","","","",""
"01002099999","2024-03-10T04:00:00","80.05","16.25","8.0","VERLEGENHUKEN, NO","FM-12","4","","2","5","","","-0.06","1","87","","30.01","29.97","","4","280","","20","","","","","","","","","","","","","","","","","","","","","","","","","","","","","","","","","","","","","","","","","","","","","","","","","","","","","","","","","","","","","","","","","","","","","","","","","","","","","","","","","","","","","","","","","","","SYN07601002 46/// /2809 11151 21168 30149 40161 51019 333 11149 21155 90710 91111=","","","","","","","","","",""
"01002099999","2024-03-10T10:00:00","80.05","16.25","8.0","VERLEGENHUKEN, NO","FM-12","4","","-1","3","","","-0.03","1","85","","30.10","30.06","","2","280","","13","","","","","","","","","","","","","","","","","","","","","","","","","","","","","","","","","","","","","","","","","","","","","","","","","","","","","","","","","","","","","","","","","","","","","","","","","","","","","","","","","","","","","","","","","","","SYN07601002 46/// /2806 11163 21183 30180 40193 51010 333 11161 21164 90710 91108=","","","","","","","","","",""
"01002099999","2024-03-10T16:00:00","80.05","16.25","8.0","VERLEGENHUKEN, NO","FM-12","4","","0","4","","","","","85","","30.14","30.10","","3","300","","11","","","","","","","","","","","","","","","","","","","","","","","","","","","","","","","","","","","","","","","","","","","","","","","","","","","","","","","","","","","","","","","","","","","","","","","","","","","","","","","","","","","","","","","","","","","SYN07601002 46/// /3005 11157 21176 30193 40206 54001 333 11154 21158 90710 91107=","","","","","","","","","",""
"01002099999","2024-03-10T22:00:00","80.05","16.25","8.0","VERLEGENHUKEN, NO","FM-12","4","","-3","0","","","+0.01","5","84","","30.11","30.08","","0","340","","9","","","","","","","","","","","","","","","","","","","","","","","","","","","","","","","","","","","","","","","","","","","","","","","","","","","","","","","","","","","","","","","","","","","","","","","","","","","","","","","","","","","","","","","","","","","SYN07601002 46/// /3404 11175 21196 30185 40197 55002 333 11174 21178 90710 91106=","","","","","","","","","",""
"01002099999","2024-03-11T04:00:00","80.05","16.25","8.0","VERLEGENHUKEN, NO","FM-12","4","","1","4","","","+0.04","6","86","","30.04","30.01","","3","030","","7","","","","","","","","","","","","","","","","","","","","","","","","","","","","","","","","","","","","","","","","","","","","","","","","","","","","","","","","","","","","","","","","","","","","","","","","","","","","","","","","","","","","","","","","","","","SYN07601002 46/// /0303 11153 21172 30162 40174 56012 333 11152 21154 90710 91105=","","","","","","","","","",""
"01002099999","2024-03-11T16:00:00","80.05","16.25","8.0","VERLEGENHUKEN, NO","FM-12","4","","-3","4","","","-0.04","1","73","","30.03","29.99","","3","030","","20","","","","","","","","","","","","","","","","","","","","","","","","","","","","","","","","","","","","","","","","","","","","","","","","","","","","","","","","","","","","","","","","","","","","","","","","","","","","","","","","","","","","","","","","","","","SYN07601002 46/// /0309 11155 21193 30156 40169 51013 333 11145 21157 90710 91112=","","","","","","","","","",""
"01002099999","2024-03-11T22:00:00","80.05","16.25","8.0","VERLEGENHUKEN, NO","FM-12","4","","-7","-1","","","-0.04","2","77","","30.10","30.06","","-2","350","","25","","","","","","","","","","","","","","","","","","","","","","","","","","","","","","","","","","","","","","","","","","","","","","","","","","","","","","","","","","","","","","","","","","","","","","","","","","","","","","","","","","","","","","","","","","","SYN07601002 46/// /3511 11184 21215 30181 40194 52015 333 11178 21184 90710 91114=","","","","","","","","","",""
"01002099999","2024-03-12T01:00:00","80.05","16.25","8.0","VERLEGENHUKEN, NO","FM-12","4","","-10","-4","","","-0.01","3","77","","30.12","30.08","","-5","321","33","27","","","","","","","","","","","","","","","","","","","","","","","","","","","","","","","","","","","","","","","","","","","","","","","","","","","","","","","","","","","","","","","","","","","","","","","","","","","","","","","","","","","","","","","","","","","SYN004BUFR","","","","","","","","","",""
"01002099999","2024-03-12T04:00:00","80.05","16.25","8.0","VERLEGENHUKEN, NO","FM-12","4","","-10","-4","","","-0.04","3","75","","30.16","30.12","","-5","340","","20","","","","","","","","","","","","","","","","","","","","","","","","","","","","","","","","","","","","","","","","","","","","","","","","","","","","","","","","","","","","","","","","","","","","","","","","","","","","","","","","","","","","","","","","","","","SYN07601002 46/// /3409 11198 21232 30199 40212 53013 333 11196 21202 90710 91112=","","","","","","","","","",""
"01002099999","2024-03-12T16:00:00","80.05","16.25","8.0","VERLEGENHUKEN, NO","FM-12","4","","5","9","","","+0.06","7","83","","29.94","29.90","","8","300","","31","","","","","","","","","","","","","","","","","","","","","","","","","","","","","","","","","","","","","","","","","","","","","","","","","","","","","","","","","","","","","","","","","","","","","","","","","","","","","","","","","","","","","","","","","","","SYN07601002 46/// /3014 11129 21152 30126 40138 57020 333 11114 21131 90710 91118=","","","","","","","","","",""
"01002099999","2024-03-13T04:00:00","80.05","16.25","8.0","VERLEGENHUKEN, NO","FM-12","4","","0","6","","","+0.01","7","77","","29.94","29.90","","5","020","","13","","","","","","","","","","","","","","","","","","","","","","","","","","","","","","","","","","","","","","","","","","","","","","","","","","","","","","","","","","","","","","","","","","","","","","","","","","","","","","","","","","","","","","","","","","","SYN07601002 46/// /0206 11147 21179 30125 40138 57005 333 11144 21149 90710 91107=","","","","","","","","","",""
"01002099999","2024-03-13T16:00:00","80.05","16.25","8.0","VERLEGENHUKEN, NO","FM-12","4","","-2","4","","","+0.03","7","76","","29.86","29.83","","3","080","","16","","","","","","","","","","","","","","","","","","","","","","","","","","","","","","","","","","","","","","","","","","","","","","","","","","","","","","","","","","","","","","","","","","","","","","","","","","","","","","","","","","","","","","","","","","","SYN07601002 46/// /0807 11155 21188 30101 40113 57009 333 11151 21156 90710 91108=","","","","","","","","","",""
"01002099999","2024-03-13T22:00:00","80.05","16.25","8.0","VERLEGENHUKEN, NO","FM-12","4","","-3","2","","","","","80","","29.84","29.81","","1","050","","18","","","","","","","","","","","","","","","","","","","","","","","","","","","","","","","","","","","","","","","","","","","","","","","","","","","","","","","","","","","","","","","","","","","","","","","","","","","","","","","","","","","","","","","","","","","SYN07601002 46/// /0508 11169 21195 30094 40106 54001 333 11166 21171 90710 91110=","","","","","","","","","",""
"01002099999","2024-03-14T04:00:00","80.05","16.25","8.0","VERLEGENHUKEN, NO","FM-12","4","","-6","-1","","","+0.03","7","80","","29.80","29.77","","-2","050","","13","","","","","","","","","","","","","","","","","","","","","","","","","","","","","","","","","","","","","","","","","","","","","","","","","","","","","","","","","","","","","","","","","","","","","","","","","","","","","","","","","","","","","","","","","","","SYN07601002 46/// /0506 11183 21210 30080 40093 57009 333 11179 21183 90710 91109=","","","","","","","","","",""
"01002099999","2024-03-14T10:00:00","80.05","16.25","8.0","VERLEGENHUKEN, NO","FM-12","4","","-10","-4","","","+0.02","7","75","","29.75","29.71","","-5","050","","16","","","","","","","","","","","","","","","","","","","","","","","","","","","","","","","","","","","","","","","","","","","","","","","","","","","","","","","","","","","","","","","","","","","","","","","","","","","","","","","","","","","","","","","","","","","SYN07601002 46/// /0507 11198 21232 30062 40075 57008 333 11195 21198 90710 91109=","","","","","","","","","",""
"01002099999","2024-03-14T16:00:00","80.05","16.25","8.0","VERLEGENHUKEN, NO","FM-12","4","","-12","-5","","","+0.02","7","74","","29.72","29.68","","-6","020","","18","","","","","","","","","","","","","","","","","","","","","","","","","","","","","","","","","","","","","","","","","","","","","","","","","","","","","","","","","","","","","","","","","","","","","","","","","","","","","","","","","","","","","","","","","","","SYN07601002 46/// /0208 11207 21242 30052 40065 57008 333 11201 21209 90710 91111=","","","","","","","","","",""
"01002099999","2024-03-14T22:00:00","80.05","16.25","8.0","VERLEGENHUKEN, NO","FM-12","4","","-16","-11","","","","","78","","29.70","29.66","","-12","360","","22","","","","","","","","","","","","","","","","","","","","","","","","","","","","","","","","","","","","","","","","","","","","","","","","","","","","","","","","","","","","","","","","","","","","","","","","","","","","","","","","","","","","","","","","","","","SYN07601002 46/// /3610 11238 21265 30043 40056 54001 333 11231 21241 90710 91111=","","","","","","","","","",""
"01002099999","2024-03-15T04:00:00","80.05","16.25","8.0","VERLEGENHUKEN, NO","FM-12","4","","-22","-15","","","+0.02","7","68","","29.68","29.64","","-16","310","","16","","","","","","","","","","","","","","","","","","","","","","","","","","","","","","","","","","","","","","","","","","","","","","","","","","","","","","","","","","","","","","","","","","","","","","","","","","","","","","","","","","","","","","","","","","","SYN07601002 46/// /3107 11261 21302 30037 40050 57007 333 11257 21263 90710 91109=","","","","","","","","","",""
"01002099999","2024-03-15T16:00:00","80.05","16.25","8.0","VERLEGENHUKEN, NO","FM-12","4","","-14","-8","","","","","75","","29.68","29.64","","-9","340","","18","","","","","","","","","","","","","","","","","","","","","","","","","","","","","","","","","","","","","","","","","","","","","","","","","","","","","","","","","","","","","","","","","","","","","","","","","","","","","","","","","","","","","","","","","","","SYN07601002 46/// /3408 11220 21253 30037 40050 54001 333 11218 21223 90710 91110=","","","","","","","","","",""
"01002099999","2024-03-15T22:00:00","80.05","16.25","8.0","VERLEGENHUKEN, NO","FM-12","4","","-15","-10","","","-0.02","2","77","","29.69","29.65","","-11","330","","22","","","","","","","","","","","","","","","","","","","","","","","","","","","","","","","","","","","","","","","","","","","","","","","","","","","","","","","","","","","","","","","","","","","","","","","","","","","","","","","","","","","","","","","","","","","SYN07601002 46/// /3310 11231 21260 30042 40055 52006 333 11224 21233 90710 91113=","","","","","","","","","",""
"01002099999","2024-03-16T04:00:00","80.05","16.25","8.0","VERLEGENHUKEN, NO","FM-12","4","","-18","-12","","","-0.01","2","74","","29.72","29.68","","-13","320","","16","","","","","","","","","","","","","","","","","","","","","","","","","","","","","","","","","","","","","","","","","","","","","","","","","","","","","","","","","","","","","","","","","","","","","","","","","","","","","","","","","","","","","","","","","","","SYN07601002 46/// /3207 11243 21277 30052 40065 52003 333 11243 21246 90710 91110=","","","","","","","","","",""
"01002099999","2024-03-16T10:00:00","80.05","16.25","8.0","VERLEGENHUKEN, NO","FM-12","4","","-19","-13","","","-0.04","3","75","","29.77","29.73","","-14","280","","20","","","","","","","","","","","","","","","","","","","","","","","","","","","","","","","","","","","","","","","","","","","","","","","","","","","","","","","","","","","","","","","","","","","","","","","","","","","","","","","","","","","","","","","","","","","SYN07601002 46/// /2809 11252 21284 30068 40081 53014 333 11251 21255 90710 91111=","","","","","","","","","",""
"01002099999","2024-03-16T16:00:00","80.05","16.25","8.0","VERLEGENHUKEN, NO","FM-12","4","","-13","-8","","","-0.02","2","78","","29.83","29.79","","-9","280","","22","","","","","","","","","","","","","","","","","","","","","","","","","","","","","","","","","","","","","","","","","","","","","","","","","","","","","","","","","","","","","","","","","","","","","","","","","","","","","","","","","","","","","","","","","","","SYN07601002 46/// /2810 11223 21251 30088 40101 52007 333 11221 21228 90710 91112=","","","","","","","","","",""
"01002099999","2024-03-16T22:00:00","80.05","16.25","8.0","VERLEGENHUKEN, NO","FM-12","4","","-16","-11","","","-0.03","2","76","","29.89","29.85","","-11","310","","20","","","","","","","","","","","","","","","","","","","","","","","","","","","","","","","","","","","","","","","","","","","","","","","","","","","","","","","","","","","","","","","","","","","","","","","","","","","","","","","","","","","","","","","","","","","SYN07601002 46/// /3109 11238 21268 30108 40121 52009 333 11235 21239 90710 91111=","","","","","","","","","",""
"01002099999","2024-03-17T04:00:00","80.05","16.25","8.0","VERLEGENHUKEN, NO","FM-12","4","","-20","-15","","","-0.03","2","77","","29.95","29.91","","-15","270","","20","","","","","","","","","","","","","","","","","","","","","","","","","","","","","","","","","","","","","","","","","","","","","","","","","","","","","","","","","","","","","","","","","","","","","","","","","","","","","","","","","","","","","","","","","","","SYN07601002 46/// /2709 11261 21290 30128 40141 52010 333 11257 21261 90710 91111=","","","","","","","","","",""
"01002099999","2024-03-17T10:00:00","80.05","16.25","8.0","VERLEGENHUKEN, NO","FM-12","4","","-20","-15","","","-0.04","1","77","","30.02","29.98","","-15","280","","20","","","","","","","","","","","","","","","","","","","","","","","","","","","","","","","","","","","","","","","","","","","","","","","","","","","","","","","","","","","","","","","","","","","","","","","","","","","","","","","","","","","","","","","","","","","SYN07601002 46/// /2809 11260 21289 30152 40165 51013 333 11258 21268 90710 91113=","","","","","","","","","",""
"01002099999","2024-03-17T16:00:00","80.05","16.25","8.0","VERLEGENHUKEN, NO","FM-12","4","","-22","-16","","","+0.01","5","74","","30.06","30.02","","-16","260","","22","","","","","","","","","","","","","","","","","","","","","","","","","","","","","","","","","","","","","","","","","","","","","","","","","","","","","","","","","","","","","","","","","","","","","","","","","","","","","","","","","","","","","","","","","","","SYN07601002 46/// /2610 11265 21298 30167 40180 55003 333 11264 21268 90710 91112=","","","","","","","","","",""
"01002099999","2024-03-17T22:00:00","80.05","16.25","8.0","VERLEGENHUKEN, NO","FM-12","4","","-20","-14","","","-0.01","2","75","","30.07","30.03","","-15","260","","25","","","","","","","","","","","","","","","","","","","","","","","","","","","","","","","","","","","","","","","","","","","","","","","","","","","","","","","","","","","","","","","","","","","","","","","","","","","","","","","","","","","","","","","","","","","SYN07601002 46/// /2611 11257 21289 30170 40183 52003 333 11256 21259 90710 91113=","","","","","","","","","",""
"01002099999","2024-03-18T04:00:00","80.05","16.25","8.0","VERLEGENHUKEN, NO","FM-12","4","","-20","-14","","","-0.01","2","71","","30.09","30.05","","-15","260","","16","","","","","","","","","","","","","","","","","","","","","","","","","","","","","","","","","","","","","","","","","","","","","","","","","","","","","","","","","","","","","","","","","","","","","","","","","","","","","","","","","","","","","","","","","","","SYN07601002 46/// /2607 11253 21291 30176 40189 52003 333 11253 21256 90710 91109=","","","","","","","","","",""
"01002099999","2024-03-18T16:00:00","80.05","16.25","8.0","VERLEGENHUKEN, NO","FM-12","4","","-17","-12","","","-0.02","2","77","","30.15","30.11","","-12","220","","16","","","","","","","","","","","","","","","","","","","","","","","","","","","","","","","","","","","","","","","","","","","","","","","","","","","","","","","","","","","","","","","","","","","","","","","","","","","","","","","","","","","","","","","","","","","SYN07601002 46/// /2207 11244 21273 30197 40210 52006 333 11239 21245 90710 91108=","","","","","","","","","",""
"01002099999","2024-03-18T22:00:00","80.05","16.25","8.0","VERLEGENHUKEN, NO","FM-12","4","","-18","-13","","","-0.03","1","78","","30.22","30.18","","-13","220","","13","","","","","","","","","","","","","","","","","","","","","","","","","","","","","","","","","","","","","","","","","","","","","","","","","","","","","","","","","","","","","","","","","","","","","","","","","","","","","","","","","","","","","","","","","","","SYN07601002 46/// /2206 11252 21280 30219 40232 51011 333 11246 21252 90710 91107=","","","","","","","","","",""
"01002099999","2024-03-19T04:00:00","80.05","16.25","8.0","VERLEGENHUKEN, NO","FM-12","4","","-16","-11","","","-0.02","2","79","","30.26","30.22","","-11","260","","16","","","","","","","","","","","","","","","","","","","","","","","","","","","","","","","","","","","","","","","","","","","","","","","","","","","","","","","","","","","","","","","","","","","","","","","","","","","","","","","","","","","","","","","","","","","SYN07601002 46/// /2607 11241 21267 30233 40246 52007 333 11239 21241 90710 91108=","","","","","","","","","",""
"01002099999","2024-03-19T10:00:00","80.05","16.25","8.0","VERLEGENHUKEN, NO","FM-12","4","","-15","-10","","","-0.02","2","78","","30.27","30.23","","-11","250","","18","","","","","","","","","","","","","","","","","","","","","","","","","","","","","","","","","","","","","","","","","","","","","","","","","","","","","","","","","","","","","","","","","","","","","","","","","","","","","","","","","","","","","","","","","","","SYN07601002 46/// /2508 11232 21260 30238 40251 52006 333 11232 21233 90710 91109=","","","","","","","","","",""
"01002099999","2024-03-19T16:00:00","80.05","16.25","8.0","VERLEGENHUKEN, NO","FM-12","4","","-14","-9","","","","","79","","30.26","30.22","","-10","260","","18","","","","","","","","","","","","","","","","","","","","","","","","","","","","","","","","","","","","","","","","","","","","","","","","","","","","","","","","","","","","","","","","","","","","","","","","","","","","","","","","","","","","","","","","","","","SYN07601002 46/// /2608 11227 21253 30234 40247 54001 333 11225 21227 90710 91110=","","","","","","","","","",""
"01002099999","2024-03-19T22:00:00","80.05","16.25","8.0","VERLEGENHUKEN, NO","FM-12","4","","-17","-12","","","","","78","","30.26","30.22","","-12","240","","16","","","","","","","","","","","","","","","","","","","","","","","","","","","","","","","","","","","","","","","","","","","","","","","","","","","","","","","","","","","","","","","","","","","","","","","","","","","","","","","","","","","","","","","","","","","SYN07601002 46/// /2407 11245 21272 30233 40246 54001 333 11242 21245 90710 91108=","","","","","","","","","",""
"01002099999","2024-03-20T04:00:00","80.05","16.25","8.0","VERLEGENHUKEN, NO","FM-12","4","","-21","-16","","","+0.01","5","77","","30.24","30.20","","-16","230","","9","","","","","","","","","","","","","","","","","","","","","","","","","","","","","","","","","","","","","","","","","","","","","","","","","","","","","","","","","","","","","","","","","","","","","","","","","","","","","","","","","","","","","","","","","","","SYN07601002 46/// /2304 11264 21292 30228 40241 55002 333 11246 21264 90710 91106=","","","","","","","","","",""
"01002099999","2024-03-20T16:00:00","80.05","16.25","8.0","VERLEGENHUKEN, NO","FM-12","4","","-18","-13","","","","","78","","30.25","30.22","","-13","230","","7","","","","","","","","","","","","","","","","","","","","","","","","","","","","","","","","","","","","","","","","","","","","","","","","","","","","","","","","","","","","","","","","","","","","","","","","","","","","","","","","","","","","","","","","","","","SYN07601002 46/// /2303 11250 21278 30232 40245 54002 333 11250 21257 90710 91104=","","","","","","","","","",""
"01002099999","2024-03-20T22:00:00","80.05","16.25","8.0","VERLEGENHUKEN, NO","FM-12","4","","-17","-12","","","-0.02","2","78","","30.27","30.23","","-12","230","","2","","","","","","","","","","","","","","","","","","","","","","","","","","","","","","","","","","","","","","","","","","","","","","","","","","","","","","","","","","","","","","","","","","","","","","","","","","","","","","","","","","","","","","","","","","","SYN07601002 46/// /2301 11245 21272 30236 40249 52006 333 11245 21247 90710 91102=","","","","","","","","","",""
"01002099999","2024-03-21T04:00:00","80.05","16.25","8.0","VERLEGENHUKEN, NO","FM-12","4","","-16","-11","","","","","78","","30.26","30.22","","-11","130","","2","","","","","","","","","","","","","","","","","","","","","","","","","","","","","","","","","","","","","","","","","","","","","","","","","","","","","","","","","","","","","","","","","","","","","","","","","","","","","","","","","","","","","","","","","","","SYN07601002 46/// /1301 11240 21267 30233 40246 54001 333 11227 21241 90710 91104=","","","","","","","","","",""
"01002099999","2024-03-21T16:00:00","80.05","16.25","8.0","VERLEGENHUKEN, NO","FM-12","4","","-12","-7","","","0.00","4","80","","30.26","30.22","","-8","050","","11","","","","","","","","","","","","","","","","","","","","","","","","","","","","","","","","","","","","","","","","","","","","","","","","","","","","","","","","","","","","","","","","","","","","","","","","","","","","","","","","","","","","","","","","","","","SYN07601002 46/// /0505 11218 21243 30234 40247 54000 333 11217 21235 90710 91105=","","","","","","","","","",""
"01002099999","2024-03-21T22:00:00","80.05","16.25","8.0","VERLEGENHUKEN, NO","FM-12","4","","-13","-9","","","+0.02","8","80","","30.23","30.19","","-9","140","","7","","","","","","","","","","","","","","","","","","","","","","","","","","","","","","","","","","","","","","","","","","","","","","","","","","","","","","","","","","","","","","","","","","","","","","","","","","","","","","","","","","","","","","","","","","","SYN07601002 46/// /1403 11226 21251 30224 40237 58006 333 11226 21235 90710 91103=","","","","","","","","","",""
"01002099999","2024-03-22T04:00:00","80.05","16.25","8.0","VERLEGENHUKEN, NO","FM-12","4","","-10","-5","","","+0.02","7","81","","30.20","30.16","","-6","070","","9","","","","","","","","","","","","","","","","","","","","","","","","","","","","","","","","","","","","","","","","","","","","","","","","","","","","","","","","","","","","","","","","","","","","","","","","","","","","","","","","","","","","","","","","","","","SYN07601002 46/// /0704 11207 21231 30215 40228 57008 333 11205 21209 90710 91105=","","","","","","","","","",""
"01002099999","2024-03-22T10:00:00","80.05","16.25","8.0","VERLEGENHUKEN, NO","FM-12","4","","-10","-6","","","-0.01","1","80","","30.21","30.17","","-6","040","","9","","","","","","","","","","","","","","","","","","","","","","","","","","","","","","","","","","","","","","","","","","","","","","","","","","","","","","","","","","","","","","","","","","","","","","","","","","","","","","","","","","","","","","","","","","","SYN07601002 46/// /0404 11210 21235 30216 40229 51005 333 11200 21210 90710 91105=","","","","","","","","","",""
"01002099999","2024-03-22T16:00:00","80.05","16.25","8.0","VERLEGENHUKEN, NO","FM-12","4","","-11","-7","","","0.00","4","80","","30.23","30.19","","-7","040","","9","","","","","","","","","","","","","","","","","","","","","","","","","","","","","","","","","","","","","","","","","","","","","","","","","","","","","","","","","","","","","","","","","","","","","","","","","","","","","","","","","","","","","","","","","","","SYN07601002 46/// /0404 11215 21240 30223 40236 54000 333 11212 21217 90710 91105=","","","","","","","","","",""
"01002099999","2024-03-22T22:00:00","80.05","16.25","8.0","VERLEGENHUKEN, NO","FM-12","4","","-15","-10","","","-0.03","2","79","","30.27","30.23","","-11","030","","9","","","","","","","","","","","","","","","","","","","","","","","","","","","","","","","","","","","","","","","","","","","","","","","","","","","","","","","","","","","","","","","","","","","","","","","","","","","","","","","","","","","","","","","","","","","SYN07601002 46/// /0304 11236 21262 30238 40251 52009 333 11234 21236 90710 91104=","","","","","","","","","",""
"01002099999","2024-03-23T04:00:00","80.05","16.25","8.0","VERLEGENHUKEN, NO","FM-12","4","","-14","-9","","","","","79","","30.29","30.26","","-10","320","","4","","","","","","","","","","","","","","","","","","","","","","","","","","","","","","","","","","","","","","","","","","","","","","","","","","","","","","","","","","","","","","","","","","","","","","","","","","","","","","","","","","","","","","","","","","","SYN07601002 46/// /3202 11230 21256 30246 40259 54002 333 11228 21230 90710 91103=","","","","","","","","","",""
"01002099999","2024-03-23T10:00:00","80.05","16.25","8.0","VERLEGENHUKEN, NO","FM-12","4","","-11","-6","","","+0.03","7","80","","30.24","30.21","","-7","250","","16","","","","","","","","","","","","","","","","","","","","","","","","","","","","","","","","","","","","","","","","","","","","","","","","","","","","","","","","","","","","","","","","","","","","","","","","","","","","","","","","","","","","","","","","","","","SYN07601002 46/// /2507 11213 21238 30229 40242 57009 333 11213 21219 90710 91108=","","","","","","","","","",""
"01002099999","2024-03-23T16:00:00","80.05","16.25","8.0","VERLEGENHUKEN, NO","FM-12","4","","-15","-10","","","+0.03","7","79","","30.19","30.15","","-11","270","","20","","","","","","","","","","","","","","","","","","","","","","","","","","","","","","","","","","","","","","","","","","","","","","","","","","","","","","","","","","","","","","","","","","","","","","","","","","","","","","","","","","","","","","","","","","","SYN07601002 46/// /2709 11235 21261 30210 40223 57010 333 11231 21236 90710 91110=","","","","","","","","","",""
"01002099999","2024-03-23T22:00:00","80.05","16.25","8.0","VERLEGENHUKEN, NO","FM-12","4","","-14","-9","","","+0.01","7","80","","30.15","30.11","","-10","260","","16","","","","","","","","","","","","","","","","","","","","","","","","","","","","","","","","","","","","","","","","","","","","","","","","","","","","","","","","","","","","","","","","","","","","","","","","","","","","","","","","","","","","","","","","","","","SYN07601002 46/// /2607 11228 21253 30196 40209 57004 333 11228 21230 90710 91109=","","","","","","","","","",""
"01002099999","2024-03-24T16:00:00","80.05","16.25","8.0","VERLEGENHUKEN, NO","FM-12","4","","-10","-5","","","0.00","4","80","","30.15","30.11","","-6","260","","16","","","","","","","","","","","","","","","","","","","","","","","","","","","","","","","","","","","","","","","","","","","","","","","","","","","","","","","","","","","","","","","","","","","","","","","","","","","","","","","","","","","","","","","","","","","SYN07601002 46/// /2607 11207 21232 30197 40210 54000 333 11206 21209 90710 91108=","","","","","","","","","",""
"01002099999","2024-03-24T22:00:00","80.05","16.25","8.0","VERLEGENHUKEN, NO","FM-12","4","","-12","-8","","","-0.01","2","81","","30.18","30.14","","-8","250","","11","","","","","","","","","","","","","","","","","","","","","","","","","","","","","","","","","","","","","","","","","","","","","","","","","","","","","","","","","","","","","","","","","","","","","","","","","","","","","","","","","","","","","","","","","","","SYN07601002 46/// /2505 11221 21245 30206 40219 52004 333 11220 21222 90710 91106=","","","","","","","","","",""
"01002099999","2024-03-25T04:00:00","80.05","16.25","8.0","VERLEGENHUKEN, NO","FM-12","4","","-10","-6","","","-0.01","2","80","","30.18","30.14","","-6","270","","13","","","","","","","","","","","","","","","","","","","","","","","","","","","","","","","","","","","","","","","","","","","","","","","","","","","","","","","","","","","","","","","","","","","","","","","","","","","","","","","","","","","","","","","","","","","SYN07601002 46/// /2706 11209 21234 30208 40221 52004 333 11207 21209 90710 91107=","","","","","","","","","",""
"01002099999","2024-03-25T10:00:00","80.05","16.25","8.0","VERLEGENHUKEN, NO","FM-12","4","","-15","-10","","","-0.03","2","79","","30.23","30.19","","-11","300","","9","","","","","","","","","","","","","","","","","","","","","","","","","","","","","","","","","","","","","","","","","","","","","","","","","","","","","","","","","","","","","","","","","","","","","","","","","","","","","","","","","","","","","","","","","","","SYN07601002 46/// /3004 11233 21259 30222 40236 52010 333 11228 21235 90710 91105=","","","","","","","","","",""
"01002099999","2024-03-25T16:00:00","80.05","16.25","8.0","VERLEGENHUKEN, NO","FM-12","4","","-15","-10","","","+0.02","7","78","","30.21","30.17","","-11","290","","9","","","","","","","","","","","","","","","","","","","","","","","","","","","","","","","","","","","","","","","","","","","","","","","","","","","","","","","","","","","","","","","","","","","","","","","","","","","","","","","","","","","","","","","","","","","SYN07601002 46/// /2904 11231 21259 30217 40230 57006 333 11228 21234 90710 91104=","","","","","","","","","",""
"01002099999","2024-03-25T23:00:00","80.05","16.25","8.0","VERLEGENHUKEN, NO","FM-12","4","","-17","-12","","","+0.04","7","80","","30.14","30.10","","-12","237","","5","","","","","","","","","","","","","","","","","","","","","","","","","","","","","","","","","","","","","","","","","","","","","","","","","","","","","","","","","","","","","","","","","","","","","","","","","","","","","","","","","","","","","","","","","","","SYN004BUFR","","","","","","","","","",""
"01002099999","2024-03-26T04:00:00","80.05","16.25","8.0","VERLEGENHUKEN, NO","FM-12","4","","-11","-7","","","+0.04","7","81","","30.07","30.03","","-7","000","","0","","","","","","","","","","","","","","","","","","","","","","","","","","","","","","","","","","","","","","","","","","","","","","","","","","","","","","","","","","","","","","","","","","","","","","","","","","","","","","","","","","","","","","","","","","","SYN07601002 46/// /3500 11217 21241 30170 40183 57014 333 11217 21231 90710 91102=","","","","","","","","","",""
"01002099999","2024-03-26T10:00:00","80.05","16.25","8.0","VERLEGENHUKEN, NO","FM-12","4","","-9","-4","","","+0.03","7","80","","30.01","29.97","","-5","140","","11","","","","","","","","","","","","","","","","","","","","","","","","","","","","","","","","","","","","","","","","","","","","","","","","","","","","","","","","","","","","","","","","","","","","","","","","","","","","","","","","","","","","","","","","","","","SYN07601002 46/// /1405 11199 21225 30148 40161 57009 333 11198 21212 90710 91106=","","","","","","","","","",""
"01002099999","2024-03-27T04:00:00","80.05","16.25","8.0","VERLEGENHUKEN, NO","FM-12","4","","10","14","","","+0.04","7","82","","29.79","29.76","","13","020","","11","","","","","","","","","","","","","","","","","","","","","","","","","","","","","","","","","","","","","","","","","","","","","","","","","","","","","","","","","","","","","","","","","","","","","","","","","","","","","","","","","","","","","","","","","","","SYN07601002 46/// /0205 11098 21123 30077 40089 57013 333 11098 21108 90710 91105=","","","","","","","","","",""
"01002099999","2024-03-27T16:00:00","80.05","16.25","8.0","VERLEGENHUKEN, NO","FM-12","4","","-7","-3","","","-0.02","2","82","","29.81","29.78","","-4","020","","13","","","","","","","","","","","","","","","","","","","","","","","","","","","","","","","","","","","","","","","","","","","","","","","","","","","","","","","","","","","","","","","","","","","","","","","","","","","","","","","","","","","","","","","","","","","SYN07601002 46/// /0206 11195 21218 30084 40096 52008 333 11180 21197 90710 91109=","","","","","","","","","",""
"01002099999","2024-04-01T22:00:00","80.05","16.25","8.0","VERLEGENHUKEN, NO","FM-12","4","","-14","-10","","","+0.03","6","80","","30.33","30.29","","-10","250","","16","","","","","","","","","","","","","","","","","","","","","","","","","","","","","","","","","","","","","","","","","","","","","","","","","","","","","","","","","","","","","","","","","","","","","","","","","","","","","","","","","","","","","","","","","","","SYN07601002 46/// /2507 11233 21258 30259 40272 56009 333 11232 21234 90710 91109=","","","","","","","","","",""
"01002099999","2024-04-02T04:00:00","80.05","16.25","8.0","VERLEGENHUKEN, NO","FM-12","4","","-18","-14","","","+0.01","7","79","","30.32","30.28","","-14","280","","2","","","","","","","","","","","","","","","","","","","","","","","","","","","","","","","","","","","","","","","","","","","","","","","","","","","","","","","","","","","","","","","","","","","","","","","","","","","","","","","","","","","","","","","","","","","SYN07601002 46/// /2801 11254 21280 30253 40267 57005 333 11254 21261 90710 91102=","","","","","","","","","",""
"01002099999","2024-04-02T22:00:00","80.05","16.25","8.0","VERLEGENHUKEN, NO","FM-12","4","","-11","-6","","","+0.03","7","80","","30.19","30.15","","-7","128","","10","","","","","","","","","","","","","","","","","","","","","","","","","","","","","","","","","","","","","","","","","","","","","","","","","","","","","","","","","","","","","","","","","","","","","","","","","","","","","","","","","","","","","","","","","","","SYN004BUFR","","","","","","","","","",""
"01002099999","2024-04-03T00:00:00","80.05","16.25","8.0","VERLEGENHUKEN, NO","FM-12","4","","-14","-9","","","+0.02","7","80","","30.18","30.14","","-10","169","","1","","","","","","","","","","","","","","","","","","","","","","","","","","","","","","","","","","","","","","","","","","","","","","","","","","","","","","","","","","","","","","","","","","","","","","","","","","","","","","","","","","","","","","","","","","","SYN004BUFR","","","","","","","","","",""
"01002099999","2024-04-03T04:00:00","80.05","16.25","8.0","VERLEGENHUKEN, NO","FM-12","4","","-5","1","","","+0.01","7","78","","30.16","30.12","","0","150","","9","","","","","","","","","","","","","","","","","","","","","","","","","","","","","","","","","","","","","","","","","","","","","","","","","","","","","","","","","","","","","","","","","","","","","","","","","","","","","","","","","","","","","","","","","","","SYN07601002 46/// /1504 11173 21203 30199 40212 57005 333 11173 21194 90710 91104=","","","","","","","","","",""
"01002099999","2024-04-03T10:00:00","80.05","16.25","8.0","VERLEGENHUKEN, NO","FM-12","4","","1","7","","","+0.02","8","75","","30.11","30.07","","6","000","","0","","","","","","","","","","","","","","","","","","","","","","","","","","","","","","","","","","","","","","","","","","","","","","","","","","","","","","","","","","","","","","","","","","","","","","","","","","","","","","","","","","","","","","","","","","","SYN07601002 46/// /0000 11138 21173 30184 40197 58006 333 11138 21153 90710 91101=","","","","","","","","","",""
"01002099999","2024-04-03T16:00:00","80.05","16.25","8.0","VERLEGENHUKEN, NO","FM-12","4","","6","13","","","+0.04","7","74","","30.04","30.01","","11","230","","9","","","","","","","","","","","","","","","","","","","","","","","","","","","","","","","","","","","","","","","","","","","","","","","","","","","","","","","","","","","","","","","","","","","","","","","","","","","","","","","","","","","","","","","","","","","SYN07601002 46/// /2304 11106 21144 30161 40173 57012 333 11106 21112 90710 91105=","","","","","","","","","",""
"01002099999","2024-04-03T22:00:00","80.05","16.25","8.0","VERLEGENHUKEN, NO","FM-12","4","","9","14","","","+0.01","7","78","","30.01","29.98","","13","200","","9","","","","","","","","","","","","","","","","","","","","","","","","","","","","","","","","","","","","","","","","","","","","","","","","","","","","","","","","","","","","","","","","","","","","","","","","","","","","","","","","","","","","","","","","","","","SYN07601002 46/// /2004 11099 21130 30151 40163 57005 333 11096 21104 90710 91105=","","","","","","","","","",""
"01002099999","2024-04-04T01:00:00","80.05","16.25","8.0","VERLEGENHUKEN, NO","FM-12","4","","11","14","","","+0.04","6","88","","29.98","29.94","","13","212","17","10","","","","","","","","","","","","","","","","","","","","","","","","","","","","","","","","","","","","","","","","","","","","","","","","","","","","","","","","","","","","","","","","","","","","","","","","","","","","","","","","","","","","","","","","","","","SYN004BUFR","","","","","","","","","",""
"01002099999","2024-04-04T04:00:00","80.05","16.25","8.0","VERLEGENHUKEN, NO","FM-12","4","","9","11","","","+0.03","7","89","","29.95","29.91","","11","110","","7","","","","","","","","","","","","","","","","","","","","","","","","","","","","","","","","","","","","","","","","","","","","","","","","","","","","","","","","","","","","","","","","","","","","","","","","","","","","","","","","","","","","","","","","","","","SYN07601002 46/// /1103 11115 21130 30130 40142 57009 333 11113 21117 90710 91103=","","","","","","","","","",""
"01002099999","2024-04-04T10:00:00","80.05","16.25","8.0","VERLEGENHUKEN, NO","FM-12","4","","-6","-1","","","-0.04","1","80","","29.98","29.94","","-2","010","","16","","","","","","","","","","","","","","","","","","","","","","","","","","","","","","","","","","","","","","","","","","","","","","","","","","","","","","","","","","","","","","","","","","","","","","","","","","","","","","","","","","","","","","","","","","","SYN07601002 46/// /0107 11185 21211 30138 40151 51013 333 11175 21185 90710 91109=","","","","","","","","","",""
"01002099999","2024-04-04T16:00:00","80.05","16.25","8.0","VERLEGENHUKEN, NO","FM-12","4","","-11","-6","","","-0.01","2","79","","30.03","29.99","","-7","310","","7","","","","","","","","","","","","","","","","","","","","","","","","","","","","","","","","","","","","","","","","","","","","","","","","","","","","","","","","","","","","","","","","","","","","","","","","","","","","","","","","","","","","","","","","","","","SYN07601002 46/// /3103 11212 21239 30157 40170 52003 333 11204 21212 90710 91105=","","","","","","","","","",""
"01002099999","2024-04-04T22:00:00","80.05","16.25","8.0","VERLEGENHUKEN, NO","FM-12","4","","-24","-19","","","+0.02","7","81","","29.99","29.95","","-19","230","","11","","","","","","","","","","","","","","","","","","","","","","","","","","","","","","","","","","","","","","","","","","","","","","","","","","","","","","","","","","","","","","","","","","","","","","","","","","","","","","","","","","","","","","","","","","","SYN07601002 46/// /2305 11286 21309 30143 40156 57008 333 11260 21291 90710 91105=","","","","","","","","","",""
"01002099999","2024-04-05T04:00:00","80.05","16.25","8.0","VERLEGENHUKEN, NO","FM-12","4","","-16","-11","","","+0.01","8","78","","29.94","29.90","","-11","300","","11","","","","","","","","","","","","","","","","","","","","","","","","","","","","","","","","","","","","","","","","","","","","","","","","","","","","","","","","","","","","","","","","","","","","","","","","","","","","","","","","","","","","","","","","","","","SYN07601002 46/// /3005 11239 21266 30125 40138 58005 333 11218 21239 90710 91107=","","","","","","","","","",""
"01002099999","2024-04-05T16:00:00","80.05","16.25","8.0","VERLEGENHUKEN, NO","FM-12","4","","-23","-17","","","-0.01","2","74","","29.99","29.95","","-17","260","","9","","","","","","","","","","","","","","","","","","","","","","","","","","","","","","","","","","","","","","","","","","","","","","","","","","","","","","","","","","","","","","","","","","","","","","","","","","","","","","","","","","","","","","","","","","","SYN07601002 46/// /2604 11274 21306 30142 40155 52005 333 11271 21274 90710 91105=","","","","","","","","","",""
"01002099999","2024-04-05T22:00:00","80.05","16.25","8.0","VERLEGENHUKEN, NO","FM-12","4","","-30","-24","","","","","74","","30.00","29.96","","-24","240","","9","","","","","","","","","","","","","","","","","","","","","","","","","","","","","","","","","","","","","","","","","","","","","","","","","","","","","","","","","","","","","","","","","","","","","","","","","","","","","","","","","","","","","","","","","","","SYN07601002 46/// /2404 11312 21343 30145 40158 54002 333 11293 21312 90710 91105=","","","","","","","","","",""
"01002099999","2024-04-06T04:00:00","80.05","16.25","8.0","VERLEGENHUKEN, NO","FM-12","4","","-25","-20","","","","","75","","29.99","29.95","","-20","260","","11","","","","","","","","","","","","","","","","","","","","","","","","","","","","","","","","","","","","","","","","","","","","","","","","","","","","","","","","","","","","","","","","","","","","","","","","","","","","","","","","","","","","","","","","","","","SYN07601002 46/// /2605 11288 21318 30143 40157 54002 333 11280 21288 90710 91106=","","","","","","","","","",""
"01002099999","2024-04-06T10:00:00","80.05","16.25","8.0","VERLEGENHUKEN, NO","FM-12","4","","-25","-19","","","-0.01","2","74","","30.00","29.96","","-19","240","","13","","","","","","","","","","","","","","","","","","","","","","","","","","","","","","","","","","","","","","","","","","","","","","","","","","","","","","","","","","","","","","","","","","","","","","","","","","","","","","","","","","","","","","","","","","","SYN07601002 46/// /2406 11282 21314 30145 40158 52003 333 11282 21290 90710 91107=","","","","","","","","","",""
"01002099999","2024-04-06T16:00:00","80.05","16.25","8.0","VERLEGENHUKEN, NO","FM-12","4","","-20","-15","","","-0.01","2","75","","30.01","29.97","","-15","250","","16","","","","","","","","","","","","","","","","","","","","","","","","","","","","","","","","","","","","","","","","","","","","","","","","","","","","","","","","","","","","","","","","","","","","","","","","","","","","","","","","","","","","","","","","","","","SYN07601002 46/// /2507 11259 21290 30149 40162 52005 333 11258 21263 90710 91108=","","","","","","","","","",""
"01002099999","2024-04-06T22:00:00","80.05","16.25","8.0","VERLEGENHUKEN, NO","FM-12","4","","-20","-15","","","","","77","","30.01","29.97","","-15","280","","7","","","","","","","","","","","","","","","","","","","","","","","","","","","","","","","","","","","","","","","","","","","","","","","","","","","","","","","","","","","","","","","","","","","","","","","","","","","","","","","","","","","","","","","","","","","SYN07601002 46/// /2803 11259 21287 30150 40163 54002 333 11258 21260 90710 91105=","","","","","","","","","",""
"01002099999","2024-04-07T04:00:00","80.05","16.25","8.0","VERLEGENHUKEN, NO","FM-12","4","","-22","-16","","","","","76","","30.00","29.96","","-16","050","","4","","","","","","","","","","","","","","","","","","","","","","","","","","","","","","","","","","","","","","","","","","","","","","","","","","","","","","","","","","","","","","","","","","","","","","","","","","","","","","","","","","","","","","","","","","","SYN07601002 46/// /0502 11269 21298 30145 40158 54003 333 11267 21269 90710 91102=","","","","","","","","","",""
"01002099999","2024-04-07T10:00:00","80.05","16.25","8.0","VERLEGENHUKEN, NO","FM-12","4","","-19","-14","","","+0.01","7","75","","29.96","29.93","","-14","060","","4","","","","","","","","","","","","","","","","","","","","","","","","","","","","","","","","","","","","","","","","","","","","","","","","","","","","","","","","","","","","","","","","","","","","","","","","","","","","","","","","","","","","","","","","","","","SYN07601002 46/// /0602 11253 21284 30134 40147 57003 333 11253 21258 90710 91104=","","","","","","","","","",""
"01002099999","2024-04-07T16:00:00","80.05","16.25","8.0","VERLEGENHUKEN, NO","FM-12","4","","-17","-12","","","+0.01","7","76","","29.95","29.91","","-12","060","","4","","","","","","","","","","","","","","","","","","","","","","","","","","","","","","","","","","","","","","","","","","","","","","","","","","","","","","","","","","","","","","","","","","","","","","","","","","","","","","","","","","","","","","","","","","","SYN07601002 46/// /0602 11242 21272 30128 40141 57004 333 11241 21243 90710 91104=","","","","","","","","","",""
"01002099999","2024-04-07T22:00:00","80.05","16.25","8.0","VERLEGENHUKEN, NO","FM-12","4","","-17","-12","","","","","78","","29.93","29.89","","-12","130","","4","","","","","","","","","","","","","","","","","","","","","","","","","","","","","","","","","","","","","","","","","","","","","","","","","","","","","","","","","","","","","","","","","","","","","","","","","","","","","","","","","","","","","","","","","","","SYN07601002 46/// /1302 11247 21274 30121 40134 54001 333 11246 21265 90710 91103=","","","","","","","","","",""
"01002099999","2024-04-08T04:00:00","80.05","16.25","8.0","VERLEGENHUKEN, NO","FM-12","4","","-13","-8","","","","","80","","29.91","29.88","","-9","120","","4","","","","","","","","","","","","","","","","","","","","","","","","","","","","","","","","","","","","","","","","","","","","","","","","","","","","","","","","","","","","","","","","","","","","","","","","","","","","","","","","","","","","","","","","","","","SYN07601002 46/// /1202 11224 21249 30117 40130 54001 333 11207 21256 90710 91104=","","","","","","","","","",""
"01002099999","2024-04-08T16:00:00","80.05","16.25","8.0","VERLEGENHUKEN, NO","FM-12","4","","-3","1","","","","","82","","29.93","29.90","","0","110","","18","","","","","","","","","","","","","","","","","","","","","","","","","","","","","","","","","","","","","","","","","","","","","","","","","","","","","","","","","","","","","","","","","","","","","","","","","","","","","","","","","","","","","","","","","","","SYN07601002 46/// /1108 11172 21196 30124 40137 54001 333 11170 21174 90710 91109=","","","","","","","","","",""
"01002099999","2024-04-08T22:00:00","80.05","16.25","8.0","VERLEGENHUKEN, NO","FM-12","4","","0","4","","","","","81","","29.92","29.88","","3","100","","20","","","","","","","","","","","","","","","","","","","","","","","","","","","","","","","","","","","","","","","","","","","","","","","","","","","","","","","","","","","","","","","","","","","","","","","","","","","","","","","","","","","","","","","","","","","SYN07601002 46/// /1009 11155 21180 30120 40133 54001 333 11153 21156 90710 91111=","","","","","","","","","",""
"01002099999","2024-04-09T04:00:00","80.05","16.25","8.0","VERLEGENHUKEN, NO","FM-12","4","","-4","-1","","","-0.02","2","84","","29.93","29.90","","-1","060","","13","","","","","","","","","","","","","","","","","","","","","","","","","","","","","","","","","","","","","","","","","","","","","","","","","","","","","","","","","","","","","","","","","","","","","","","","","","","","","","","","","","","","","","","","","","","SYN07601002 46/// /0606 11181 21202 30125 40137 52006 333 11152 21182 90710 91109=","","","","","","","","","",""
"01002099999","2024-04-09T10:00:00","80.05","16.25","8.0","VERLEGENHUKEN, NO","FM-12","4","","-6","-2","","","-0.02","2","81","","29.96","29.93","","-3","050","","18","","","","","","","","","","","","","","","","","","","","","","","","","","","","","","","","","","","","","","","","","","","","","","","","","","","","","","","","","","","","","","","","","","","","","","","","","","","","","","","","","","","","","","","","","","","SYN07601002 46/// /0508 11189 21213 30134 40146 52007 333 11189 21193 90710 91110=","","","","","","","","","",""
"01002099999","2024-04-09T16:00:00","80.05","16.25","8.0","VERLEGENHUKEN, NO","FM-12","4","","-12","-7","","","-0.04","2","78","","30.03","29.99","","-8","020","","11","","","","","","","","","","","","","","","","","","","","","","","","","","","","","","","","","","","","","","","","","","","","","","","","","","","","","","","","","","","","","","","","","","","","","","","","","","","","","","","","","","","","","","","","","","","SYN07601002 46/// /0205 11215 21243 30155 40168 52012 333 11215 21218 90710 91106=","","","","","","","","","",""
"01002099999","2024-04-09T22:00:00","80.05","16.25","8.0","VERLEGENHUKEN, NO","FM-12","4","","-14","-9","","","-0.03","2","80","","30.06","30.02","","-10","030","","4","","","","","","","","","","","","","","","","","","","","","","","","","","","","","","","","","","","","","","","","","","","","","","","","","","","","","","","","","","","","","","","","","","","","","","","","","","","","","","","","","","","","","","","","","","","SYN07601002 46/// /0302 11230 21255 30166 40179 52009 333 11222 21230 90710 91104=","","","","","","","","","",""
"01002099999","2024-04-10T04:00:00","80.05","16.25","8.0","VERLEGENHUKEN, NO","FM-12","4","","-9","-5","","","+0.00","5","83","","30.06","30.02","","-6","050","","7","","","","","","","","","","","","","","","","","","","","","","","","","","","","","","","","","","","","","","","","","","","","","","","","","","","","","","","","","","","","","","","","","","","","","","","","","","","","","","","","","","","","","","","","","","","SYN07601002 46/// /0503 11207 21229 30167 40180 55001 333 11207 21220 90710 91104=","","","","","","","","","",""
"01002099999","2024-04-10T10:00:00","80.05","16.25","8.0","VERLEGENHUKEN, NO","FM-12","4","","-4","0","","","+0.02","8","81","","30.03","29.99","","-1","100","","11","","","","","","","","","","","","","","","","","","","","","","","","","","","","","","","","","","","","","","","","","","","","","","","","","","","","","","","","","","","","","","","","","","","","","","","","","","","","","","","","","","","","","","","","","","","SYN07601002 46/// /1005 11176 21201 30155 40168 58007 333 11169 21177 90710 91108=","","","","","","","","","",""
"01002099999","2024-04-10T16:00:00","80.05","16.25","8.0","VERLEGENHUKEN, NO","FM-12","4","","-7","-2","","","+0.02","7","81","","29.97","29.93","","-3","250","","4","","","","","","","","","","","","","","","","","","","","","","","","","","","","","","","","","","","","","","","","","","","","","","","","","","","","","","","","","","","","","","","","","","","","","","","","","","","","","","","","","","","","","","","","","","","SYN07601002 46/// /2502 11190 21214 30137 40150 57008 333 11190 21202 90710 91103=","","","","","","","","","",""
"01002099999","2024-04-10T17:00:00","80.05","16.25","8.0","VERLEGENHUKEN, NO","FM-12","4","","-8","-3","","","+0.02","7","81","","29.96","29.93","","-4","234","","5","","","","","","","","","","","","","","","","","","","","","","","","","","","","","","","","","","","","","","","","","","","","","","","","","","","","","","","","","","","","","","","","","","","","","","","","","","","","","","","","","","","","","","","","","","","SYN004BUFR","","","","","","","","","",""
"01002099999","2024-04-10T22:00:00","80.05","16.25","8.0","VERLEGENHUKEN, NO","FM-12","4","","-9","-5","","","+0.02","7","83","","29.91","29.87","","-6","140","","2","","","","","","","","","","","","","","","","","","","","","","","","","","","","","","","","","","","","","","","","","","","","","","","","","","","","","","","","","","","","","","","","","","","","","","","","","","","","","","","","","","","","","","","","","","","SYN07601002 46/// /1401 11205 21227 30115 40128 57008 333 11204 21210 90710 91103=","","","","","","","","","",""
"01002099999","2024-04-11T04:00:00","80.05","16.25","8.0","VERLEGENHUKEN, NO","FM-12","4","","-9","-5","","","+0.03","7","81","","29.86","29.82","","-6","120","","7","","","","","","","","","","","","","","","","","","","","","","","","","","","","","","","","","","","","","","","","","","","","","","","","","","","","","","","","","","","","","","","","","","","","","","","","","","","","","","","","","","","","","","","","","","","SYN07601002 46/// /1203 11205 21229 30098 40111 57010 333 11199 21209 90710 91104=","","","","","","","","","",""
"01002099999","2024-04-11T16:00:00","80.05","16.25","8.0","VERLEGENHUKEN, NO","FM-12","4","","-3","2","","","+0.01","5","80","","29.86","29.82","","1","120","","20","","","","","","","","","","","","","","","","","","","","","","","","","","","","","","","","","","","","","","","","","","","","","","","","","","","","","","","","","","","","","","","","","","","","","","","","","","","","","","","","","","","","","","","","","","","SYN07601002 46/// /1209 11168 21194 30098 40111 55003 333 11161 21169 90710 91111=","","","","","","","","","",""
"01002099999","2024-04-11T22:00:00","80.05","16.25","8.0","VERLEGENHUKEN, NO","FM-12","4","","-7","-2","","","","","80","","29.86","29.82","","-3","110","","13","","","","","","","","","","","","","","","","","","","","","","","","","","","","","","","","","","","","","","","","","","","","","","","","","","","","","","","","","","","","","","","","","","","","","","","","","","","","","","","","","","","","","","","","","","","SYN07601002 46/// /1106 11190 21216 30098 40111 54002 333 11180 21191 90710 91107=","","","","","","","","","",""
"01002099999","2024-04-12T04:00:00","80.05","16.25","8.0","VERLEGENHUKEN, NO","FM-12","4","","-5","0","","","-0.01","3","80","","29.88","29.84","","-1","110","","20","","","","","","","","","","","","","","","","","","","","","","","","","","","","","","","","","","","","","","","","","","","","","","","","","","","","","","","","","","","","","","","","","","","","","","","","","","","","","","","","","","","","","","","","","","","SYN07601002 46/// /1109 11180 21206 30106 40119 53004 333 11177 21181 90710 91110=","","","","","","","","","",""
"01002099999","2024-04-12T10:00:00","80.05","16.25","8.0","VERLEGENHUKEN, NO","FM-12","4","","-3","2","","","-0.02","2","80","","29.90","29.86","","1","120","","18","","","","","","","","","","","","","","","","","","","","","","","","","","","","","","","","","","","","","","","","","","","","","","","","","","","","","","","","","","","","","","","","","","","","","","","","","","","","","","","","","","","","","","","","","","","SYN07601002 46/// /1208 11168 21194 30112 40125 52007 333 11168 21177 90710 91110=","","","","","","","","","",""
"01002099999","2024-04-12T16:00:00","80.05","16.25","8.0","VERLEGENHUKEN, NO","FM-12","4","","-2","3","","","","","79","","29.91","29.87","","2","080","","16","","","","","","","","","","","","","","","","","","","","","","","","","","","","","","","","","","","","","","","","","","","","","","","","","","","","","","","","","","","","","","","","","","","","","","","","","","","","","","","","","","","","","","","","","","","SYN07601002 46/// /0807 11161 21189 30116 40129 54001 333 11156 21164 90710 91110=","","","","","","","","","",""
"01002099999","2024-04-12T22:00:00","80.05","16.25","8.0","VERLEGENHUKEN, NO","FM-12","4","","-3","0","","","-0.01","2","83","","29.91","29.88","","0","080","","13","","","","","","","","","","","","","","","","","","","","","","","","","","","","","","","","","","","","","","","","","","","","","","","","","","","","","","","","","","","","","","","","","","","","","","","","","","","","","","","","","","","","","","","","","","","SYN07601002 46/// /0806 11175 21197 30117 40129 52003 333 11168 21175 90710 91108=","","","","","","","","","",""
"01002099999","2024-04-13T01:00:00","80.05","16.25","8.0","VERLEGENHUKEN, NO","FM-12","4","","-3","1","","","-0.00","0","84","","29.91","29.88","","0","124","19","17","","","","","","","","","","","","","","","","","","","","","","","","","","","","","","","","","","","","","","","","","","","","","","","","","","","","","","","","","","","","","","","","","","","","","","","","","","","","","","","","","","","","","","","","","","","SYN004BUFR","","","","","","","","","",""
"01002099999","2024-04-13T10:00:00","80.05","16.25","8.0","VERLEGENHUKEN, NO","FM-12","4","","-1","3","","","+0.00","5","83","","29.89","29.85","","2","110","","22","","","","","","","","","","","","","","","","","","","","","","","","","","","","","","","","","","","","","","","","","","","","","","","","","","","","","","","","","","","","","","","","","","","","","","","","","","","","","","","","","","","","","","","","","","","SYN07601002 46/// /1110 11161 21183 30110 40123 55001 333 11160 21164 90710 91111=","","","","","","","","","",""
"01002099999","2024-04-13T16:00:00","80.05","16.25","8.0","VERLEGENHUKEN, NO","FM-12","4","","4","8","","","-0.01","2","84","","29.91","29.87","","7","090","","22","","","","","","","","","","","","","","","","","","","","","","","","","","","","","","","","","","","","","","","","","","","","","","","","","","","","","","","","","","","","","","","","","","","","","","","","","","","","","","","","","","","","","","","","","","","SYN07601002 46/// /0910 11135 21157 30115 40128 52005 333 11135 21138 90710 91112=","","","","","","","","","",""
"01002099999","2024-04-13T23:00:00","80.05","16.25","8.0","VERLEGENHUKEN, NO","FM-12","4","","3","7","","","-0.02","2","84","","29.92","29.88","","6","098","24","18","","","","","","","","","","","","","","","","","","","","","","","","","","","","","","","","","","","","","","","","","","","","","","","","","","","","","","","","","","","","","","","","","","","","","","","","","","","","","","","","","","","","","","","","","","","SYN004BUFR","","","","","","","","","",""
"01002099999","2024-04-14T16:00:00","80.05","16.25","8.0","VERLEGENHUKEN, NO","FM-12","4","","-2","3","","","-0.01","2","81","","29.98","29.94","","2","110","","29","","","","","","","","","","","","","","","","","","","","","","","","","","","","","","","","","","","","","","","","","","","","","","","","","","","","","","","","","","","","","","","","","","","","","","","","","","","","","","","","","","","","","","","","","","","SYN07601002 46/// /1113 11163 21189 30139 40151 52004 333 11160 21165 90710 91116=","","","","","","","","","",""
"01002099999","2024-04-14T22:00:00","80.05","16.25","8.0","VERLEGENHUKEN, NO","FM-12","4","","-4","1","","","-0.02","2","81","","29.99","29.96","","0","130","","25","","","","","","","","","","","","","","","","","","","","","","","","","","","","","","","","","","","","","","","","","","","","","","","","","","","","","","","","","","","","","","","","","","","","","","","","","","","","","","","","","","","","","","","","","","","SYN07601002 46/// /1311 11174 21199 30144 40156 52006 333 11168 21183 90710 91113=","","","","","","","","","",""
"01002099999","2024-04-15T04:00:00","80.05","16.25","8.0","VERLEGENHUKEN, NO","FM-12","4","","-8","-1","","","-0.01","2","73","","30.01","29.97","","-2","140","","13","","","","","","","","","","","","","","","","","","","","","","","","","","","","","","","","","","","","","","","","","","","","","","","","","","","","","","","","","","","","","","","","","","","","","","","","","","","","","","","","","","","","","","","","","","","SYN07601002 46/// /1406 11184 21221 30150 40163 52003 333 11183 21192 90710 91108=","","","","","","","","","",""
"01002099999","2024-04-15T10:00:00","80.05","16.25","8.0","VERLEGENHUKEN, NO","FM-12","4","","-4","3","","","-0.02","2","72","","30.03","30.00","","2","140","","9","","","","","","","","","","","","","","","","","","","","","","","","","","","","","","","","","","","","","","","","","","","","","","","","","","","","","","","","","","","","","","","","","","","","","","","","","","","","","","","","","","","","","","","","","","","SYN07601002 46/// /1404 11160 21199 30158 40171 52007 333 11159 21172 90710 91105=","","","","","","","","","",""
"01002099999","2024-04-15T16:00:00","80.05","16.25","8.0","VERLEGENHUKEN, NO","FM-12","4","","-1","5","","","-0.02","2","77","","30.07","30.03","","4","160","","7","","","","","","","","","","","","","","","","","","","","","","","","","","","","","","","","","","","","","","","","","","","","","","","","","","","","","","","","","","","","","","","","","","","","","","","","","","","","","","","","","","","","","","","","","","","SYN07601002 46/// /1603 11151 21182 30170 40182 52006 333 11151 21157 90710 91104=","","","","","","","","","",""
"01002099999","2024-04-15T23:00:00","80.05","16.25","8.0","VERLEGENHUKEN, NO","FM-12","4","","-3","1","","","+0.01","5","83","","30.08","30.04","","0","195","14","13","","","","","","","","","","","","","","","","","","","","","","","","","","","","","","","","","","","","","","","","","","","","","","","","","","","","","","","","","","","","","","","","","","","","","","","","","","","","","","","","","","","","","","","","","","","SYN004BUFR","","","","","","","","","",""
"01002099999","2024-04-16T04:00:00","80.05","16.25","8.0","VERLEGENHUKEN, NO","FM-12","4","","-5","-1","","","","","83","","30.09","30.05","","-2","200","","11","","","","","","","","","","","","","","","","","","","","","","","","","","","","","","","","","","","","","","","","","","","","","","","","","","","","","","","","","","","","","","","","","","","","","","","","","","","","","","","","","","","","","","","","","","","SYN07601002 46/// /2005 11181 21203 30177 40190 54001 333 11180 21181 90710 91108=","","","","","","","","","",""
"01002099999","2024-04-16T10:00:00","80.05","16.25","8.0","VERLEGENHUKEN, NO","FM-12","4","","-5","-1","","","-0.01","2","81","","30.11","30.07","","-2","210","","9","","","","","","","","","","","","","","","","","","","","","","","","","","","","","","","","","","","","","","","","","","","","","","","","","","","","","","","","","","","","","","","","","","","","","","","","","","","","","","","","","","","","","","","","","","","SYN07601002 46/// /2104 11182 21207 30184 40197 52005 333 11182 21188 90710 91105=","","","","","","","","","",""
"01002099999","2024-04-16T16:00:00","80.05","16.25","8.0","VERLEGENHUKEN, NO","FM-12","4","","-7","-3","","","-0.02","2","80","","30.16","30.12","","-4","220","","11","","","","","","","","","","","","","","","","","","","","","","","","","","","","","","","","","","","","","","","","","","","","","","","","","","","","","","","","","","","","","","","","","","","","","","","","","","","","","","","","","","","","","","","","","","","SYN07601002 46/// /2205 11193 21219 30201 40213 52006 333 11189 21193 90710 91106=","","","","","","","","","",""
"01002099999","2024-04-16T22:00:00","80.05","16.25","8.0","VERLEGENHUKEN, NO","FM-12","4","","-9","-5","","","-0.03","2","83","","30.22","30.18","","-5","200","","13","","","","","","","","","","","","","","","","","","","","","","","","","","","","","","","","","","","","","","","","","","","","","","","","","","","","","","","","","","","","","","","","","","","","","","","","","","","","","","","","","","","","","","","","","","","SYN07601002 46/// /2006 11206 21228 30219 40232 52010 333 11199 21207 90710 91106=","","","","","","","","","",""
"01002099999","2024-04-17T10:00:00","80.05","16.25","8.0","VERLEGENHUKEN, NO","FM-12","4","","-8","-3","","","","","80","","30.27","30.24","","-4","210","","9","","","","","","","","","","","","","","","","","","","","","","","","","","","","","","","","","","","","","","","","","","","","","","","","","","","","","","","","","","","","","","","","","","","","","","","","","","","","","","","","","","","","","","","","","","","SYN07601002 46/// /2104 11195 21221 30239 40252 54002 333 11186 21197 90710 91105=","","","","","","","","","",""
"01002099999","2024-04-17T22:00:00","80.05","16.25","8.0","VERLEGENHUKEN, NO","FM-12","4","","-2","2","","","+0.03","7","83","","30.18","30.15","","1","150","","4","","","","","","","","","","","","","","","","","","","","","","","","","","","","","","","","","","","","","","","","","","","","","","","","","","","","","","","","","","","","","","","","","","","","","","","","","","","","","","","","","","","","","","","","","","","SYN07601002 46/// /1502 11166 21188 30209 40221 57009 333 11160 21169 90710 91102=","","","","","","","","","",""
"01002099999","2024-04-18T04:00:00","80.05","16.25","8.0","VERLEGENHUKEN, NO","FM-12","4","","-2","2","","","+0.04","7","81","","30.10","30.07","","1","140","","16","","","","","","","","","","","","","","","","","","","","","","","","","","","","","","","","","","","","","","","","","","","","","","","","","","","","","","","","","","","","","","","","","","","","","","","","","","","","","","","","","","","","","","","","","","","SYN07601002 46/// /1407 11164 21190 30182 40194 57013 333 11157 21179 90710 91107=","","","","","","","","","",""
"01002099999","2024-04-18T10:00:00","80.05","16.25","8.0","VERLEGENHUKEN, NO","FM-12","4","","7","11","","","+0.04","8","82","","30.01","29.97","","10","130","","22","","","","","","","","","","","","","","","","","","","","","","","","","","","","","","","","","","","","","","","","","","","","","","","","","","","","","","","","","","","","","","","","","","","","","","","","","","","","","","","","","","","","","","","","","","","SYN07601002 46/// /1310 11114 21139 30149 40161 58015 333 11113 21124 90710 91112=","","","","","","","","","",""
"01002099999","2024-04-18T16:00:00","80.05","16.25","8.0","VERLEGENHUKEN, NO","FM-12","4","","13","18","","","+0.04","7","79","","29.90","29.86","","17","120","","27","","","","","","","","","","","","","","","","","","","","","","","","","","","","","","","","","","","","","","","","","","","","","","","","","","","","","","","","","","","","","","","","","","","","","","","","","","","","","","","","","","","","","","","","","","","SYN07601002 46/// /1212 11077 21108 30111 40124 57015 333 11072 21082 90710 91117=","","","","","","","","","",""
"01002099999","2024-04-18T21:00:00","80.05","16.25","8.0","VERLEGENHUKEN, NO","FM-12","4","","11","15","","","-0.01","0","84","","29.88","29.84","","14","154","","6","","","","","","","","","","","","","","","","","","","","","","","","","","","","","","","","","","","","","","","","","","","","","","","","","","","","","","","","","","","","","","","","","","","","","","","","","","","","","","","","","","","","","","","","","","","SYN004BUFR","","","","","","","","","",""
"01002099999","2024-04-18T23:00:00","80.05","16.25","8.0","VERLEGENHUKEN, NO","FM-12","4","","11","15","","","-0.02","2","84","","29.89","29.85","","14","127","17","13","","","","","","","","","","","","","","","","","","","","","","","","","","","","","","","","","","","","","","","","","","","","","","","","","","","","","","","","","","","","","","","","","","","","","","","","","","","","","","","","","","","","","","","","","","","SYN004BUFR","","","","","","","","","",""
"01002099999","2024-04-19T04:00:00","80.05","16.25","8.0","VERLEGENHUKEN, NO","FM-12","4","","15","20","","","-0.02","2","81","","29.91","29.88","","19","140","","16","","","","","","","","","","","","","","","","","","","","","","","","","","","","","","","","","","","","","","","","","","","","","","","","","","","","","","","","","","","","","","","","","","","","","","","","","","","","","","","","","","","","","","","","","","","SYN07601002 46/// /1407 11066 21094 30118 40130 52006 333 11065 21079 90710 91108=","","","","","","","","","",""
"01002099999","2024-04-19T10:00:00","80.05","16.25","8.0","VERLEGENHUKEN, NO","FM-12","4","","19","25","","","-0.05","1","77","","29.99","29.95","","23","110","","18","","","","","","","","","","","","","","","","","","","","","","","","","","","","","","","","","","","","","","","","","","","","","","","","","","","","","","","","","","","","","","","","","","","","","","","","","","","","","","","","","","","","","","","","","","","SYN07601002 46/// /1108 11037 21072 30143 40155 51018 333 11032 21041 90710 91113=","","","","","","","","","",""
"01002099999","2024-04-19T16:00:00","80.05","16.25","8.0","VERLEGENHUKEN, NO","FM-12","4","","20","26","","","-0.02","3","77","","30.05","30.01","","24","140","","31","","","","","","","","","","","","","","","","","","","","","","","","","","","","","","","","","","","","","","","","","","","","","","","","","","","","","","","","","","","","","","","","","","","","","","","","","","","","","","","","","","","","","","","","","","","SYN07601002 46/// /1414 11032 21067 30163 40175 53006 333 11024 21033 90710 91116=","","","","","","","","","",""
"01002099999","2024-04-19T22:00:00","80.05","16.25","8.0","VERLEGENHUKEN, NO","FM-12","4","","19","23","","","-0.04","2","84","","30.07","30.03","","22","133","35","28","","","","","","","","","","","","","","","","","","","","","","","","","","","","","","","","","","","","","","","","","","","","","","","","","","","","","","","","","","","","","","","","","","","","","","","","","","","","","","","","","","","","","","","","","","","SYN004BUFR","","","","","","","","","",""
"01002099999","2024-04-20T04:00:00","80.05","16.25","8.0","VERLEGENHUKEN, NO","FM-12","4","","19","23","","","+0.00","5","86","","30.06","30.02","","22","140","","29","","","","","","","","","","","","","","","","","","","","","","","","","","","","","","","","","","","","","","","","","","","","","","","","","","","","","","","","","","","","","","","","","","","","","","","","","","","","","","","","","","","","","","","","","","","SYN07601002 46/// /1413 11050 21070 30167 40179 55000 333 11050 21056 90710 91115=","","","","","","","","","",""
"01002099999","2024-04-20T16:00:00","80.05","16.25","8.0","VERLEGENHUKEN, NO","FM-12","4","","18","33","","","-0.01","3","55","","30.11","30.07","","28","180","","22","","","","","","","","","","","","","","","","","","","","","","","","","","","","","","","","","","","","","","","","","","","","","","","","","","","","","","","","","","","","","","","","","","","","","","","","","","","","","","","","","","","","","","","","","","","SYN07601002 46/// /1810 10004 21078 30183 40195 53004 333 10006 21015 90710 91112=","","","","","","","","","",""
"01002099999","2024-04-20T22:00:00","80.05","16.25","8.0","VERLEGENHUKEN, NO","FM-12","4","","20","27","","","-0.04","2","75","","30.18","30.15","","25","210","","13","","","","","","","","","","","","","","","","","","","","","","","","","","","","","","","","","","","","","","","","","","","","","","","","","","","","","","","","","","","","","","","","","","","","","","","","","","","","","","","","","","","","","","","","","","","SYN07601002 46/// /2106 11027 21065 30209 40221 52015 333 11007 21027 90710 91108=","","","","","","","","","",""
"01002099999","2024-04-21T04:00:00","80.05","16.25","8.0","VERLEGENHUKEN, NO","FM-12","4","","19","26","","","-0.03","3","77","","30.27","30.24","","24","220","","7","","","","","","","","","","","","","","","","","","","","","","","","","","","","","","","","","","","","","","","","","","","","","","","","","","","","","","","","","","","","","","","","","","","","","","","","","","","","","","","","","","","","","","","","","","","SYN07601002 46/// /2203 11035 21070 30240 40252 53009 333 11031 21037 90710 91105=","","","","","","","","","",""
"01002099999","2024-04-21T10:00:00","80.05","16.25","8.0","VERLEGENHUKEN, NO","FM-12","4","","18","28","","","+0.03","7","65","","30.21","30.17","","25","140","","13","","","","","","","","","","","","","","","","","","","","","","","","","","","","","","","","","","","","","","","","","","","","","","","","","","","","","","","","","","","","","","","","","","","","","","","","","","","","","","","","","","","","","","","","","","","SYN07601002 46/// /1406 11020 21078 30218 40230 57011 333 11019 21026 90710 91107=","","","","","","","","","",""
"01002099999","2024-04-21T16:00:00","80.05","16.25","8.0","VERLEGENHUKEN, NO","FM-12","4","","22","31","","","+0.07","8","70","","30.08","30.05","","28","170","","22","","","","","","","","","","","","","","","","","","","","","","","","","","","","","","","","","","","","","","","","","","","","","","","","","","","","","","","","","","","","","","","","","","","","","","","","","","","","","","","","","","","","","","","","","","","SYN07601002 46/// /1710 11004 21053 30175 40187 58025 333 11002 21006 90710 91111=","","","","","","","","","",""
"01002099999","2024-04-21T21:00:00","80.05","16.25","8.0","VERLEGENHUKEN, NO","FM-12","4","","26","36","","","+0.04","8","69","","29.97","29.94","","32","173","28","25","","","","","","","","","","","","","","","","","","","","","","","","","","","","","","","","","","","","","","","","","","","","","","","","","","","","","","","","","","","","","","","","","","","","","","","","","","","","","","","","","","","","","","","","","","","SYN004BUFR","","","","","","","","","",""
"01002099999","2024-04-21T22:00:00","80.05","16.25","8.0","VERLEGENHUKEN, NO","FM-12","4","","26","35","","","+0.02","8","70","","29.97","29.94","","32","170","","25","","","","","","","","","","","","","","","","","","","","","","","","","","","","","","","","","","","","","","","","","","","","","","","","","","","","","","","","","","","","","","","","","","","","","","","","","","","","","","","","","","","","","","","","","","","SYN07601002 46/// /1711 10016 21033 30138 40150 58007 333 10019 20015 90710 91112=","","","","","","","","","",""
"01002099999","2024-04-22T10:00:00","80.05","16.25","8.0","VERLEGENHUKEN, NO","FM-12","4","","28","38","","","-0.03","2","68","","29.96","29.93","","34","190","","25","","","","","","","","","","","","","","","","","","","","","","","","","","","","","","","","","","","","","","","","","","","","","","","","","","","","","","","","","","","","","","","","","","","","","","","","","","","","","","","","","","","","","","","","","","","SYN07601002 46/// /1911 10034 21021 30135 40147 52010 333 10039 20033 90710 91112=","","","","","","","","","",""
"01002099999","2024-04-22T16:00:00","80.05","16.25","8.0","VERLEGENHUKEN, NO","FM-12","4","","29","37","","","-0.05","2","72","","30.09","30.05","","34","190","","16","","","","","","","","","","","","","","","","","","","","","","","","","","","","","","","","","","","","","","","","","","","","","","","","","","","","","","","","","","","","","","","","","","","","","","","","","","","","","","","","","","","","","","","","","","","SYN07601002 46/// /1907 10028 21019 30176 40188 52017 333 10033 20019 90710 91108=","","","","","","","","","",""
"01002099999","2024-04-22T22:00:00","80.05","16.25","8.0","VERLEGENHUKEN, NO","FM-12","4","","25","28","","","-0.05","3","88","","30.17","30.14","","27","130","","22","","","","","","","","","","","","","","","","","","","","","","","","","","","","","","","","","","","","","","","","","","","","","","","","","","","","","","","","","","","","","","","","","","","","","","","","","","","","","","","","","","","","","","","","","","","SYN07601002 46/// /1310 11021 21038 30206 40218 53016 333 11014 21021 90710 91112=","","","","","","","","","",""
"01002099999","2024-04-23T10:00:00","80.05","16.25","8.0","VERLEGENHUKEN, NO","FM-12","4","","22","30","","","+0.01","5","72","","30.22","30.19","","27","210","","16","","","","","","","","","","","","","","","","","","","","","","","","","","","","","","","","","","","","","","","","","","","","","","","","","","","","","","","","","","","","","","","","","","","","","","","","","","","","","","","","","","","","","","","","","","","SYN07601002 46/// /2107 11013 21057 30223 40235 55002 333 11013 21021 90710 91108=","","","","","","","","","",""
"01002099999","2024-04-23T16:00:00","80.05","16.25","8.0","VERLEGENHUKEN, NO","FM-12","4","","27","29","","","","","92","","30.24","30.20","","28","300","","2","","","","","","","","","","","","","","","","","","","","","","","","","","","","","","","","","","","","","","","","","","","","","","","","","","","","","","","","","","","","","","","","","","","","","","","","","","","","","","","","","","","","","","","","","","","SYN07601002 46/// /3001 11018 21029 30228 40240 54001 333 11017 21019 90710 91103=","","","","","","","","","",""
"01002099999","2024-04-23T22:00:00","80.05","16.25","8.0","VERLEGENHUKEN, NO","FM-12","4","","26","27","","","-0.02","2","93","","30.25","30.22","","27","210","","9","","","","","","","","","","","","","","","","","","","","","","","","","","","","","","","","","","","","","","","","","","","","","","","","","","","","","","","","","","","","","","","","","","","","","","","","","","","","","","","","","","","","","","","","","","","SYN07601002 46/// /2104 11025 21035 30232 40244 52006 333 11024 21026 90710 91104=","","","","","","","","","",""
"01002099999","2024-04-24T04:00:00","80.05","16.25","8.0","VERLEGENHUKEN, NO","FM-12","4","","24","29","","","","","83","","30.25","30.21","","27","230","","11","","","","","","","","","","","","","","","","","","","","","","","","","","","","","","","","","","","","","","","","","","","","","","","","","","","","","","","","","","","","","","","","","","","","","","","","","","","","","","","","","","","","","","","","","","","SYN07601002 46/// /2305 11017 21043 30231 40243 54002 333 11017 21023 90710 91107=","","","","","","","","","",""
"01002099999","2024-04-24T10:00:00","80.05","16.25","8.0","VERLEGENHUKEN, NO","FM-12","4","","22","27","","","","","82","","30.25","30.22","","25","230","","9","","","","","","","","","","","","","","","","","","","","","","","","","","","","","","","","","","","","","","","","","","","","","","","","","","","","","","","","","","","","","","","","","","","","","","","","","","","","","","","","","","","","","","","","","","","SYN07601002 46/// /2304 11030 21056 30233 40245 54002 333 11026 21033 90710 91105=","","","","","","","","","",""
"01002099999","2024-04-24T16:00:00","80.05","16.25","8.0","VERLEGENHUKEN, NO","FM-12","4","","23","29","","","","","79","","30.25","30.22","","27","220","","4","","","","","","","","","","","","","","","","","","","","","","","","","","","","","","","","","","","","","","","","","","","","","","","","","","","","","","","","","","","","","","","","","","","","","","","","","","","","","","","","","","","","","","","","","","","SYN07601002 46/// /2202 11019 21051 30233 40245 54001 333 11017 21025 90710 91103=","","","","","","","","","",""
"01002099999","2024-04-24T21:00:00","80.05","16.25","8.0","VERLEGENHUKEN, NO","FM-12","4","","24","27","","","-0.01","2","86","","30.28","30.24","","26","211","","6","","","","","","","","","","","","","","","","","","","","","","","","","","","","","","","","","","","","","","","","","","","","","","","","","","","","","","","","","","","","","","","","","","","","","","","","","","","","","","","","","","","","","","","","","","","SYN004BUFR","","","","","","","","","",""
"01002099999","2024-04-24T22:00:00","80.05","16.25","8.0","VERLEGENHUKEN, NO","FM-12","4","","22","26","","","-0.03","2","88","","30.29","30.25","","25","230","","7","","","","","","","","","","","","","","","","","","","","","","","","","","","","","","","","","","","","","","","","","","","","","","","","","","","","","","","","","","","","","","","","","","","","","","","","","","","","","","","","","","","","","","","","","","","SYN07601002 46/// /2303 11036 21054 30245 40257 52009 333 11026 21036 90710 91104=","","","","","","","","","",""
"01002099999","2024-04-25T10:00:00","80.05","16.25","8.0","VERLEGENHUKEN, NO","FM-12","4","","23","29","","","-0.02","2","81","","30.35","30.31","","27","240","","4","","","","","","","","","","","","","","","","","","","","","","","","","","","","","","","","","","","","","","","","","","","","","","","","","","","","","","","","","","","","","","","","","","","","","","","","","","","","","","","","","","","","","","","","","","","SYN07601002 46/// /2402 11019 21048 30264 40277 52006 333 11019 21026 90710 91103=","","","","","","","","","",""
"01002099999","2024-04-25T16:00:00","80.05","16.25","8.0","VERLEGENHUKEN, NO","FM-12","4","","25","29","","","","","84","","30.36","30.32","","28","100","","7","","","","","","","","","","","","","","","","","","","","","","","","","","","","","","","","","","","","","","","","","","","","","","","","","","","","","","","","","","","","","","","","","","","","","","","","","","","","","","","","","","","","","","","","","","","SYN07601002 46/// /1003 11016 21040 30268 40280 54001 333 11014 21016 90710 91103=","","","","","","","","","",""
"01002099999","2024-04-25T22:00:00","80.05","16.25","8.0","VERLEGENHUKEN, NO","FM-12","4","","22","28","","","","","80","","30.34","30.30","","26","080","","16","","","","","","","","","","","","","","","","","","","","","","","","","","","","","","","","","","","","","","","","","","","","","","","","","","","","","","","","","","","","","","","","","","","","","","","","","","","","","","","","","","","","","","","","","","","SYN07601002 46/// /0807 11022 21053 30260 40273 54002 333 11019 21022 90710 91108=","","","","","","","","","",""
"01002099999","2024-04-26T10:00:00","80.05","16.25","8.0","VERLEGENHUKEN, NO","FM-12","4","","21","26","","","","","82","","30.36","30.32","","24","120","","13","","","","","","","","","","","","","","","","","","","","","","","","","","","","","","","","","","","","","","","","","","","","","","","","","","","","","","","","","","","","","","","","","","","","","","","","","","","","","","","","","","","","","","","","","","","SYN07601002 46/// /1206 11035 21061 30268 40280 54002 333 11034 21037 90710 91107=","","","","","","","","","",""
"01002099999","2024-04-26T16:00:00","80.05","16.25","8.0","VERLEGENHUKEN, NO","FM-12","4","","20","25","","","+0.00","5","81","","30.36","30.32","","23","200","","11","","","","","","","","","","","","","","","","","","","","","","","","","","","","","","","","","","","","","","","","","","","","","","","","","","","","","","","","","","","","","","","","","","","","","","","","","","","","","","","","","","","","","","","","","","","SYN07601002 46/// /2005 11038 21067 30268 40280 55001 333 11024 21040 90710 91105=","","","","","","","","","",""
"01002099999","2024-04-26T22:00:00","80.05","16.25","8.0","VERLEGENHUKEN, NO","FM-12","4","","23","27","","","+0.00","5","87","","30.35","30.31","","26","180","","4","","","","","","","","","","","","","","","","","","","","","","","","","","","","","","","","","","","","","","","","","","","","","","","","","","","","","","","","","","","","","","","","","","","","","","","","","","","","","","","","","","","","","","","","","","","SYN07601002 46/// /1802 11029 21048 30265 40277 55000 333 11026 21030 90710 91103=","","","","","","","","","",""
"01002099999","2024-04-27T04:00:00","80.05","16.25","8.0","VERLEGENHUKEN, NO","FM-12","4","","21","26","","","+0.01","7","81","","30.32","30.28","","24","210","","9","","","","","","","","","","","","","","","","","","","","","","","","","","","","","","","","","","","","","","","","","","","","","","","","","","","","","","","","","","","","","","","","","","","","","","","","","","","","","","","","","","","","","","","","","","","SYN07601002 46/// /2104 11035 21063 30255 40267 57005 333 11017 21035 90710 91104=","","","","","","","","","",""
"01002099999","2024-04-27T10:00:00","80.05","16.25","8.0","VERLEGENHUKEN, NO","FM-12","4","","19","28","","","+0.00","5","69","","30.30","30.27","","25","170","","2","","","","","","","","","","","","","","","","","","","","","","","","","","","","","","","","","","","","","","","","","","","","","","","","","","","","","","","","","","","","","","","","","","","","","","","","","","","","","","","","","","","","","","","","","","","SYN07601002 46/// /1701 11022 21071 30250 40262 55000 333 11013 21024 90710 91102=","","","","","","","","","",""
"01002099999","2024-04-27T16:00:00","80.05","16.25","8.0","VERLEGENHUKEN, NO","FM-12","4","","21","28","","","+0.02","7","76","","30.27","30.24","","26","210","","16","","","","","","","","","","","","","","","","","","","","","","","","","","","","","","","","","","","","","","","","","","","","","","","","","","","","","","","","","","","","","","","","","","","","","","","","","","","","","","","","","","","","","","","","","","","SYN07601002 46/// /2107 11022 21059 30240 40252 57007 333 11017 21023 90710 91109=","","","","","","","","","",""
"01002099999","2024-04-27T21:00:00","80.05","16.25","8.0","VERLEGENHUKEN, NO","FM-12","4","","25","30","","","+0.03","7","80","","30.22","30.19","","28","219","26","23","","","","","","","","","","","","","","","","","","","","","","","","","","","","","","","","","","","","","","","","","","","","","","","","","","","","","","","","","","","","","","","","","","","","","","","","","","","","","","","","","","","","","","","","","","","SYN004BUFR","","","","","","","","","",""
"01002099999","2024-04-27T22:00:00","80.05","16.25","8.0","VERLEGENHUKEN, NO","FM-12","4","","25","30","","","+0.02","8","82","","30.22","30.18","","28","220","","22","","","","","","","","","","","","","","","","","","","","","","","","","","","","","","","","","","","","","","","","","","","","","","","","","","","","","","","","","","","","","","","","","","","","","","","","","","","","","","","","","","","","","","","","","","","SYN07601002 46/// /2210 11011 21039 30221 40233 58007 333 11009 21012 90710 91113=","","","","","","","","","",""
"01002099999","2024-04-28T04:00:00","80.05","16.25","8.0","VERLEGENHUKEN, NO","FM-12","4","","26","31","","","+0.02","7","82","","30.19","30.15","","29","220","","25","","","","","","","","","","","","","","","","","","","","","","","","","","","","","","","","","","","","","","","","","","","","","","","","","","","","","","","","","","","","","","","","","","","","","","","","","","","","","","","","","","","","","","","","","","","SYN07601002 46/// /2211 11006 21033 30211 40223 57007 333 11003 21006 90710 91113=","","","","","","","","","",""
"01002099999","2024-04-28T10:00:00","80.05","16.25","8.0","VERLEGENHUKEN, NO","FM-12","4","","28","32","","","-0.04","3","84","","30.23","30.20","","31","250","","11","","","","","","","","","","","","","","","","","","","","","","","","","","","","","","","","","","","","","","","","","","","","","","","","","","","","","","","","","","","","","","","","","","","","","","","","","","","","","","","","","","","","","","","","","","","SYN07601002 46/// /2505 10001 21023 30226 40238 53012 333 10003 21001 90710 91107=","","","","","","","","","",""
"01002099999","2024-04-28T16:00:00","80.05","16.25","8.0","VERLEGENHUKEN, NO","FM-12","4","","27","32","","","","","79","","30.22","30.19","","30","220","","16","","","","","","","","","","","","","","","","","","","","","","","","","","","","","","","","","","","","","","","","","","","","","","","","","","","","","","","","","","","","","","","","","","","","","","","","","","","","","","","","","","","","","","","","","","","SYN07601002 46/// /2207 10002 21030 30223 40234 54003 333 10005 20002 90710 91109=","","","","","","","","","",""
"01002099999","2024-04-28T22:00:00","80.05","16.25","8.0","VERLEGENHUKEN, NO","FM-12","4","","28","32","","","","","86","","30.21","30.17","","31","250","","13","","","","","","","","","","","","","","","","","","","","","","","","","","","","","","","","","","","","","","","","","","","","","","","","","","","","","","","","","","","","","","","","","","","","","","","","","","","","","","","","","","","","","","","","","","","SYN07601002 46/// /2506 11001 21022 30218 40230 54001 333 10001 21003 90710 91108=","","","","","","","","","",""
"01002099999","2024-04-29T04:00:00","80.05","16.25","8.0","VERLEGENHUKEN, NO","FM-12","4","","28","30","","","","","90","","30.22","30.18","","29","230","","7","","","","","","","","","","","","","","","","","","","","","","","","","","","","","","","","","","","","","","","","","","","","","","","","","","","","","","","","","","","","","","","","","","","","","","","","","","","","","","","","","","","","","","","","","","","SYN07601002 46/// /2303 11009 21024 30220 40232 54001 333 11006 21009 90710 91103=","","","","","","","","","",""
"01002099999","2024-04-29T10:00:00","80.05","16.25","8.0","VERLEGENHUKEN, NO","FM-12","4","","23","33","","","","","67","","30.22","30.18","","29","220","","2","","","","","","","","","","","","","","","","","","","","","","","","","","","","","","","","","","","","","","","","","","","","","","","","","","","","","","","","","","","","","","","","","","","","","","","","","","","","","","","","","","","","","","","","","","","SYN07601002 46/// /2201 10005 21049 30221 40233 54002 333 10005 21010 90710 91104=","","","","","","","","","",""
"01002099999","2024-04-29T16:00:00","80.05","16.25","8.0","VERLEGENHUKEN, NO","FM-12","4","","25","33","","","+0.01","7","71","","30.21","30.17","","30","210","","7","","","","","","","","","","","","","","","","","","","","","","","","","","","","","","","","","","","","","","","","","","","","","","","","","","","","","","","","","","","","","","","","","","","","","","","","","","","","","","","","","","","","","","","","","","","SYN07601002 46/// /2103 10007 21041 30218 40230 57005 333 10007 21001 90710 91103=","","","","","","","","","",""
"01002099999","2024-04-29T22:00:00","80.05","16.25","8.0","VERLEGENHUKEN, NO","FM-12","4","","24","32","","","","","74","","30.19","30.15","","29","180","","7","","","","","","","","","","","","","","","","","","","","","","","","","","","","","","","","","","","","","","","","","","","","","","","","","","","","","","","","","","","","","","","","","","","","","","","","","","","","","","","","","","","","","","","","","","","SYN07601002 46/// /1803 11001 21042 30211 40223 54001 333 11001 21016 90710 91105=","","","","","","","","","",""
"01002099999","2024-04-30T04:00:00","80.05","16.25","8.0","VERLEGENHUKEN, NO","FM-12","4","","21","27","","","","","79","","30.16","30.13","","25","190","","11","","","","","","","","","","","","","","","","","","","","","","","","","","","","","","","","","","","","","","","","","","","","","","","","","","","","","","","","","","","","","","","","","","","","","","","","","","","","","","","","","","","","","","","","","","","SYN07601002 46/// /1905 11028 21059 30202 40214 54002 333 11016 21032 90710 91105=","","","","","","","","","",""
"01002099999","2024-04-30T10:00:00","80.05","16.25","8.0","VERLEGENHUKEN, NO","FM-12","4","","25","33","","","","","73","","30.16","30.12","","30","200","","7","","","","","","","","","","","","","","","","","","","","","","","","","","","","","","","","","","","","","","","","","","","","","","","","","","","","","","","","","","","","","","","","","","","","","","","","","","","","","","","","","","","","","","","","","","","SYN07601002 46/// /2003 10007 21037 30200 40212 54002 333 10007 21006 90710 91105=","","","","","","","","","",""
"01002099999","2024-04-30T16:00:00","80.05","16.25","8.0","VERLEGENHUKEN, NO","FM-12","4","","27","31","","","-0.02","2","86","","30.19","30.15","","30","130","","9","","","","","","","","","","","","","","","","","","","","","","","","","","","","","","","","","","","","","","","","","","","","","","","","","","","","","","","","","","","","","","","","","","","","","","","","","","","","","","","","","","","","","","","","","","","SYN07601002 46/// /1304 11006 21027 30210 40222 52007 333 11004 21006 90710 91104=","","","","","","","","","",""
"01002099999","2024-04-30T22:00:00","80.05","16.25","8.0","VERLEGENHUKEN, NO","FM-12","4","","23","27","","","-0.02","2","86","","30.22","30.19","","26","130","","9","","","","","","","","","","","","","","","","","","","","","","","","","","","","","","","","","","","","","","","","","","","","","","","","","","","","","","","","","","","","","","","","","","","","","","","","","","","","","","","","","","","","","","","","","","","SYN07601002 46/// /1304 11029 21050 30222 40234 52008 333 11018 21029 90710 91104=","","","","","","","","","",""
"01002099999","2024-05-01T22:00:00","80.05","16.25","8.0","VERLEGENHUKEN, NO","FM-12","4","","23","26","","","-0.03","2","89","","30.47","30.43","","25","127","21","19","","","","","","","","","","","","","","","","","","","","","","","","","","","","","","","","","","","","","","","","","","","","","","","","","","","","","","","","","","","","","","","","","","","","","","","","","","","","","","","","","","","","","","","","","","","SYN004BUFR","","","","","","","","","",""
"01002099999","2024-05-02T04:00:00","80.05","16.25","8.0","VERLEGENHUKEN, NO","FM-12","4","","22","25","","","","","89","","30.50","30.46","","24","130","","16","","","","","","","","","","","","","","","","","","","","","","","","","","","","","","","","","","","","","","","","","","","","","","","","","","","","","","","","","","","","","","","","","","","","","","","","","","","","","","","","","","","","","","","","","","","SYN07601002 46/// /1307 11039 21054 30315 40327 54001 333 11036 21039 90710 91108=","","","","","","","","","",""
"01002099999","2024-05-02T10:00:00","80.05","16.25","8.0","VERLEGENHUKEN, NO","FM-12","4","","23","26","","","","","89","","30.49","30.45","","25","120","","13","","","","","","","","","","","","","","","","","","","","","","","","","","","","","","","","","","","","","","","","","","","","","","","","","","","","","","","","","","","","","","","","","","","","","","","","","","","","","","","","","","","","","","","","","","","SYN07601002 46/// /1206 11035 21050 30312 40324 54001 333 11034 21037 90710 91107=","","","","","","","","","",""
"01002099999","2024-05-02T16:00:00","80.05","16.25","8.0","VERLEGENHUKEN, NO","FM-12","4","","23","27","","","+0.03","7","86","","30.45","30.41","","26","120","","13","","","","","","","","","","","","","","","","","","","","","","","","","","","","","","","","","","","","","","","","","","","","","","","","","","","","","","","","","","","","","","","","","","","","","","","","","","","","","","","","","","","","","","","","","","","SYN07601002 46/// /1206 11029 21050 30298 40310 57010 333 11027 21029 90710 91108=","","","","","","","","","",""
"01002099999","2024-05-02T22:00:00","80.05","16.25","8.0","VERLEGENHUKEN, NO","FM-12","4","","19","22","","","+0.02","7","91","","30.40","30.36","","21","130","","20","","","","","","","","","","","","","","","","","","","","","","","","","","","","","","","","","","","","","","","","","","","","","","","","","","","","","","","","","","","","","","","","","","","","","","","","","","","","","","","","","","","","","","","","","","","SYN07601002 46/// /1309 11058 21071 30281 40293 57008 333 11051 21058 90710 91110=","","","","","","","","","",""
"01002099999","2024-05-03T04:00:00","80.05","16.25","8.0","VERLEGENHUKEN, NO","FM-12","4","","21","24","","","+0.01","7","91","","30.37","30.34","","23","110","","20","","","","","","","","","","","","","","","","","","","","","","","","","","","","","","","","","","","","","","","","","","","","","","","","","","","","","","","","","","","","","","","","","","","","","","","","","","","","","","","","","","","","","","","","","","","SYN07601002 46/// /1109 11047 21059 30273 40285 57005 333 11041 21047 90710 91110=","","","","","","","","","",""
"01002099999","2024-05-03T10:00:00","80.05","16.25","8.0","VERLEGENHUKEN, NO","FM-12","4","","20","22","","","","","92","","30.36","30.33","","21","120","","18","","","","","","","","","","","","","","","","","","","","","","","","","","","","","","","","","","","","","","","","","","","","","","","","","","","","","","","","","","","","","","","","","","","","","","","","","","","","","","","","","","","","","","","","","","","SYN07601002 46/// /1208 11054 21065 30270 40282 54001 333 11052 21055 90710 91109=","","","","","","","","","",""
"01002099999","2024-05-03T16:00:00","80.05","16.25","8.0","VERLEGENHUKEN, NO","FM-12","4","","17","24","","","-0.01","2","73","","30.37","30.34","","22","090","","13","","","","","","","","","","","","","","","","","","","","","","","","","","","","","","","","","","","","","","","","","","","","","","","","","","","","","","","","","","","","","","","","","","","","","","","","","","","","","","","","","","","","","","","","","","","SYN07601002 46/// /0906 11042 21083 30274 40286 52003 333 11042 21045 90710 91108=","","","","","","","","","",""
"01002099999","2024-05-03T22:00:00","80.05","16.25","8.0","VERLEGENHUKEN, NO","FM-12","4","","16","22","","","-0.01","2","78","","30.38","30.35","","20","060","","18","","","","","","","","","","","","","","","","","","","","","","","","","","","","","","","","","","","","","","","","","","","","","","","","","","","","","","","","","","","","","","","","","","","","","","","","","","","","","","","","","","","","","","","","","","","SYN07601002 46/// /0608 11057 21090 30276 40288 52004 333 11052 21058 90710 91110=","","","","","","","","","",""
"01002099999","2024-05-04T04:00:00","80.05","16.25","8.0","VERLEGENHUKEN, NO","FM-12","4","","15","22","","","+0.00","5","72","","30.39","30.35","","20","050","","16","","","","","","","","","","","","","","","","","","","","","","","","","","","","","","","","","","","","","","","","","","","","","","","","","","","","","","","","","","","","","","","","","","","","","","","","","","","","","","","","","","","","","","","","","","","SYN07601002 46/// /0507 11053 21097 30279 40292 55000 333 11052 21054 90710 91109=","","","","","","","","","",""
"01002099999","2024-05-04T10:00:00","80.05","16.25","8.0","VERLEGENHUKEN, NO","FM-12","4","","16","23","","","","","77","","30.39","30.35","","21","030","","13","","","","","","","","","","","","","","","","","","","","","","","","","","","","","","","","","","","","","","","","","","","","","","","","","","","","","","","","","","","","","","","","","","","","","","","","","","","","","","","","","","","","","","","","","","","SYN07601002 46/// /0306 11052 21087 30278 40290 54001 333 11052 21054 90710 91108=","","","","","","","","","",""
"01002099999","2024-05-04T16:00:00","80.05","16.25","8.0","VERLEGENHUKEN, NO","FM-12","4","","16","23","","","+0.01","7","75","","30.36","30.32","","21","010","","7","","","","","","","","","","","","","","","","","","","","","","","","","","","","","","","","","","","","","","","","","","","","","","","","","","","","","","","","","","","","","","","","","","","","","","","","","","","","","","","","","","","","","","","","","","","SYN07601002 46/// /0103 11052 21090 30269 40281 57005 333 11050 21052 90710 91105=","","","","","","","","","",""
"01002099999","2024-05-04T22:00:00","80.05","16.25","8.0","VERLEGENHUKEN, NO","FM-12","4","","17","22","","","+0.02","7","80","","30.32","30.28","","21","030","","7","","","","","","","","","","","","","","","","","","","","","","","","","","","","","","","","","","","","","","","","","","","","","","","","","","","","","","","","","","","","","","","","","","","","","","","","","","","","","","","","","","","","","","","","","","","SYN07601002 46/// /0303 11054 21083 30253 40266 57006 333 11054 21055 90710 91104=","","","","","","","","","",""
"01002099999","2024-05-05T04:00:00","80.05","16.25","8.0","VERLEGENHUKEN, NO","FM-12","4","","17","21","","","+0.01","7","84","","30.29","30.26","","20","020","","7","","","","","","","","","","","","","","","","","","","","","","","","","","","","","","","","","","","","","","","","","","","","","","","","","","","","","","","","","","","","","","","","","","","","","","","","","","","","","","","","","","","","","","","","","","","SYN07601002 46/// /0203 11062 21085 30246 40258 57003 333 11060 21063 90710 91105=","","","","","","","","","",""
"01002099999","2024-05-05T10:00:00","80.05","16.25","8.0","VERLEGENHUKEN, NO","FM-12","4","","15","20","","","","","81","","30.29","30.25","","19","090","","11","","","","","","","","","","","","","","","","","","","","","","","","","","","","","","","","","","","","","","","","","","","","","","","","","","","","","","","","","","","","","","","","","","","","","","","","","","","","","","","","","","","","","","","","","","","SYN07601002 46/// /0905 11067 21095 30244 40256 54003 333 11065 21067 90710 91106=","","","","","","","","","",""
"01002099999","2024-05-05T16:00:00","80.05","16.25","8.0","VERLEGENHUKEN, NO","FM-12","4","","15","19","","","","","86","","30.29","30.25","","18","130","","11","","","","","","","","","","","","","","","","","","","","","","","","","","","","","","","","","","","","","","","","","","","","","","","","","","","","","","","","","","","","","","","","","","","","","","","","","","","","","","","","","","","","","","","","","","","SYN07601002 46/// /1305 11072 21092 30244 40256 54002 333 11071 21073 90710 91106=","","","","","","","","","",""
"01002099999","2024-05-05T22:00:00","80.05","16.25","8.0","VERLEGENHUKEN, NO","FM-12","4","","16","20","","","+0.01","7","87","","30.27","30.23","","19","140","","7","","","","","","","","","","","","","","","","","","","","","","","","","","","","","","","","","","","","","","","","","","","","","","","","","","","","","","","","","","","","","","","","","","","","","","","","","","","","","","","","","","","","","","","","","","","SYN07601002 46/// /1403 11069 21088 30237 40249 57004 333 11068 21069 90710 91104=","","","","","","","","","",""
"01002099999","2024-05-06T04:00:00","80.05","16.25","8.0","VERLEGENHUKEN, NO","FM-12","4","","17","21","","","+0.02","7","86","","30.23","30.20","","20","260","","16","","","","","","","","","","","","","","","","","","","","","","","","","","","","","","","","","","","","","","","","","","","","","","","","","","","","","","","","","","","","","","","","","","","","","","","","","","","","","","","","","","","","","","","","","","","SYN07601002 46/// /2607 11063 21083 30226 40238 57007 333 11059 21063 90710 91109=","","","","","","","","","",""
"01002099999","2024-05-06T10:00:00","80.05","16.25","8.0","VERLEGENHUKEN, NO","FM-12","4","","17","22","","","-0.01","2","83","","30.24","30.21","","21","300","","4","","","","","","","","","","","","","","","","","","","","","","","","","","","","","","","","","","","","","","","","","","","","","","","","","","","","","","","","","","","","","","","","","","","","","","","","","","","","","","","","","","","","","","","","","","","SYN07601002 46/// /3002 11058 21082 30229 40241 52005 333 11057 21059 90710 91106=","","","","","","","","","",""
"01002099999","2024-05-06T16:00:00","80.05","16.25","8.0","VERLEGENHUKEN, NO","FM-12","4","","17","23","","","-0.01","2","79","","30.26","30.22","","21","190","","9","","","","","","","","","","","","","","","","","","","","","","","","","","","","","","","","","","","","","","","","","","","","","","","","","","","","","","","","","","","","","","","","","","","","","","","","","","","","","","","","","","","","","","","","","","","SYN07601002 46/// /1904 11049 21081 30234 40246 52003 333 11049 21051 90710 91105=","","","","","","","","","",""
"01002099999","2024-05-06T22:00:00","80.05","16.25","8.0","VERLEGENHUKEN, NO","FM-12","4","","17","22","","","","","78","","30.24","30.21","","21","150","","11","","","","","","","","","","","","","","","","","","","","","","","","","","","","","","","","","","","","","","","","","","","","","","","","","","","","","","","","","","","","","","","","","","","","","","","","","","","","","","","","","","","","","","","","","","","SYN07601002 46/// /1505 11053 21086 30229 40241 54002 333 11050 21054 90710 91105=","","","","","","","","","",""
"01002099999","2024-05-07T10:00:00","80.05","16.25","8.0","VERLEGENHUKEN, NO","FM-12","4","","22","27","","","+0.01","7","81","","30.22","30.18","","25","130","","16","","","","","","","","","","","","","","","","","","","","","","","","","","","","","","","","","","","","","","","","","","","","","","","","","","","","","","","","","","","","","","","","","","","","","","","","","","","","","","","","","","","","","","","","","","","SYN07601002 46/// /1307 11030 21058 30219 40232 57003 333 11021 21030 90710 91108=","","","","","","","","","",""
"01002099999","2024-05-07T16:00:00","80.05","16.25","8.0","VERLEGENHUKEN, NO","FM-12","4","","25","29","","","","","85","","30.21","30.17","","28","140","","20","","","","","","","","","","","","","","","","","","","","","","","","","","","","","","","","","","","","","","","","","","","","","","","","","","","","","","","","","","","","","","","","","","","","","","","","","","","","","","","","","","","","","","","","","","","SYN07601002 46/// /1409 11019 21041 30217 40229 54001 333 11015 21020 90710 91109=","","","","","","","","","",""
"01002099999","2024-05-07T22:00:00","80.05","16.25","8.0","VERLEGENHUKEN, NO","FM-12","4","","25","32","","","0.00","4","76","","30.19","30.16","","29","134","17","13","","","","","","","","","","","","","","","","","","","","","","","","","","","","","","","","","","","","","","","","","","","","","","","","","","","","","","","","","","","","","","","","","","","","","","","","","","","","","","","","","","","","","","","","","","","SYN004BUFR","","","","","","","","","",""
"01002099999","2024-05-08T04:00:00","80.05","16.25","8.0","VERLEGENHUKEN, NO","FM-12","4","","26","30","","","-0.01","2","86","","30.21","30.17","","29","130","","9","","","","","","","","","","","","","","","","","","","","","","","","","","","","","","","","","","","","","","","","","","","","","","","","","","","","","","","","","","","","","","","","","","","","","","","","","","","","","","","","","","","","","","","","","","","SYN07601002 46/// /1304 11011 21032 30217 40229 52003 333 11005 21012 90710 91108=","","","","","","","","","",""
"01002099999","2024-05-08T16:00:00","80.05","16.25","8.0","VERLEGENHUKEN, NO","FM-12","4","","28","32","","","","","84","","30.22","30.18","","31","140","","13","","","","","","","","","","","","","","","","","","","","","","","","","","","","","","","","","","","","","","","","","","","","","","","","","","","","","","","","","","","","","","","","","","","","","","","","","","","","","","","","","","","","","","","","","","","SYN07601002 46/// /1406 10002 21022 30221 40233 54002 333 10007 21002 90710 91106=","","","","","","","","","",""
"01002099999","2024-05-08T22:00:00","80.05","16.25","8.0","VERLEGENHUKEN, NO","FM-12","4","","27","30","","","+0.03","8","88","","30.16","30.13","","29","110","","20","","","","","","","","","","","","","","","","","","","","","","","","","","","","","","","","","","","","","","","","","","","","","","","","","","","","","","","","","","","","","","","","","","","","","","","","","","","","","","","","","","","","","","","","","","","SYN07601002 46/// /1109 11011 21029 30203 40215 58010 333 11008 21011 90710 91110=","","","","","","","","","",""
"01002099999","2024-05-09T04:00:00","80.05","16.25","8.0","VERLEGENHUKEN, NO","FM-12","4","","18","25","","","+0.01","7","74","","30.14","30.10","","23","140","","11","","","","","","","","","","","","","","","","","","","","","","","","","","","","","","","","","","","","","","","","","","","","","","","","","","","","","","","","","","","","","","","","","","","","","","","","","","","","","","","","","","","","","","","","","","","SYN07601002 46/// /1405 11037 21077 30193 40205 57005 333 11021 21037 90710 91108=","","","","","","","","","",""
"01002099999","2024-05-09T10:00:00","80.05","16.25","8.0","VERLEGENHUKEN, NO","FM-12","4","","24","32","","","+0.03","6","73","","30.06","30.02","","29","140","","29","","","","","","","","","","","","","","","","","","","","","","","","","","","","","","","","","","","","","","","","","","","","","","","","","","","","","","","","","","","","","","","","","","","","","","","","","","","","","","","","","","","","","","","","","","","SYN07601002 46/// /1413 11002 21045 30167 40179 56010 333 10001 21003 90710 91116=","","","","","","","","","",""
"01002099999","2024-05-09T16:00:00","80.05","16.25","8.0","VERLEGENHUKEN, NO","FM-12","4","","23","29","","","+0.03","7","79","","30.04","30.00","","27","130","","34","","","","","","","","","","","","","","","","","","","","","","","","","","","","","","","","","","","","","","","","","","","","","","","","","","","","","","","","","","","","","","","","","","","","","","","","","","","","","","","","","","","","","","","","","","","SYN07601002 46/// /1315 11019 21051 30160 40172 57010 333 11015 21019 90710 91119=","","","","","","","","","",""
"01002099999","2024-05-09T22:00:00","80.05","16.25","8.0","VERLEGENHUKEN, NO","FM-12","4","","23","28","","","0.02","9","80","","30.04","30.00","","26","150","","31","","","","","","","","","","","","","","","","","","","","","","","","","","","","","","","","","","","","","","","","","","","","","","","","","","","","","","","","","","","","","","","","","","","","","","","","","","","","","","","","","","","","","","","","","","","SYN07601002 46/// /1514 11021 21052 30160 40172 50006 333 11016 21022 90710 91117=","","","","","","","","","",""
"01002099999","2024-05-10T10:00:00","80.05","16.25","8.0","VERLEGENHUKEN, NO","FM-12","4","","22","26","","","-0.02","2","86","","30.11","30.07","","25","130","","31","","","","","","","","","","","","","","","","","","","","","","","","","","","","","","","","","","","","","","","","","","","","","","","","","","","","","","","","","","","","","","","","","","","","","","","","","","","","","","","","","","","","","","","","","","","SYN07601002 46/// /1314 11032 21053 30184 40196 52008 333 11032 21034 90710 91117=","","","","","","","","","",""
"01002099999","2024-05-10T16:00:00","80.05","16.25","8.0","VERLEGENHUKEN, NO","FM-12","4","","24","28","","","+0.01","7","85","","30.09","30.06","","27","130","","34","","","","","","","","","","","","","","","","","","","","","","","","","","","","","","","","","","","","","","","","","","","","","","","","","","","","","","","","","","","","","","","","","","","","","","","","","","","","","","","","","","","","","","","","","","","SYN07601002 46/// /1315 11022 21044 30179 40191 57005 333 11021 21023 90710 91119=","","","","","","","","","",""
"01002099999","2024-05-10T22:00:00","80.05","16.25","8.0","VERLEGENHUKEN, NO","FM-12","4","","22","26","","","+0.02","7","86","","30.05","30.02","","25","130","","29","","","","","","","","","","","","","","","","","","","","","","","","","","","","","","","","","","","","","","","","","","","","","","","","","","","","","","","","","","","","","","","","","","","","","","","","","","","","","","","","","","","","","","","","","","","SYN07601002 46/// /1313 11034 21054 30165 40177 57006 333 11027 21035 90710 91116=","","","","","","","","","",""
"01002099999","2024-05-11T04:00:00","80.05","16.25","8.0","VERLEGENHUKEN, NO","FM-12","4","","21","26","","","+0.02","5","81","","30.01","29.97","","24","130","","27","","","","","","","","","","","","","","","","","","","","","","","","","","","","","","","","","","","","","","","","","","","","","","","","","","","","","","","","","","","","","","","","","","","","","","","","","","","","","","","","","","","","","","","","","","","SYN07601002 46/// /1312 11034 21063 30149 40161 55008 333 11033 21038 90710 91114=","","","","","","","","","",""
"01002099999","2024-05-11T10:00:00","80.05","16.25","8.0","VERLEGENHUKEN, NO","FM-12","4","","21","27","","","+0.03","7","78","","29.91","29.88","","25","140","","29","","","","","","","","","","","","","","","","","","","","","","","","","","","","","","","","","","","","","","","","","","","","","","","","","","","","","","","","","","","","","","","","","","","","","","","","","","","","","","","","","","","","","","","","","","","SYN07601002 46/// /1413 11025 21059 30118 40130 57010 333 11025 21031 90710 91115=","","","","","","","","","",""
"01002099999","2024-05-11T16:00:00","80.05","16.25","8.0","VERLEGENHUKEN, NO","FM-12","4","","22","30","","","+0.05","8","73","","29.84","29.80","","27","140","","22","","","","","","","","","","","","","","","","","","","","","","","","","","","","","","","","","","","","","","","","","","","","","","","","","","","","","","","","","","","","","","","","","","","","","","","","","","","","","","","","","","","","","","","","","","","SYN07601002 46/// /1410 11011 21053 30093 40105 58017 333 11010 21013 90710 91113=","","","","","","","","","",""
"01002099999","2024-05-11T22:00:00","80.05","16.25","8.0","VERLEGENHUKEN, NO","FM-12","4","","22","27","","","+0.02","7","79","","29.78","29.75","","25","150","","11","","","","","","","","","","","","","","","","","","","","","","","","","","","","","","","","","","","","","","","","","","","","","","","","","","","","","","","","","","","","","","","","","","","","","","","","","","","","","","","","","","","","","","","","","","","SYN07601002 46/// /1505 11027 21058 30074 40086 57007 333 11013 21027 90710 91107=","","","","","","","","","",""
"01002099999","2024-05-12T04:00:00","80.05","16.25","8.0","VERLEGENHUKEN, NO","FM-12","4","","26","29","","","0.00","9","91","","29.79","29.75","","28","300","","9","","","","","","","","","","","","","","","","","","","","","","","","","","","","","","","","","","","","","","","","","","","","","","","","","","","","","","","","","","","","","","","","","","","","","","","","","","","","","","","","","","","","","","","","","","","SYN07601002 46/// /3004 11019 21032 30075 40087 50001 333 11004 21019 90710 91106=","","","","","","","","","",""
"01002099999","2024-05-12T10:00:00","80.05","16.25","8.0","VERLEGENHUKEN, NO","FM-12","4","","26","31","","","-0.02","2","80","","29.83","29.80","","29","260","","13","","","","","","","","","","","","","","","","","","","","","","","","","","","","","","","","","","","","","","","","","","","","","","","","","","","","","","","","","","","","","","","","","","","","","","","","","","","","","","","","","","","","","","","","","","","SYN07601002 46/// /2606 11006 21036 30091 40103 52008 333 11006 21011 90710 91107=","","","","","","","","","",""
"01002099999","2024-05-12T16:00:00","80.05","16.25","8.0","VERLEGENHUKEN, NO","FM-12","4","","26","34","","","","","73","","29.85","29.82","","31","180","","7","","","","","","","","","","","","","","","","","","","","","","","","","","","","","","","","","","","","","","","","","","","","","","","","","","","","","","","","","","","","","","","","","","","","","","","","","","","","","","","","","","","","","","","","","","","SYN07601002 46/// /1803 10011 21032 30098 40110 54001 333 10013 20004 90710 91104=","","","","","","","","","",""
"01002099999","2024-05-12T22:00:00","80.05","16.25","8.0","VERLEGENHUKEN, NO","FM-12","4","","28","30","","","0.00","4","93","","29.84","29.80","","29","090","","4","","","","","","","","","","","","","","","","","","","","","","","","","","","","","","","","","","","","","","","","","","","","","","","","","","","","","","","","","","","","","","","","","","","","","","","","","","","","","","","","","","","","","","","","","","","SYN07601002 46/// /0902 11010 21020 30093 40105 54000 333 11009 21010 90710 91103=","","","","","","","","","",""
"01002099999","2024-05-13T04:00:00","80.05","16.25","8.0","VERLEGENHUKEN, NO","FM-12","4","","29","30","","","-0.01","2","95","","29.87","29.83","","30","300","","2","","","","","","","","","","","","","","","","","","","","","","","","","","","","","","","","","","","","","","","","","","","","","","","","","","","","","","","","","","","","","","","","","","","","","","","","","","","","","","","","","","","","","","","","","","","SYN07601002 46/// /3001 11011 21018 30102 40114 52005 333 11008 21012 90710 91104=","","","","","","","","","",""
"01002099999","2024-05-13T10:00:00","80.05","16.25","8.0","VERLEGENHUKEN, NO","FM-12","4","","22","30","","","","","71","","29.89","29.85","","27","180","","7","","","","","","","","","","","","","","","","","","","","","","","","","","","","","","","","","","","","","","","","","","","","","","","","","","","","","","","","","","","","","","","","","","","","","","","","","","","","","","","","","","","","","","","","","","","SYN07601002 46/// /1803 11010 21057 30109 40121 54003 333 10000 21010 90710 91104=","","","","","","","","","",""
"01002099999","2024-05-13T16:00:00","80.05","16.25","8.0","VERLEGENHUKEN, NO","FM-12","4","","22","31","","","+0.01","7","70","","29.88","29.85","","28","170","","7","","","","","","","","","","","","","","","","","","","","","","","","","","","","","","","","","","","","","","","","","","","","","","","","","","","","","","","","","","","","","","","","","","","","","","","","","","","","","","","","","","","","","","","","","","","SYN07601002 46/// /1703 11006 21055 30108 40120 57004 333 10007 21009 90710 91104=","","","","","","","","","",""
"01002099999","2024-05-13T22:00:00","80.05","16.25","8.0","VERLEGENHUKEN, NO","FM-12","4","","19","29","","","+0.01","7","66","","29.86","29.82","","26","140","","9","","","","","","","","","","","","","","","","","","","","","","","","","","","","","","","","","","","","","","","","","","","","","","","","","","","","","","","","","","","","","","","","","","","","","","","","","","","","","","","","","","","","","","","","","","","SYN07601002 46/// /1404 11016 21072 30099 40111 57004 333 11002 21028 90710 91104=","","","","","","","","","",""
"01002099999","2024-05-14T04:00:00","80.05","16.25","8.0","VERLEGENHUKEN, NO","FM-12","4","","17","26","","","+0.03","7","70","","29.81","29.78","","23","170","","7","","","","","","","","","","","","","","","","","","","","","","","","","","","","","","","","","","","","","","","","","","","","","","","","","","","","","","","","","","","","","","","","","","","","","","","","","","","","","","","","","","","","","","","","","","","SYN07601002 46/// /1703 11035 21083 30083 40095 57009 333 11031 21038 90710 91104=","","","","","","","","","",""
"01002099999","2024-05-14T10:00:00","80.05","16.25","8.0","VERLEGENHUKEN, NO","FM-12","4","","21","26","","","+0.01","7","81","","29.76","29.72","","24","130","","11","","","","","","","","","","","","","","","","","","","","","","","","","","","","","","","","","","","","","","","","","","","","","","","","","","","","","","","","","","","","","","","","","","","","","","","","","","","","","","","","","","","","","","","","","","","SYN07601002 46/// /1305 11033 21061 30066 40078 57005 333 11031 21046 90710 91106=","","","","","","","","","",""
"01002099999","2024-05-14T16:00:00","80.05","16.25","8.0","VERLEGENHUKEN, NO","FM-12","4","","23","28","","","+0.04","7","81","","29.71","29.67","","26","130","","13","","","","","","","","","","","","","","","","","","","","","","","","","","","","","","","","","","","","","","","","","","","","","","","","","","","","","","","","","","","","","","","","","","","","","","","","","","","","","","","","","","","","","","","","","","","SYN07601002 46/// /1306 11022 21050 30048 40060 57012 333 11022 21028 90710 91107=","","","","","","","","","",""
"01002099999","2024-05-14T22:00:00","80.05","16.25","8.0","VERLEGENHUKEN, NO","FM-12","4","","26","29","","","","","88","","29.70","29.66","","28","130","","9","","","","","","","","","","","","","","","","","","","","","","","","","","","","","","","","","","","","","","","","","","","","","","","","","","","","","","","","","","","","","","","","","","","","","","","","","","","","","","","","","","","","","","","","","","","SYN07601002 46/// /1304 11018 21035 30045 40057 54002 333 11017 21018 90710 91104=","","","","","","","","","",""
"01002099999","2024-05-15T04:00:00","80.05","16.25","8.0","VERLEGENHUKEN, NO","FM-12","4","","21","26","","","-0.04","2","82","","29.77","29.74","","24","010","","20","","","","","","","","","","","","","","","","","","","","","","","","","","","","","","","","","","","","","","","","","","","","","","","","","","","","","","","","","","","","","","","","","","","","","","","","","","","","","","","","","","","","","","","","","","","SYN07601002 46/// /0109 11035 21061 30070 40082 52015 333 11032 21036 90710 91110=","","","","","","","","","",""
"01002099999","2024-05-15T10:00:00","80.05","16.25","8.0","VERLEGENHUKEN, NO","FM-12","4","","16","22","","","-0.06","2","76","","29.88","29.85","","20","350","","13","","","","","","","","","","","","","","","","","","","","","","","","","","","","","","","","","","","","","","","","","","","","","","","","","","","","","","","","","","","","","","","","","","","","","","","","","","","","","","","","","","","","","","","","","","","SYN07601002 46/// /3506 11054 21090 30107 40119 52021 333 11051 21055 90710 91108=","","","","","","","","","",""
"01002099999","2024-05-15T16:00:00","80.05","16.25","8.0","VERLEGENHUKEN, NO","FM-12","4","","15","22","","","-0.04","2","74","","29.96","29.93","","20","320","","11","","","","","","","","","","","","","","","","","","","","","","","","","","","","","","","","","","","","","","","","","","","","","","","","","","","","","","","","","","","","","","","","","","","","","","","","","","","","","","","","","","","","","","","","","","","SYN07601002 46/// /3205 11058 21097 30135 40147 52012 333 11057 21059 90710 91106=","","","","","","","","","",""
"01002099999","2024-05-15T22:00:00","80.05","16.25","8.0","VERLEGENHUKEN, NO","FM-12","4","","15","22","","","-0.03","1","76","","30.03","30.00","","20","310","","11","","","","","","","","","","","","","","","","","","","","","","","","","","","","","","","","","","","","","","","","","","","","","","","","","","","","","","","","","","","","","","","","","","","","","","","","","","","","","","","","","","","","","","","","","","","SYN07601002 46/// /3105 11056 21092 30158 40170 51011 333 11056 21059 90710 91108=","","","","","","","","","",""
"01002099999","2024-05-16T04:00:00","80.05","16.25","8.0","VERLEGENHUKEN, NO","FM-12","4","","14","22","","","-0.02","1","70","","30.08","30.04","","20","310","","20","","","","","","","","","","","","","","","","","","","","","","","","","","","","","","","","","","","","","","","","","","","","","","","","","","","","","","","","","","","","","","","","","","","","","","","","","","","","","","","","","","","","","","","","","","","SYN07601002 46/// /3109 11054 21100 30172 40185 51007 333 11046 21055 90710 91112=","","","","","","","","","",""
"01002099999","2024-05-16T10:00:00","80.05","16.25","8.0","VERLEGENHUKEN, NO","FM-12","4","","18","25","","","0.00","4","74","","30.13","30.09","","23","290","","25","","","","","","","","","","","","","","","","","","","","","","","","","","","","","","","","","","","","","","","","","","","","","","","","","","","","","","","","","","","","","","","","","","","","","","","","","","","","","","","","","","","","","","","","","","","SYN07601002 46/// /2911 11037 21078 30190 40202 54000 333 11036 21043 90710 91114=","","","","","","","","","",""
"01002099999","2024-05-16T16:00:00","80.05","16.25","8.0","VERLEGENHUKEN, NO","FM-12","4","","18","26","","","-0.04","3","73","","30.19","30.15","","23","300","","29","","","","","","","","","","","","","","","","","","","","","","","","","","","","","","","","","","","","","","","","","","","","","","","","","","","","","","","","","","","","","","","","","","","","","","","","","","","","","","","","","","","","","","","","","","","SYN07601002 46/// /3013 11034 21076 30210 40222 53013 333 11033 21036 90710 91117=","","","","","","","","","",""
"01002099999","2024-05-16T22:00:00","80.05","16.25","8.0","VERLEGENHUKEN, NO","FM-12","4","","18","28","","","0.01","9","66","","30.19","30.16","","25","290","","29","","","","","","","","","","","","","","","","","","","","","","","","","","","","","","","","","","","","","","","","","","","","","","","","","","","","","","","","","","","","","","","","","","","","","","","","","","","","","","","","","","","","","","","","","","","SYN07601002 46/// /2913 11022 21078 30212 40224 50002 333 11019 21023 90710 91115=","","","","","","","","","",""
"01002099999","2024-05-17T04:00:00","80.05","16.25","8.0","VERLEGENHUKEN, NO","FM-12","4","","20","27","","","+0.01","6","76","","30.18","30.14","","25","280","","22","","","","","","","","","","","","","","","","","","","","","","","","","","","","","","","","","","","","","","","","","","","","","","","","","","","","","","","","","","","","","","","","","","","","","","","","","","","","","","","","","","","","","","","","","","","SYN07601002 46/// /2810 11028 21065 30208 40221 56005 333 11026 21030 90710 91112=","","","","","","","","","",""
"01002099999","2024-05-17T10:00:00","80.05","16.25","8.0","VERLEGENHUKEN, NO","FM-12","4","","21","27","","","+0.01","7","78","","30.13","30.10","","25","250","","18","","","","","","","","","","","","","","","","","","","","","","","","","","","","","","","","","","","","","","","","","","","","","","","","","","","","","","","","","","","","","","","","","","","","","","","","","","","","","","","","","","","","","","","","","","","SYN07601002 46/// /2508 11025 21059 30192 40204 57004 333 11024 21028 90710 91111=","","","","","","","","","",""
"01002099999","2024-05-17T16:00:00","80.05","16.25","8.0","VERLEGENHUKEN, NO","FM-12","4","","22","26","","","+0.04","7","85","","30.05","30.01","","25","320","","11","","","","","","","","","","","","","","","","","","","","","","","","","","","","","","","","","","","","","","","","","","","","","","","","","","","","","","","","","","","","","","","","","","","","","","","","","","","","","","","","","","","","","","","","","","","SYN07601002 46/// /3205 11031 21053 30164 40176 57012 333 11030 21034 90710 91109=","","","","","","","","","",""
"01002099999","2024-05-17T22:00:00","80.05","16.25","8.0","VERLEGENHUKEN, NO","FM-12","4","","19","25","","","+0.04","7","77","","29.97","29.93","","23","320","","9","","","","","","","","","","","","","","","","","","","","","","","","","","","","","","","","","","","","","","","","","","","","","","","","","","","","","","","","","","","","","","","","","","","","","","","","","","","","","","","","","","","","","","","","","","","SYN07601002 46/// /3204 11037 21072 30136 40148 57014 333 11035 21037 90710 91105=","","","","","","","","","",""
"01002099999","2024-05-18T04:00:00","80.05","16.25","8.0","VERLEGENHUKEN, NO","FM-12","4","","19","23","","","+0.05","7","85","","29.89","29.85","","22","340","","13","","","","","","","","","","","","","","","","","","","","","","","","","","","","","","","","","","","","","","","","","","","","","","","","","","","","","","","","","","","","","","","","","","","","","","","","","","","","","","","","","","","","","","","","","","","SYN07601002 46/// /3406 11050 21072 30110 40122 57016 333 11045 21052 90710 91107=","","","","","","","","","",""
"01002099999","2024-05-18T10:00:00","80.05","16.25","8.0","VERLEGENHUKEN, NO","FM-12","4","","16","23","","","+0.02","7","76","","29.84","29.80","","21","200","","4","","","","","","","","","","","","","","","","","","","","","","","","","","","","","","","","","","","","","","","","","","","","","","","","","","","","","","","","","","","","","","","","","","","","","","","","","","","","","","","","","","","","","","","","","","","SYN07601002 46/// /2002 11051 21087 30093 40105 57007 333 11050 21053 90710 91104=","","","","","","","","","",""
"01002099999","2024-05-18T16:00:00","80.05","16.25","8.0","VERLEGENHUKEN, NO","FM-12","4","","14","21","","","","","74","","29.82","29.78","","19","020","","11","","","","","","","","","","","","","","","","","","","","","","","","","","","","","","","","","","","","","","","","","","","","","","","","","","","","","","","","","","","","","","","","","","","","","","","","","","","","","","","","","","","","","","","","","","","SYN07601002 46/// /0205 11062 21101 30085 40097 54002 333 11059 21063 90710 91108=","","","","","","","","","",""
"01002099999","2024-05-18T22:00:00","80.05","16.25","8.0","VERLEGENHUKEN, NO","FM-12","4","","13","20","","","","","75","","29.79","29.75","","18","010","","7","","","","","","","","","","","","","","","","","","","","","","","","","","","","","","","","","","","","","","","","","","","","","","","","","","","","","","","","","","","","","","","","","","","","","","","","","","","","","","","","","","","","","","","","","","","SYN07601002 46/// /0103 11065 21103 30075 40087 54002 333 11060 21067 90710 91107=","","","","","","","","","",""
"01002099999","2024-05-19T04:00:00","80.05","16.25","8.0","VERLEGENHUKEN, NO","FM-12","4","","16","20","","","+0.00","5","87","","29.78","29.74","","19","360","","7","","","","","","","","","","","","","","","","","","","","","","","","","","","","","","","","","","","","","","","","","","","","","","","","","","","","","","","","","","","","","","","","","","","","","","","","","","","","","","","","","","","","","","","","","","","SYN07601002 46/// /3603 11069 21088 30071 40083 55001 333 11057 21069 90710 91108=","","","","","","","","","",""
"01002099999","2024-05-19T10:00:00","80.05","16.25","8.0","VERLEGENHUKEN, NO","FM-12","4","","15","21","","","-0.01","2","78","","29.80","29.76","","19","080","","16","","","","","","","","","","","","","","","","","","","","","","","","","","","","","","","","","","","","","","","","","","","","","","","","","","","","","","","","","","","","","","","","","","","","","","","","","","","","","","","","","","","","","","","","","","","SYN07601002 46/// /0807 11062 21095 30078 40090 52004 333 11061 21065 90710 91108=","","","","","","","","","",""
"01002099999","2024-05-19T16:00:00","80.05","16.25","8.0","VERLEGENHUKEN, NO","FM-12","4","","15","21","","","-0.01","2","78","","29.83","29.80","","19","050","","20","","","","","","","","","","","","","","","","","","","","","","","","","","","","","","","","","","","","","","","","","","","","","","","","","","","","","","","","","","","","","","","","","","","","","","","","","","","","","","","","","","","","","","","","","","","SYN07601002 46/// /0509 11060 21093 30090 40102 52004 333 11056 21065 90710 91111=","","","","","","","","","",""
"01002099999","2024-05-19T22:00:00","80.05","16.25","8.0","VERLEGENHUKEN, NO","FM-12","4","","18","22","","","-0.03","2","82","","29.87","29.84","","21","040","","20","","","","","","","","","","","","","","","","","","","","","","","","","","","","","","","","","","","","","","","","","","","","","","","","","","","","","","","","","","","","","","","","","","","","","","","","","","","","","","","","","","","","","","","","","","","SYN07601002 46/// /0409 11054 21080 30104 40116 52010 333 11052 21055 90710 91111=","","","","","","","","","",""
"01002099999","2024-05-20T04:00:00","80.05","16.25","8.0","VERLEGENHUKEN, NO","FM-12","4","","15","21","","","-0.04","3","78","","29.94","29.91","","19","030","","18","","","","","","","","","","","","","","","","","","","","","","","","","","","","","","","","","","","","","","","","","","","","","","","","","","","","","","","","","","","","","","","","","","","","","","","","","","","","","","","","","","","","","","","","","","","SYN07601002 46/// /0308 11061 21093 30128 40140 53013 333 11057 21061 90710 91111=","","","","","","","","","",""
"01002099999","2024-05-20T10:00:00","80.05","16.25","8.0","VERLEGENHUKEN, NO","FM-12","4","","15","22","","","-0.04","2","74","","29.99","29.96","","20","350","","13","","","","","","","","","","","","","","","","","","","","","","","","","","","","","","","","","","","","","","","","","","","","","","","","","","","","","","","","","","","","","","","","","","","","","","","","","","","","","","","","","","","","","","","","","","","SYN07601002 46/// /3506 11054 21093 30144 40156 52012 333 11054 21059 90710 91109=","","","","","","","","","",""
"01002099999","2024-05-20T22:00:00","80.05","16.25","8.0","VERLEGENHUKEN, NO","FM-12","4","","17","22","","","-0.01","2","78","","30.08","30.05","","21","360","","16","","","","","","","","","","","","","","","","","","","","","","","","","","","","","","","","","","","","","","","","","","","","","","","","","","","","","","","","","","","","","","","","","","","","","","","","","","","","","","","","","","","","","","","","","","","SYN07601002 46/// /3607 11053 21086 30175 40187 52004 333 11051 21055 90710 91108=","","","","","","","","","",""
"01002099999","2024-05-21T01:00:00","80.05","16.25","8.0","VERLEGENHUKEN, NO","FM-12","4","","15","22","","","-0.02","2","73","","30.10","30.07","","20","339","19","13","","","","","","","","","","","","","","","","","","","","","","","","","","","","","","","","","","","","","","","","","","","","","","","","","","","","","","","","","","","","","","","","","","","","","","","","","","","","","","","","","","","","","","","","","","","SYN004BUFR","","","","","","","","","",""
"01002099999","2024-05-21T04:00:00","80.05","16.25","8.0","VERLEGENHUKEN, NO","FM-12","4","","16","22","","","+0.00","7","76","","30.10","30.06","","20","320","","18","","","","","","","","","","","","","","","","","","","","","","","","","","","","","","","","","","","","","","","","","","","","","","","","","","","","","","","","","","","","","","","","","","","","","","","","","","","","","","","","","","","","","","","","","","","SYN07601002 46/// /3208 11054 21090 30181 40193 54001 333 11051 21054 90710 91110=","","","","","","","","","",""
"01002099999","2024-05-21T10:00:00","80.05","16.25","8.0","VERLEGENHUKEN, NO","FM-12","4","","14","21","","","0.00","4","76","","30.09","30.05","","19","300","","25","","","","","","","","","","","","","","","","","","","","","","","","","","","","","","","","","","","","","","","","","","","","","","","","","","","","","","","","","","","","","","","","","","","","","","","","","","","","","","","","","","","","","","","","","","","SYN07601002 46/// /3011 11063 21099 30177 40189 54000 333 11061 21067 90710 91113=","","","","","","","","","",""
"01002099999","2024-05-21T16:00:00","80.05","16.25","8.0","VERLEGENHUKEN, NO","FM-12","4","","14","21","","","-0.02","2","74","","30.13","30.10","","19","310","","16","","","","","","","","","","","","","","","","","","","","","","","","","","","","","","","","","","","","","","","","","","","","","","","","","","","","","","","","","","","","","","","","","","","","","","","","","","","","","","","","","","","","","","","","","","","SYN07601002 46/// /3107 11060 21099 30192 40204 52008 333 11059 21063 90710 91110=","","","","","","","","","",""
"01002099999","2024-05-21T22:00:00","80.05","16.25","8.0","VERLEGENHUKEN, NO","FM-12","4","","19","22","","","0.00","9","87","","30.14","30.10","","21","300","","25","","","","","","","","","","","","","","","","","","","","","","","","","","","","","","","","","","","","","","","","","","","","","","","","","","","","","","","","","","","","","","","","","","","","","","","","","","","","","","","","","","","","","","","","","","","SYN07601002 46/// /3011 11053 21072 30193 40205 50001 333 11049 21054 90710 91113=","","","","","","","","","",""
"01002099999","2024-05-22T04:00:00","80.05","16.25","8.0","VERLEGENHUKEN, NO","FM-12","4","","17","22","","","-0.02","2","82","","30.19","30.16","","21","310","","16","","","","","","","","","","","","","","","","","","","","","","","","","","","","","","","","","","","","","","","","","","","","","","","","","","","","","","","","","","","","","","","","","","","","","","","","","","","","","","","","","","","","","","","","","","","SYN07601002 46/// /3107 11056 21082 30213 40225 52008 333 11054 21061 90710 91108=","","","","","","","","","",""
"01002099999","2024-05-22T10:00:00","80.05","16.25","8.0","VERLEGENHUKEN, NO","FM-12","4","","21","26","","","-0.02","1","81","","30.23","30.19","","24","290","","20","","","","","","","","","","","","","","","","","","","","","","","","","","","","","","","","","","","","","","","","","","","","","","","","","","","","","","","","","","","","","","","","","","","","","","","","","","","","","","","","","","","","","","","","","","","SYN07601002 46/// /2909 11033 21061 30224 40236 51006 333 11032 21036 90710 91110=","","","","","","","","","",""
"01002099999","2024-05-22T16:00:00","80.05","16.25","8.0","VERLEGENHUKEN, NO","FM-12","4","","23","30","","","+0.02","6","76","","30.22","30.19","","28","270","","20","","","","","","","","","","","","","","","","","","","","","","","","","","","","","","","","","","","","","","","","","","","","","","","","","","","","","","","","","","","","","","","","","","","","","","","","","","","","","","","","","","","","","","","","","","","SYN07601002 46/// /2709 11012 21049 30222 40234 56006 333 11010 21014 90710 91111=","","","","","","","","","",""
"01002099999","2024-05-22T22:00:00","80.05","16.25","8.0","VERLEGENHUKEN, NO","FM-12","4","","22","26","","","","","84","","30.22","30.18","","25","320","","11","","","","","","","","","","","","","","","","","","","","","","","","","","","","","","","","","","","","","","","","","","","","","","","","","","","","","","","","","","","","","","","","","","","","","","","","","","","","","","","","","","","","","","","","","","","SYN07601002 46/// /3205 11032 21055 30220 40232 54001 333 11021 21032 90710 91106=","","","","","","","","","",""
"01002099999","2024-05-23T04:00:00","80.05","16.25","8.0","VERLEGENHUKEN, NO","FM-12","4","","20","24","","","+0.04","7","85","","30.16","30.12","","23","030","","7","","","","","","","","","","","","","","","","","","","","","","","","","","","","","","","","","","","","","","","","","","","","","","","","","","","","","","","","","","","","","","","","","","","","","","","","","","","","","","","","","","","","","","","","","","","SYN07601002 46/// /0303 11042 21064 30201 40213 57013 333 11042 21044 90710 91104=","","","","","","","","","",""
"01002099999","2024-05-23T10:00:00","80.05","16.25","8.0","VERLEGENHUKEN, NO","FM-12","4","","22","26","","","+0.07","6","84","","30.02","29.99","","25","070","","20","","","","","","","","","","","","","","","","","","","","","","","","","","","","","","","","","","","","","","","","","","","","","","","","","","","","","","","","","","","","","","","","","","","","","","","","","","","","","","","","","","","","","","","","","","","SYN07601002 46/// /0709 11035 21058 30155 40167 56024 333 11035 21037 90710 91110=","","","","","","","","","",""
"01002099999","2024-05-23T22:00:00","80.05","16.25","8.0","VERLEGENHUKEN, NO","FM-12","4","","22","26","","","+0.06","7","87","","29.65","29.62","","25","120","","36","","","","","","","","","","","","","","","","","","","","","","","","","","","","","","","","","","","","","","","","","","","","","","","","","","","","","","","","","","","","","","","","","","","","","","","","","","","","","","","","","","","","","","","","","","","SYN07601002 46/// /1216 11036 21055 30030 40042 57022 333 11033 21036 90710 91118=","","","","","","","","","",""
"01002099999","2024-05-24T04:00:00","80.05","16.25","8.0","VERLEGENHUKEN, NO","FM-12","4","","21","25","","","0.00","9","84","","29.65","29.61","","24","070","","27","","","","","","","","","","","","","","","","","","","","","","","","","","","","","","","","","","","","","","","","","","","","","","","","","","","","","","","","","","","","","","","","","","","","","","","","","","","","","","","","","","","","","","","","","","","SYN07601002 46/// /0712 11039 21062 30027 40039 50000 333 11037 21039 90710 91114=","","","","","","","","","",""
"01002099999","2024-05-24T10:00:00","80.05","16.25","8.0","VERLEGENHUKEN, NO","FM-12","4","","15","22","","","-0.06","3","76","","29.75","29.71","","20","020","","16","","","","","","","","","","","","","","","","","","","","","","","","","","","","","","","","","","","","","","","","","","","","","","","","","","","","","","","","","","","","","","","","","","","","","","","","","","","","","","","","","","","","","","","","","","","SYN07601002 46/// /0207 11056 21092 30061 40073 53022 333 11054 21060 90710 91111=","","","","","","","","","",""
"01002099999","2024-05-24T16:00:00","80.05","16.25","8.0","VERLEGENHUKEN, NO","FM-12","4","","16","22","","","-0.03","2","78","","29.83","29.80","","20","310","","22","","","","","","","","","","","","","","","","","","","","","","","","","","","","","","","","","","","","","","","","","","","","","","","","","","","","","","","","","","","","","","","","","","","","","","","","","","","","","","","","","","","","","","","","","","","SYN07601002 46/// /3110 11057 21090 30090 40102 52010 333 11054 21060 90710 91112=","","","","","","","","","",""
"01002099999","2024-05-24T19:00:00","80.05","16.25","8.0","VERLEGENHUKEN, NO","FM-12","4","","16","21","","","-0.02","2","81","","29.85","29.82","","20","304","32","25","","","","","","","","","","","","","","","","","","","","","","","","","","","","","","","","","","","","","","","","","","","","","","","","","","","","","","","","","","","","","","","","","","","","","","","","","","","","","","","","","","","","","","","","","","","SYN004BUFR","","","","","","","","","",""
"01002099999","2024-05-24T22:00:00","80.05","16.25","8.0","VERLEGENHUKEN, NO","FM-12","4","","17","20","","","-0.02","2","86","","29.88","29.85","","19","290","","27","","","","","","","","","","","","","","","","","","","","","","","","","","","","","","","","","","","","","","","","","","","","","","","","","","","","","","","","","","","","","","","","","","","","","","","","","","","","","","","","","","","","","","","","","","","SYN07601002 46/// /2912 11065 21085 30107 40119 52008 333 11058 21066 90710 91115=","","","","","","","","","",""
"01002099999","2024-05-25T01:00:00","80.05","16.25","8.0","VERLEGENHUKEN, NO","FM-12","4","","18","21","","","0.00","4","86","","29.88","29.85","","20","290","37","32","","","","","","","","","","","","","","","","","","","","","","","","","","","","","","","","","","","","","","","","","","","","","","","","","","","","","","","","","","","","","","","","","","","","","","","","","","","","","","","","","","","","","","","","","","","SYN004BUFR","","","","","","","","","",""
"01002099999","2024-05-25T04:00:00","80.05","16.25","8.0","VERLEGENHUKEN, NO","FM-12","4","","19","23","","","+0.01","6","84","","29.87","29.84","","22","280","","34","","","","","","","","","","","","","","","","","","","","","","","","","","","","","","","","","","","","","","","","","","","","","","","","","","","","","","","","","","","","","","","","","","","","","","","","","","","","","","","","","","","","","","","","","","","SYN07601002 46/// /2815 11048 21071 30104 40116 56003 333 11047 21058 90710 91119=","","","","","","","","","",""
"01002099999","2024-05-25T16:00:00","80.05","16.25","8.0","VERLEGENHUKEN, NO","FM-12","4","","24","29","","","+0.03","7","81","","29.80","29.76","","27","280","","34","","","","","","","","","","","","","","","","","","","","","","","","","","","","","","","","","","","","","","","","","","","","","","","","","","","","","","","","","","","","","","","","","","","","","","","","","","","","","","","","","","","","","","","","","","","SYN07601002 46/// /2815 11019 21047 30079 40091 57010 333 11019 21023 90710 91117=","","","","","","","","","",""
"01002099999","2024-05-25T22:00:00","80.05","16.25","8.0","VERLEGENHUKEN, NO","FM-12","4","","22","26","","","+0.02","8","84","","29.75","29.72","","25","310","","25","","","","","","","","","","","","","","","","","","","","","","","","","","","","","","","","","","","","","","","","","","","","","","","","","","","","","","","","","","","","","","","","","","","","","","","","","","","","","","","","","","","","","","","","","","","SYN07601002 46/// /3111 11034 21057 30063 40075 58007 333 11029 21034 90710 91114=","","","","","","","","","",""
"01002099999","2024-05-26T04:00:00","80.05","16.25","8.0","VERLEGENHUKEN, NO","FM-12","4","","17","24","","","-0.02","2","76","","29.77","29.73","","22","300","","29","","","","","","","","","","","","","","","","","","","","","","","","","","","","","","","","","","","","","","","","","","","","","","","","","","","","","","","","","","","","","","","","","","","","","","","","","","","","","","","","","","","","","","","","","","","SYN07601002 46/// /3013 11046 21082 30069 40081 52007 333 11043 21048 90710 91115=","","","","","","","","","",""
"01002099999","2024-05-26T10:00:00","80.05","16.25","8.0","VERLEGENHUKEN, NO","FM-12","4","","22","27","","","+0.01","8","81","","29.75","29.72","","25","290","","31","","","","","","","","","","","","","","","","","","","","","","","","","","","","","","","","","","","","","","","","","","","","","","","","","","","","","","","","","","","","","","","","","","","","","","","","","","","","","","","","","","","","","","","","","","","SYN07601002 46/// /2914 11030 21058 30063 40075 58004 333 11026 21033 90710 91116=","","","","","","","","","",""
"01002099999","2024-05-26T16:00:00","80.05","16.25","8.0","VERLEGENHUKEN, NO","FM-12","4","","19","24","","","-0.04","3","80","","29.83","29.80","","22","290","","34","","","","","","","","","","","","","","","","","","","","","","","","","","","","","","","","","","","","","","","","","","","","","","","","","","","","","","","","","","","","","","","","","","","","","","","","","","","","","","","","","","","","","","","","","","","SYN07601002 46/// /2915 11044 21074 30090 40102 53014 333 11044 21050 90710 91118=","","","","","","","","","",""
"01002099999","2024-05-27T01:00:00","80.05","16.25","8.0","VERLEGENHUKEN, NO","FM-12","4","","20","25","","","-0.04","1","81","","29.94","29.91","","23","285","36","28","","","","","","","","","","","","","","","","","","","","","","","","","","","","","","","","","","","","","","","","","","","","","","","","","","","","","","","","","","","","","","","","","","","","","","","","","","","","","","","","","","","","","","","","","","","SYN004BUFR","","","","","","","","","",""
"01002099999","2024-05-27T04:00:00","80.05","16.25","8.0","VERLEGENHUKEN, NO","FM-12","4","","21","26","","","-0.05","2","82","","29.99","29.96","","24","310","","22","","","","","","","","","","","","","","","","","","","","","","","","","","","","","","","","","","","","","","","","","","","","","","","","","","","","","","","","","","","","","","","","","","","","","","","","","","","","","","","","","","","","","","","","","","","SYN07601002 46/// /3110 11036 21062 30144 40156 52017 333 11035 21041 90710 91113=","","","","","","","","","",""
"01002099999","2024-05-27T10:00:00","80.05","16.25","8.0","VERLEGENHUKEN, NO","FM-12","4","","19","26","","","-0.02","2","75","","30.04","30.01","","24","290","","13","","","","","","","","","","","","","","","","","","","","","","","","","","","","","","","","","","","","","","","","","","","","","","","","","","","","","","","","","","","","","","","","","","","","","","","","","","","","","","","","","","","","","","","","","","","SYN07601002 46/// /2906 11034 21072 30162 40174 52008 333 11033 21035 90710 91107=","","","","","","","","","",""
"01002099999","2024-05-27T16:00:00","80.05","16.25","8.0","VERLEGENHUKEN, NO","FM-12","4","","20","28","","","-0.01","2","72","","30.09","30.05","","25","180","","4","","","","","","","","","","","","","","","","","","","","","","","","","","","","","","","","","","","","","","","","","","","","","","","","","","","","","","","","","","","","","","","","","","","","","","","","","","","","","","","","","","","","","","","","","","","SYN07601002 46/// /1802 11020 21065 30176 40188 52005 333 11020 21024 90710 91103=","","","","","","","","","",""
"01002099999","2024-05-27T22:00:00","80.05","16.25","8.0","VERLEGENHUKEN, NO","FM-12","4","","19","27","","","","","73","","30.06","30.03","","24","130","","13","","","","","","","","","","","","","","","","","","","","","","","","","","","","","","","","","","","","","","","","","","","","","","","","","","","","","","","","","","","","","","","","","","","","","","","","","","","","","","","","","","","","","","","","","","","SYN07601002 46/// /1306 11028 21071 30169 40181 54002 333 11028 21032 90710 91107=","","","","","","","","","",""
"01002099999","2024-05-28T04:00:00","80.05","16.25","8.0","VERLEGENHUKEN, NO","FM-12","4","","21","27","","","+0.03","7","76","","30.01","29.98","","25","120","","20","","","","","","","","","","","","","","","","","","","","","","","","","","","","","","","","","","","","","","","","","","","","","","","","","","","","","","","","","","","","","","","","","","","","","","","","","","","","","","","","","","","","","","","","","","","SYN07601002 46/// /1209 11025 21062 30152 40164 57010 333 11021 21028 90710 91111=","","","","","","","","","",""
"01002099999","2024-05-28T10:00:00","80.05","16.25","8.0","VERLEGENHUKEN, NO","FM-12","4","","24","29","","","+0.02","7","83","","29.94","29.91","","27","120","","25","","","","","","","","","","","","","","","","","","","","","","","","","","","","","","","","","","","","","","","","","","","","","","","","","","","","","","","","","","","","","","","","","","","","","","","","","","","","","","","","","","","","","","","","","","","SYN07601002 46/// /1211 11017 21042 30128 40139 57008 333 11017 21024 90710 91113=","","","","","","","","","",""
"01002099999","2024-05-28T16:00:00","80.05","16.25","8.0","VERLEGENHUKEN, NO","FM-12","4","","29","31","","","+0.01","7","91","","29.93","29.90","","30","120","","25","","","","","","","","","","","","","","","","","","","","","","","","","","","","","","","","","","","","","","","","","","","","","","","","","","","","","","","","","","","","","","","","","","","","","","","","","","","","","","","","","","","","","","","","","","","SYN07601002 46/// /1211 11006 21019 30124 40136 57004 333 11005 21008 90710 91112=","","","","","","","","","",""
"01002099999","2024-05-28T22:00:00","80.05","16.25","8.0","VERLEGENHUKEN, NO","FM-12","4","","30","33","","","-0.01","2","89","","29.95","29.91","","32","130","","13","","","","","","","","","","","","","","","","","","","","","","","","","","","","","","","","","","","","","","","","","","","","","","","","","","","","","","","","","","","","","","","","","","","","","","","","","","","","","","","","","","","","","","","","","","","SYN07601002 46/// /1306 10007 21010 30130 40142 52004 333 10007 20006 90710 91107=","","","","","","","","","",""
"01002099999","2024-05-29T04:00:00","80.05","16.25","8.0","VERLEGENHUKEN, NO","FM-12","4","","31","34","","","","","89","","29.96","29.93","","33","140","","9","","","","","","","","","","","","","","","","","","","","","","","","","","","","","","","","","","","","","","","","","","","","","","","","","","","","","","","","","","","","","","","","","","","","","","","","","","","","","","","","","","","","","","","","","","","SYN07601002 46/// /1404 10011 21005 30135 40147 54001 333 10012 20009 90710 91105=","","","","","","","","","",""
"01002099999","2024-05-29T16:00:00","80.05","16.25","8.0","VERLEGENHUKEN, NO","FM-12","4","","30","34","","","","","85","","29.99","29.96","","32","070","","2","","","","","","","","","","","","","","","","","","","","","","","","","","","","","","","","","","","","","","","","","","","","","","","","","","","","","","","","","","","","","","","","","","","","","","","","","","","","","","","","","","","","","","","","","","","SYN07601002 46/// /0701 10010 21012 30145 40157 54001 333 10010 20009 90710 91102=","","","","","","","","","",""
"01002099999","2024-05-29T22:00:00","80.05","16.25","8.0","VERLEGENHUKEN, NO","FM-12","4","","31","34","","","+0.02","8","90","","29.95","29.92","","33","110","","11","","","","","","","","","","","","","","","","","","","","","","","","","","","","","","","","","","","","","","","","","","","","","","","","","","","","","","","","","","","","","","","","","","","","","","","","","","","","","","","","","","","","","","","","","","","SYN07601002 46/// /1105 10009 21005 30131 40143 58007 333 10010 20008 90710 91106=","","","","","","","","","",""
"01002099999","2024-05-30T04:00:00","80.05","16.25","8.0","VERLEGENHUKEN, NO","FM-12","4","","31","33","","","+0.04","7","93","","29.88","29.85","","32","130","","18","","","","","","","","","","","","","","","","","","","","","","","","","","","","","","","","","","","","","","","","","","","","","","","","","","","","","","","","","","","","","","","","","","","","","","","","","","","","","","","","","","","","","","","","","","","SYN07601002 46/// /1308 10007 21003 30107 40119 57013 333 10007 20003 90710 91110=","","","","","","","","","",""
"01002099999","2024-05-30T10:00:00","80.05","16.25","8.0","VERLEGENHUKEN, NO","FM-12","4","","30","33","","","+0.01","7","89","","29.82","29.79","","32","130","","27","","","","","","","","","","","","","","","","","","","","","","","","","","","","","","","","","","","","","","","","","","","","","","","","","","","","","","","","","","","","","","","","","","","","","","","","","","","","","","","","","","","","","","","","","","","SYN07601002 46/// /1312 10008 21009 30088 40099 57005 333 10015 20008 90710 91114=","","","","","","","","","",""
"01002099999","2024-05-30T16:00:00","80.05","16.25","8.0","VERLEGENHUKEN, NO","FM-12","4","","31","34","","","0.00","9","89","","29.86","29.83","","33","130","","20","","","","","","","","","","","","","","","","","","","","","","","","","","","","","","","","","","","","","","","","","","","","","","","","","","","","","","","","","","","","","","","","","","","","","","","","","","","","","","","","","","","","","","","","","","","SYN07601002 46/// /1309 10009 21007 30100 40112 50000 333 10012 20008 90710 91110=","","","","","","","","","",""
"01002099999","2024-05-30T22:00:00","80.05","16.25","8.0","VERLEGENHUKEN, NO","FM-12","4","","31","33","","","","","91","","29.89","29.85","","32","130","","20","","","","","","","","","","","","","","","","","","","","","","","","","","","","","","","","","","","","","","","","","","","","","","","","","","","","","","","","","","","","","","","","","","","","","","","","","","","","","","","","","","","","","","","","","","","SYN07601002 46/// /1309 10007 21006 30109 40121 54003 333 10009 20007 90710 91111=","","","","","","","","","",""
"01002099999","2024-05-31T04:00:00","80.05","16.25","8.0","VERLEGENHUKEN, NO","FM-12","4","","31","34","","","+0.05","7","89","","29.84","29.81","","33","120","","29","","","","","","","","","","","","","","","","","","","","","","","","","","","","","","","","","","","","","","","","","","","","","","","","","","","","","","","","","","","","","","","","","","","","","","","","","","","","","","","","","","","","","","","","","","","SYN07601002 46/// /1213 10010 21006 30094 40106 57016 333 10013 20009 90710 91115=","","","","","","","","","",""
"01002099999","2024-05-31T10:00:00","80.05","16.25","8.0","VERLEGENHUKEN, NO","FM-12","4","","32","34","","","+0.06","7","92","","29.75","29.72","","33","110","","34","","","","","","","","","","","","","","","","","","","","","","","","","","","","","","","","","","","","","","","","","","","","","","","","","","","","","","","","","","","","","","","","","","","","","","","","","","","","","","","","","","","","","","","","","","","SYN07601002 46/// /1115 10010 21001 30064 40075 57021 333 10016 20007 90710 91119=","","","","","","","","","",""
"01002099999","2024-05-31T16:00:00","80.05","16.25","8.0","VERLEGENHUKEN, NO","FM-12","4","","33","37","","","-0.03","2","83","","29.76","29.72","","35","110","","11","","","","","","","","","","","","","","","","","","","","","","","","","","","","","","","","","","","","","","","","","","","","","","","","","","","","","","","","","","","","","","","","","","","","","","","","","","","","","","","","","","","","","","","","","","","SYN07601002 46/// /1105 10030 20004 30066 40077 52010 333 10034 20022 90710 91110=","","","","","","","","","",""
"01002099999","2024-05-31T22:00:00","80.05","16.25","8.0","VERLEGENHUKEN, NO","FM-12","4","","34","37","","","-0.06","1","91","","29.85","29.81","","36","206","17","6","","","","","","","","","","","","","","","","","","","","","","","","","","","","","","","","","","","","","","","","","","","","","","","","","","","","","","","","","","","","","","","","","","","","","","","","","","","","","","","","","","","","","","","","","","","SYN004BUFR","","","","","","","","","",""
"01002099999","2024-06-01T04:00:00","80.05","16.25","8.0","VERLEGENHUKEN, NO","FM-12","4","","33","37","","","-0.03","2","86","","29.92","29.89","","35","240","","16","","","","","","","","","","","","","","","","","","","","","","","","","","","","","","","","","","","","","","","","","","","","","","","","","","","","","","","","","","","","","","","","","","","","","","","","","","","","","","","","","","","","","","","","","","","SYN07601002 46/// /2407 10027 20006 30121 40132 52009 333 10035 20027 90710 91111=","","","","","","","","","",""
"01002099999","2024-06-01T10:00:00","80.05","16.25","8.0","VERLEGENHUKEN, NO","FM-12","4","","33","36","","","+0.02","7","90","","29.93","29.90","","35","100","","16","","","","","","","","","","","","","","","","","","","","","","","","","","","","","","","","","","","","","","","","","","","","","","","","","","","","","","","","","","","","","","","","","","","","","","","","","","","","","","","","","","","","","","","","","","","SYN07601002 46/// /1007 10020 20005 30125 40137 57007 333 10022 20019 90710 91108=","","","","","","","","","",""
"01002099999","2024-06-01T22:00:00","80.05","16.25","8.0","VERLEGENHUKEN, NO","FM-12","4","","32","35","","","+0.01","8","91","","29.90","29.87","","34","130","","13","","","","","","","","","","","","","","","","","","","","","","","","","","","","","","","","","","","","","","","","","","","","","","","","","","","","","","","","","","","","","","","","","","","","","","","","","","","","","","","","","","","","","","","","","","","SYN07601002 46/// /1306 10014 21000 30114 40126 58003 333 10016 20014 90710 91107=","","","","","","","","","",""
"01002099999","2024-06-02T04:00:00","80.05","16.25","8.0","VERLEGENHUKEN, NO","FM-12","4","","31","34","","","+0.01","5","92","","29.88","29.85","","33","120","","13","","","","","","","","","","","","","","","","","","","","","","","","","","","","","","","","","","","","","","","","","","","","","","","","","","","","","","","","","","","","","","","","","","","","","","","","","","","","","","","","","","","","","","","","","","","SYN07601002 46/// /1206 10009 21003 30107 40119 55002 333 10012 20008 90710 91108=","","","","","","","","","",""
"01002099999","2024-06-02T10:00:00","80.05","16.25","8.0","VERLEGENHUKEN, NO","FM-12","4","","32","36","","","+0.01","7","87","","29.85","29.82","","34","120","","13","","","","","","","","","","","","","","","","","","","","","","","","","","","","","","","","","","","","","","","","","","","","","","","","","","","","","","","","","","","","","","","","","","","","","","","","","","","","","","","","","","","","","","","","","","","SYN07601002 46/// /1206 10021 20002 30097 40109 57005 333 10024 20017 90710 91107=","","","","","","","","","",""
"01002099999","2024-06-02T16:00:00","80.05","16.25","8.0","VERLEGENHUKEN, NO","FM-12","4","","32","35","","","+0.03","7","89","","29.81","29.78","","34","130","","16","","","","","","","","","","","","","","","","","","","","","","","","","","","","","","","","","","","","","","","","","","","","","","","","","","","","","","","","","","","","","","","","","","","","","","","","","","","","","","","","","","","","","","","","","","","SYN07601002 46/// /1307 10017 20001 30084 40096 57010 333 10023 20017 90710 91108=","","","","","","","","","",""
"01002099999","2024-06-02T22:00:00","80.05","16.25","8.0","VERLEGENHUKEN, NO","FM-12","4","","32","35","","","+0.02","7","88","","29.75","29.71","","34","120","","20","","","","","","","","","","","","","","","","","","","","","","","","","","","","","","","","","","","","","","","","","","","","","","","","","","","","","","","","","","","","","","","","","","","","","","","","","","","","","","","","","","","","","","","","","","","SYN07601002 46/// /1209 10018 20000 30062 40074 57008 333 10020 20013 90710 91110=","","","","","","","","","",""
"01002099999","2024-06-03T04:00:00","80.05","16.25","8.0","VERLEGENHUKEN, NO","FM-12","4","","32","35","","","+0.02","6","89","","29.71","29.67","","34","110","","20","","","","","","","","","","","","","","","","","","","","","","","","","","","","","","","","","","","","","","","","","","","","","","","","","","","","","","","","","","","","","","","","","","","","","","","","","","","","","","","","","","","","","","","","","","","SYN07601002 46/// /1109 10016 21000 30048 40060 56007 333 10016 20012 90710 91112=","","","","","","","","","",""
"01002099999","2024-06-03T07:00:00","80.05","16.25","8.0","VERLEGENHUKEN, NO","FM-12","4","","32","35","","","-0.00","0","89","","29.71","29.67","","34","096","31","25","","","","","","","","","","","","","","","","","","","","","","","","","","","","","","","","","","","","","","","","","","","","","","","","","","","","","","","","","","","","","","","","","","","","","","","","","","","","","","","","","","","","","","","","","","","SYN004BUFR","","","","","","","","","",""
"01002099999","2024-06-03T10:00:00","80.05","16.25","8.0","VERLEGENHUKEN, NO","FM-12","4","","32","35","","","-0.01","2","89","","29.72","29.68","","34","100","","29","","","","","","","","","","","","","","","","","","","","","","","","","","","","","","","","","","","","","","","","","","","","","","","","","","","","","","","","","","","","","","","","","","","","","","","","","","","","","","","","","","","","","","","","","","","SYN07601002 46/// /1013 10014 21002 30051 40063 54002 333 10014 20012 90710 91115=","","","","","","","","","",""
"01002099999","2024-06-03T16:00:00","80.05","16.25","8.0","VERLEGENHUKEN, NO","FM-12","4","","33","36","","","-0.04","2","87","","29.76","29.73","","35","110","","27","","","","","","","","","","","","","","","","","","","","","","","","","","","","","","","","","","","","","","","","","","","","","","","","","","","","","","","","","","","","","","","","","","","","","","","","","","","","","","","","","","","","","","","","","","","SYN07601002 46/// /1112 10023 20004 30068 40079 52013 333 10023 20016 90710 91116=","","","","","","","","","",""
